FacilityID;NationalID;FacilityName;StreetName;BuildingNumber;PostalCode;City;CountryName;Lat;Long;CompetentAuthorityName;MainIAActivityCode;MainIASectorName;MainIAActivityName;MainIASubActivityName;MainActivityIndicator;ReportingYear;PollutantName;PollutantGroupName;TotalQuantity [kg/year];ReleaseMediumName
43843;06-05-100-0248923;RWE Power AG;Energiestraße;101;41517;Grevenbroich;Germany;51.03722351;6.599201085;Umweltbundesamt;1.(c);Energy sector;Thermal power stations and other combustion installations;;WAHR;2017;Carbon dioxide (CO2);Greenhouse gases;29900000000;Air
44073;06-05-300-0326774;RWE Power AG Kraftwerk Niederaußem;Werkstr.;1;50129;Bergheim;Germany;50.97092682;6.666581622;Umweltbundesamt;1.(c);Energy sector;Thermal power stations and other combustion installations;;WAHR;2017;Carbon dioxide (CO2);Greenhouse gases;27200000000;Air
43721;06-04-11/2005382/5/0;ArcelorMittal Bremen GmbH;Carl-Benz-Straße;30;28237;Bremen;Germany;53.12493943;8.686728464;Umweltbundesamt;2.(b);Productiona and processing of metals;Installations for the production of pig iron or steel (primary or secondary melting) including continuous casting;;WAHR;2017;Carbon dioxide (CO2);Greenhouse gases;26600000000;Air
46361;12-40710010000;LEAG, Kraftwerk Jänschwalde;Kraftwerkstraße;-;3185;Teichland;Germany;51.83360107;14.45798934;Umweltbundesamt;1.(c);Energy sector;Thermal power stations and other combustion installations;;WAHR;2017;Carbon dioxide (CO2);Greenhouse gases;24000000000;Air
74662;14-70-46630660001;Kraftwerk Boxberg;Kraftwerksstraße -;-;2943;Boxberg;Germany;51.41884798;14.57432002;Umweltbundesamt;1.(c);Energy sector;Thermal power stations and other combustion installations;;WAHR;2017;Carbon dioxide (CO2);Greenhouse gases;19100000000;Air
44118;06-05-300-0877384;RWE Power AG;Zum Kraftwerk;17;52249;Eschweiler;Germany;50.83316205;6.314578115;Umweltbundesamt;1.(c);Energy sector;Thermal power stations and other combustion installations;;WAHR;2017;Carbon dioxide (CO2);Greenhouse gases;19100000000;Air
46366;12-40716440000;LEAG, Kraftwerk Schwarze Pumpe;An der alten Ziegelei;1;3130;Spremberg;Germany;51.53549739;14.35357573;Umweltbundesamt;1.(c);Energy sector;Thermal power stations and other combustion installations;;WAHR;2017;Carbon dioxide (CO2);Greenhouse gases;11500000000;Air
74740;14-80-00009560000;LEAG Lausitz Energie Kraftwerke AG  Kraftwerk Lippendorf;Hauptstraße;200;4575;Neukieritzsch;Germany;51.18413954;12.37164339;Umweltbundesamt;1.(c);Energy sector;Thermal power stations and other combustion installations;;WAHR;2017;Carbon dioxide (CO2);Greenhouse gases;11400000000;Air
43283;03-01-01211092310;Salzgitter Flachstahl GmbH;Eisenhüttenstr.;99;38239;Salzgitter;Germany;52.15476492;10.40307531;Umweltbundesamt;2.(b);Productiona and processing of metals;Installations for the production of pig iron or steel (primary or secondary melting) including continuous casting;;WAHR;2017;Carbon dioxide (CO2);Greenhouse gases;7940000000;Air
109453;07-05-8290552;BASF SE;Carl-Bosch-Str.;38;67056;Ludwigshafen am Rhein;Germany;49.51739119;8.423445647;Umweltbundesamt;4.(a);Chemical industry;Chemical installations for the production on an industrial scale of basic organic chemicals, such as:;#NAME?;WAHR;2017;Carbon dioxide (CO2);Greenhouse gases;7350000000;Air
2475;06-08-2948214;GKM Grosskraftwerk Mannheim AG;Marguerrestraße;1;68199;Mannheim;Germany;49.44577216;8.492229095;Umweltbundesamt;1.(c);Energy sector;Thermal power stations and other combustion installations;;WAHR;2017;Carbon dioxide (CO2);Greenhouse gases;6860000000;Air
293020;06-02-BERZ003800;Vattenfall Heizkraftwerk Moorburg GmbH HKW Moorburg;Moorburger Schanze;2;21079;Hamburg;Germany;53.49102086;9.950205641;Umweltbundesamt;1.(c);Energy sector;Thermal power stations and other combustion installations;;WAHR;2017;Carbon dioxide (CO2);Greenhouse gases;6160000000;Air
46848;12358;Uniper Kraftwerke GmbH;An der Bober;100;6258;Schkopau;Germany;51.39846164;11.95039901;Umweltbundesamt;1.(c);Energy sector;Thermal power stations and other combustion installations;;WAHR;2017;Carbon dioxide (CO2);Greenhouse gases;5500000000;Air
43779;06-05-100-0077961;Hüttenwerke Krupp Mannesmann GmbH;Ehinger Str.;200;47259;Duisburg;Germany;51.36823117;6.712267332;Umweltbundesamt;2.(b);Productiona and processing of metals;Installations for the production of pig iron or steel (primary or secondary melting) including continuous casting;;WAHR;2017;Carbon dioxide (CO2);Greenhouse gases;5130000000;Air
43818;06-05-100-0209686;thyssenkrupp Steel Europe AG Werk Schwelgern;Kaiser - Wilhelm - Straße;100;47166;Duisburg;Germany;51.5036903;6.735907484;Umweltbundesamt;2.(b);Productiona and processing of metals;Installations for the production of pig iron or steel (primary or secondary melting) including continuous casting;;WAHR;2017;Carbon dioxide (CO2);Greenhouse gases;4690000000;Air
3141;06-10-0078669;ROGESA Roheisengesellschaft Saar mbH;Werkstraße;1;66763;Dillingen/Saar;Germany;49.35213699;6.743652603;Umweltbundesamt;2.(b);Productiona and processing of metals;Installations for the production of pig iron or steel (primary or secondary melting) including continuous casting;;WAHR;2017;Carbon dioxide (CO2);Greenhouse gases;4620000000;Air
44290;06-05-500-0342658;Uniper Kraftwerke GmbH Kraftwerk Scholven;Glückaufstr.;56;45896;Gelsenkirchen;Germany;51.60241087;7.009859059;Umweltbundesamt;1.(c);Energy sector;Thermal power stations and other combustion installations;;WAHR;2017;Carbon dioxide (CO2);Greenhouse gases;4300000000;Air
74350;12-20730670000;PCK Raffinerie GmbH Schwedt;Passower Chaussee;111;16303;Schwedt/Oder;Germany;53.08758529;14.23812153;Umweltbundesamt;1.(a);Energy sector;Mineral oil and gas refineries;;WAHR;2017;Carbon dioxide (CO2);Greenhouse gases;3850000000;Air
2469;06-08-2797933;Rheinhafen-Dampfkraftwerk Karlsruhe;Fettweisstraße;60;76189;Karlsruhe;Germany;49.01430317;8.304211229;Umweltbundesamt;1.(c);Energy sector;Thermal power stations and other combustion installations;;WAHR;2017;Carbon dioxide (CO2);Greenhouse gases;3840000000;Air
293058;06-05-100-0008504;thyssenkrupp Steel Europe AG Werk Kraftwerk Hamborn;Kaiser - Wilhelm - Straße;100;47166;Duisburg;Germany;51.49125002;6.726482842;Umweltbundesamt;1.(c);Energy sector;Thermal power stations and other combustion installations;;WAHR;2017;Carbon dioxide (CO2);Greenhouse gases;3720000000;Air
43885;06-05-100-0431367;thyssenkrupp Steel Europe AG Werk Ruhrort;Kaiser - Wilhelm - Straße;100;47166;Duisburg;Germany;51.46030211;6.731030496;Umweltbundesamt;1.(c);Energy sector;Thermal power stations and other combustion installations;;WAHR;2017;Carbon dioxide (CO2);Greenhouse gases;3630000000;Air
43783;06-05-100-0081105;RWE Power AG Kraftwerk Frimmersdorf;Energiestraße;10;41517;Grevenbroich;Germany;51.05851973;6.582543026;Umweltbundesamt;1.(c);Energy sector;Thermal power stations and other combustion installations;;WAHR;2017;Carbon dioxide (CO2);Greenhouse gases;3580000000;Air
74041;06-05-500-0053929;Ruhr Oel GmbH Werk Scholven;Pawiker Straße;30;45896;Gelsenkirchen;Germany;51.59603275;7.028908506;Umweltbundesamt;1.(a);Energy sector;Mineral oil and gas refineries;;WAHR;2017;Carbon dioxide (CO2);Greenhouse gases;3320000000;Air
43825;06-05-100-0220947;Hüttenwerke Krupp Mannesmann GmbH KW Huckingen;Ehinger Str.;200;47259;Duisburg;Germany;51.37090094;6.719117326;Umweltbundesamt;1.(c);Energy sector;Thermal power stations and other combustion installations;;WAHR;2017;Carbon dioxide (CO2);Greenhouse gases;3220000000;Air
43866;06-05-100-0365906;STEAG GmbH Heizkraftwerk Walsum;Dr.-Wilhelm-Roelen-Str.;129;47179;Duisburg;Germany;51.52600178;6.719619082;Umweltbundesamt;1.(c);Energy sector;Thermal power stations and other combustion installations;;WAHR;2017;Carbon dioxide (CO2);Greenhouse gases;3130000000;Air
74015;06-05-300-0928938;INEOS Köln GmbH;Alte Straße;201;50769;Köln;Germany;51.06763602;6.846742503;Umweltbundesamt;4.(a);Chemical industry;Chemical installations for the production on an industrial scale of basic organic chemicals, such as:;;WAHR;2017;Carbon dioxide (CO2);Greenhouse gases;2740000000;Air
44612;06-05-900-0079017;RWE Generation SE Kraftwerk Westfalen;Siegenbeckstrasse;10;59071;Hamm;Germany;51.6826061;7.969915522;Umweltbundesamt;1.(c);Energy sector;Thermal power stations and other combustion installations;;WAHR;2017;Carbon dioxide (CO2);Greenhouse gases;2710000000;Air
189251;06-05-900-9141660;Trianel Kohlekraftwerk Lünen GmbH & Co. KG;Frydagstr.;40;44536;Lünen;Germany;51.61411408;7.465236254;Umweltbundesamt;1.(c);Energy sector;Thermal power stations and other combustion installations;;WAHR;2017;Carbon dioxide (CO2);Greenhouse gases;2650000000;Air
44288;06-05-500-0338944;RWE Generation SE Kraftwerk Ibbenbüren;Schwarzer Weg;-;49479;Ibbenbüren;Germany;52.28884995;7.747889733;Umweltbundesamt;1.(c);Energy sector;Thermal power stations and other combustion installations;;WAHR;2017;Carbon dioxide (CO2);Greenhouse gases;2540000000;Air
43302;03-01-01241117210;Volkswagen AG Werk Wolfsburg;Berliner Ring;2;38440;Wolfsburg;Germany;52.42953689;10.76833577;Umweltbundesamt;1.(c);Energy sector;Thermal power stations and other combustion installations;;WAHR;2017;Carbon dioxide (CO2);Greenhouse gases;2540000000;Air
44323;06-05-500-0875785;Evonik Degussa GmbH;Paul-Baumann-Str.;1;45772;Marl;Germany;51.67838615;7.103039879;Umweltbundesamt;4.(a);Chemical industry;Chemical installations for the production on an industrial scale of basic organic chemicals, such as:;- Basic plastic materials (polymers, synthetic fibres and cellulose-based fibres);WAHR;2017;Carbon dioxide (CO2);Greenhouse gases;2510000000;Air
46251;06-11-01-1105609;Vattenfall  Wärme  Berlin AG HKW Reuter-West;Großer Spreering;5;13599;Berlin;Germany;52.53525666;13.24372661;Umweltbundesamt;1.(c);Energy sector;Thermal power stations and other combustion installations;;WAHR;2017;Carbon dioxide (CO2);Greenhouse gases;2490000000;Air
46945;16574;SKW Stickstoffwerke Piesteritz GmbH;Möllensdorfer Straße;13;6886;Lutherstadt Wittenberg;Germany;51.87859337;12.57512855;Umweltbundesamt;4.(c);Chemical industry;Chemical installations for the production on an industrial scale of phosphorous-, nitrogen- or potassium-based fertilisers (simple or compound fertilisers);;WAHR;2017;Carbon dioxide (CO2);Greenhouse gases;2400000000;Air
45680;06-09-100-0088-0001;SWM Heizkraftwerk Nord;Münchner Straße;22;85774;Unterföhring;Germany;48.18120037;11.63977268;Umweltbundesamt;1.(c);Energy sector;Thermal power stations and other combustion installations;;WAHR;2017;Carbon dioxide (CO2);Greenhouse gases;2380000000;Air
46405;13-30-1010101;KNG Kraftwerks- und Netzgesellschaft mbH Kraftwerk Rostock;Am Kühlturm;1;18147;Rostock;Germany;54.1428128;12.13294219;Umweltbundesamt;1.(c);Energy sector;Thermal power stations and other combustion installations;;WAHR;2017;Carbon dioxide (CO2);Greenhouse gases;2320000000;Air
43719;06-04-11/2001178/8/2;swb Erzeugung AG & Co. KG / Kraftwerk Mittelsbüren;Auf den Delben;35;28237;Bremen;Germany;53.12872239;8.686147976;Umweltbundesamt;1.(c);Energy sector;Thermal power stations and other combustion installations;;WAHR;2017;Carbon dioxide (CO2);Greenhouse gases;2320000000;Air
74009;06-05-300-0215520;Basell Polyolefine GmbH Werk Wesseling;Brühler Str.;60;50389;Wesseling;Germany;50.83268204;6.94406668;Umweltbundesamt;4.(a);Chemical industry;Chemical installations for the production on an industrial scale of basic organic chemicals, such as:;;WAHR;2017;Carbon dioxide (CO2);Greenhouse gases;2300000000;Air
46329;12-30670510000;VEO Vulkan-Energiewirtschaft - Oderbrücke GmbH;Jugendstraße;1;15890;Eisenhüttenstadt;Germany;52.16280988;14.63339772;Umweltbundesamt;1.(c);Energy sector;Thermal power stations and other combustion installations;;WAHR;2017;Carbon dioxide (CO2);Greenhouse gases;2250000000;Air
44061;06-05-300-0215443;Shell Deutschland Oil GmbH Rheinland Raffinerie, Werk Süd;Ludwigshafener Str.;1;50389;Wesseling;Germany;50.81411042;7.005756279;Umweltbundesamt;1.(a);Energy sector;Mineral oil and gas refineries;;WAHR;2017;Carbon dioxide (CO2);Greenhouse gases;2180000000;Air
200943;03-09-09000237910;ENGIE Kraftwerk Wilhelmshaven GmbH & Co. KG;Niedersachsendamm;10;26388;Wilhelmshaven;Germany;53.57035546;8.138532878;Umweltbundesamt;1.(c);Energy sector;Thermal power stations and other combustion installations;;WAHR;2017;Carbon dioxide (CO2);Greenhouse gases;2110000000;Air
2466;06-08-2719371;MIRO-Mineralölraffinerie Oberrhein GmbH & Co.KG;Nördliche Raffineriestr.;1;76187;Karlsruhe;Germany;49.05780929;8.329049992;Umweltbundesamt;1.(a);Energy sector;Mineral oil and gas refineries;;WAHR;2017;Carbon dioxide (CO2);Greenhouse gases;2050000000;Air
43941;06-05-100-0990890;Pruna Betreiber GmbH vertreten durch die KBS GmbH Werk Schwelgern;Alsumer Steig;100;47166;Duisburg;Germany;51.50099128;6.728879811;Umweltbundesamt;1.(d);Energy sector;Coke ovens;;WAHR;2017;Carbon dioxide (CO2);Greenhouse gases;2040000000;Air
46977;17928;Zellstoff Stendal GmbH;Goldbecker Straße 1;1;39596;Arneburg;Germany;52.69061825;11.98589833;Umweltbundesamt;6.(a);Paper and wood production processing;Industrial plants for the production of pulp from timber or similar fibrous materials;;WAHR;2017;Carbon dioxide (CO2);Greenhouse gases;2020000000;Air
43842;06-05-100-0238246;Rheinkalk GmbH Werk Flandersbach;Am Kalkstein;1;42489;Wülfrath;Germany;51.28003622;7.022492879;Umweltbundesamt;3.(c);Mineral industry;Installations for the production of:;#NAME?;WAHR;2017;Carbon dioxide (CO2);Greenhouse gases;1980000000;Air
44414;06-05-700-0105516;Uniper Kraftwerke GmbH Kraftwerk Heyden;Kraftwerksiedlung;2;32469;Petershagen;Germany;52.38161589;8.99867774;Umweltbundesamt;1.(c);Energy sector;Thermal power stations and other combustion installations;;WAHR;2017;Carbon dioxide (CO2);Greenhouse gases;1980000000;Air
43260;03-01-01010098080;Kraftwerk Mehrum GmbH;Triftstr.;25;31249;Hohenhameln;Germany;52.31504359;10.09141519;Umweltbundesamt;1.(c);Energy sector;Thermal power stations and other combustion installations;;WAHR;2017;Carbon dioxide (CO2);Greenhouse gases;1920000000;Air
46328;12-30670480000;ArcelorMittal Eisenhüttenstadt GmbH;Werkstraße;1;15890;Eisenhüttenstadt;Germany;52.16614052;14.61768224;Umweltbundesamt;2.(b);Productiona and processing of metals;Installations for the production of pig iron or steel (primary or secondary melting) including continuous casting;;WAHR;2017;Carbon dioxide (CO2);Greenhouse gases;1890000000;Air
44894;06-00176010435;Uniper Kraftwerk Staudinger;Hanauer Landstraße;150;63538;Großkrotzenburg;Germany;50.0876757;8.953450438;Umweltbundesamt;1.(c);Energy sector;Thermal power stations and other combustion installations;;WAHR;2017;Carbon dioxide (CO2);Greenhouse gases;1890000000;Air
297172;06-05-800-0009877;RWE Power AG Veredlungsstandort Knapsacker Hügel;Goldenbergstraße;2;50354;Hürth;Germany;50.8635988;6.833008002;Umweltbundesamt;1.(c);Energy sector;Thermal power stations and other combustion installations;;WAHR;2017;Carbon dioxide (CO2);Greenhouse gases;1810000000;Air
73639;17192;TOTAL Raffinerie Mitteldeutschland GmbH (Raffinerie/POX);Maienweg;1;6237;Leuna;Germany;51.28764321;12.00011797;Umweltbundesamt;1.(a);Energy sector;Mineral oil and gas refineries;;WAHR;2017;Carbon dioxide (CO2);Greenhouse gases;1780000000;Air
44732;06-05-900-0865327;RWE Generation SE Kraftwerk Werne Gersteinwerk;Hammer Strasse;2;59368;Werne;Germany;51.67347775;7.716816712;Umweltbundesamt;1.(c);Energy sector;Thermal power stations and other combustion installations;;WAHR;2017;Carbon dioxide (CO2);Greenhouse gases;1730000000;Air
43604;03-10-10257673950;RWE Generation SE Erdgaskraftwerk Emsland;Schüttorfer Str.;100;49808;Lingen (Ems);Germany;52.48072556;7.306057251;Umweltbundesamt;1.(c);Energy sector;Thermal power stations and other combustion installations;;WAHR;2017;Carbon dioxide (CO2);Greenhouse gases;1690000000;Air
44675;06-05-900-0205103;Gemeinschaftskraftwerk Bergkamen A beschränkt haftende OHG;Westenhellweg;110;59192;Bergkamen;Germany;51.63716577;7.619127881;Umweltbundesamt;1.(c);Energy sector;Thermal power stations and other combustion installations;;WAHR;2017;Carbon dioxide (CO2);Greenhouse gases;1640000000;Air
70119;03-06-06060316030;GKH - Gemeinschaftskraftwerk Hannover GmbH;Stelinger Straße;19;30419;Hannover;Germany;52.42031711;9.647596009;Umweltbundesamt;1.(c);Energy sector;Thermal power stations and other combustion installations;;WAHR;2017;Carbon dioxide (CO2);Greenhouse gases;1590000000;Air
46317;12-30640030000;CEMEX Zement GmbH;Frankfurter Chaussee;-;15562;Rüdersdorf bei Berlin;Germany;52.48906926;13.83692917;Umweltbundesamt;3.(c);Mineral industry;Installations for the production of:;#NAME?;WAHR;2017;Carbon dioxide (CO2);Greenhouse gases;1560000000;Air
44712;06-05-900-0327252;STEAG GmbH HKW Herne;Hertener Str.;16;44653;Herne;Germany;51.55073894;7.18745829;Umweltbundesamt;1.(c);Energy sector;Thermal power stations and other combustion installations;;WAHR;2017;Carbon dioxide (CO2);Greenhouse gases;1530000000;Air
44081;06-05-300-0370387;RheinEnergie AG (GuD-Heizkraftwerk Niehl );Am Molenkopf;3;50735;Köln;Germany;50.97411364;6.990774824;Umweltbundesamt;1.(c);Energy sector;Thermal power stations and other combustion installations;;WAHR;2017;Carbon dioxide (CO2);Greenhouse gases;1520000000;Air
43718;06-04-11/2001178/8/1;swb Erzeugung AG & Co. KG / Heizkraftwerk Hafen;Otavi-Straße;9;28237;Bremen;Germany;53.12391569;8.727337943;Umweltbundesamt;1.(c);Energy sector;Thermal power stations and other combustion installations;;WAHR;2017;Carbon dioxide (CO2);Greenhouse gases;1510000000;Air
256988;06-09-100-0003-0003;ENGIE Deutschland AG Standort Kraftwerk Zolling;Leininger Straße;1;85406;Zolling;Germany;48.45520209;11.79951933;Umweltbundesamt;1.(c);Energy sector;Thermal power stations and other combustion installations;;WAHR;2017;Carbon dioxide (CO2);Greenhouse gases;1500000000;Air
44060;06-05-300-0213768;Shell Deutschland Oil GmbH Rheinland Raffinerie Werk Nord;Godorfer Hauptstr.;150;50997;Köln;Germany;50.85499337;6.976845536;Umweltbundesamt;1.(a);Energy sector;Mineral oil and gas refineries;;WAHR;2017;Carbon dioxide (CO2);Greenhouse gases;1420000000;Air
70917;06-05-300-9002708;"RWE Generation SE Kraftwerke Region West; GuD-Anlage";Chempark, Geb. A789;-;41539;Dormagen;Germany;51.08052095;6.82762554;Umweltbundesamt;1.(c);Energy sector;Thermal power stations and other combustion installations;;WAHR;2017;Carbon dioxide (CO2);Greenhouse gases;1390000000;Air
44486;06-05-800-0197054;RWE Power AG-Fabrik Frechen;Ludwigstr.;1;50226;Frechen;Germany;50.89424619;6.791055593;Umweltbundesamt;1.(f);Energy sector;Installations for the manufacture of coal products and solid smokeless fuel;;WAHR;2017;Carbon dioxide (CO2);Greenhouse gases;1390000000;Air
74742;14-80-54102340000;Dow Olefinverbund GmbH Werk Böhlen;Olefinstraße;1;4564;Böhlen;Germany;51.1914252;12.3560994;Umweltbundesamt;4.(a);Chemical industry;Chemical installations for the production on an industrial scale of basic organic chemicals, such as:;- Simple hydrocarbons (linear or cyclic, saturated or unsaturated, aliphatic or aromatic);WAHR;2017;Carbon dioxide (CO2);Greenhouse gases;1330000000;Air
43822;06-05-100-0215455;thyssenkrupp Steel Europe AG Werk Hamborn;Kaiser - Wilhelm - Straße;100;47166;Duisburg;Germany;51.49125002;6.726482842;Umweltbundesamt;2.(b);Productiona and processing of metals;Installations for the production of pig iron or steel (primary or secondary melting) including continuous casting;;WAHR;2017;Carbon dioxide (CO2);Greenhouse gases;1320000000;Air
43585;03-09-09281566110;Uniper Kraftwerke GmbH Kraftwerk Wilhelmshaven;Zum Kraftwerk;20;26386;Wilhelmshaven;Germany;53.56496829;8.146916689;Umweltbundesamt;1.(c);Energy sector;Thermal power stations and other combustion installations;;WAHR;2017;Carbon dioxide (CO2);Greenhouse gases;1320000000;Air
158073;06-10-00107401;GKW -Gichtgaskraftwerk Dillingen GmbH & Co. KG;Werkstraße;1;66763;Dillingen/Saar;Germany;49.35459012;6.741667403;Umweltbundesamt;1.(c);Energy sector;Thermal power stations and other combustion installations;;WAHR;2017;Carbon dioxide (CO2);Greenhouse gases;1260000000;Air
2450;06-08-1741292;Heizkraftwerk Altbach/Deizisau;Industriestr.;11;73776;Altbach;Germany;48.71912047;9.3712976;Umweltbundesamt;1.(c);Energy sector;Thermal power stations and other combustion installations;;WAHR;2017;Carbon dioxide (CO2);Greenhouse gases;1250000000;Air
43727;06-04-11/2039669/2/0;ENGIE Kraftwerk Farge GmbH & Co. KGaA;Wilhelmshavener Str;6;28777;Bremen;Germany;53.20209877;8.516171218;Umweltbundesamt;1.(c);Energy sector;Thermal power stations and other combustion installations;;WAHR;2017;Carbon dioxide (CO2);Greenhouse gases;1240000000;Air
105006;06-02-B10132A001;Vattenfall Wärme Hamburg GmbH Heizkraftwerk Tiefstack;Andreas-Meyer-Straße;8;22113;Hamburg;Germany;53.5260858;10.06551948;Umweltbundesamt;1.(c);Energy sector;Thermal power stations and other combustion installations;;WAHR;2017;Carbon dioxide (CO2);Greenhouse gases;1210000000;Air
57014;06-09-273-0310-0001;BAYERNOIL Betriebsteil Neustadt;Raffineriestr.;100;93333;Neustadt a.d.Donau;Germany;48.78499323;11.75797661;Umweltbundesamt;1.(a);Energy sector;Mineral oil and gas refineries;;WAHR;2017;Carbon dioxide (CO2);Greenhouse gases;1170000000;Air
47048;16-77-75528770000;Deuna Zement GmbH;Industriestr.;7;37355;Deuna;Germany;51.36275973;10.48356827;Umweltbundesamt;3.(c);Mineral industry;Installations for the production of:;#NAME?;WAHR;2017;Carbon dioxide (CO2);Greenhouse gases;1160000000;Air
56101;06-00453010412;InfraServ GmbH & Co. Höchst KG;Brüningstraße;50;65926;Frankfurt am Main, St.;Germany;50.08841603;8.536830837;Umweltbundesamt;1.(c);Energy sector;Thermal power stations and other combustion installations;;WAHR;2017;Carbon dioxide (CO2);Greenhouse gases;1140000000;Air
157770;01-50-56050192711;Vattenfall Wärme Berlin AG Heizkraftwerk Wedel;Tinsdaler Weg;146;22880;Wedel;Germany;53.56647425;9.725672874;Umweltbundesamt;1.(c);Energy sector;Thermal power stations and other combustion installations;;WAHR;2017;Carbon dioxide (CO2);Greenhouse gases;1140000000;Air
104959;01-50-02000283604;Gemeinschaftskraftwerk Kiel GmbH GKK;Hasselfelde;40;24149;Kiel;Germany;54.33865273;10.17697627;Umweltbundesamt;1.(c);Energy sector;Thermal power stations and other combustion installations;;WAHR;2017;Carbon dioxide (CO2);Greenhouse gases;1120000000;Air
44246;06-05-500-0073211;Ruhr Oel GmbH Werk Horst;Johannastrasse;02. Aug;45899;Gelsenkirchen;Germany;51.53960695;7.037202844;Umweltbundesamt;1.(a);Energy sector;Mineral oil and gas refineries;;WAHR;2017;Carbon dioxide (CO2);Greenhouse gases;1120000000;Air
44251;06-05-500-0106867;Dyckerhoff GmbH;Lienener Str.;89;49525;Lengerich;Germany;52.17498589;7.887827641;Umweltbundesamt;3.(c);Mineral industry;Installations for the production of:;#NAME?;WAHR;2017;Carbon dioxide (CO2);Greenhouse gases;1110000000;Air
3124;06-10-00101000;Kraftwerk Fenne;Saarbrücker Straße;133-135;66333;Völklingen;Germany;49.24913206;6.878998636;Umweltbundesamt;1.(c);Energy sector;Thermal power stations and other combustion installations;;WAHR;2017;Carbon dioxide (CO2);Greenhouse gases;1110000000;Air
45731;06-09-171-3001-0B01;OMV Werk Burghausen;Haiminger Straße;1;84489;Burghausen;Germany;48.19497657;12.83249114;Umweltbundesamt;1.(a);Energy sector;Mineral oil and gas refineries;;WAHR;2017;Carbon dioxide (CO2);Greenhouse gases;1110000000;Air
3139;06-10-0075248;VSE Kraftwerk Ensdorf;Kurt-Keßler-Straße;1;66806;Ensdorf;Germany;49.29315409;6.770775128;Umweltbundesamt;1.(c);Energy sector;Thermal power stations and other combustion installations;;WAHR;2017;Carbon dioxide (CO2);Greenhouse gases;1090000000;Air
74579;14-60-48821410003;Heizkraftwerk Nord II;Dammweg;10;9114;Chemnitz;Germany;50.85662006;12.92303562;Umweltbundesamt;1.(c);Energy sector;Thermal power stations and other combustion installations;;WAHR;2017;Carbon dioxide (CO2);Greenhouse gases;1080000000;Air
43127;01-10-61061239733;Holcim (Deutschland) GmbH;Sandweg;10;25566;Lägerdorf;Germany;53.87416492;9.583268596;Umweltbundesamt;3.(c);Mineral industry;Installations for the production of:;#NAME?;WAHR;2017;Carbon dioxide (CO2);Greenhouse gases;1070000000;Air
43886;06-05-100-0431554;Kraftwerk Voerde beschränkt haftende oHG Kraftwerk Voerde Blöcke A und B;Frankfurter Str.;430;46562;Voerde;Germany;51.57850292;6.681916481;Umweltbundesamt;1.(c);Energy sector;Thermal power stations and other combustion installations;;WAHR;2017;Carbon dioxide (CO2);Greenhouse gases;1050000000;Air
43802;06-05-100-0167182;Stadtwerke Düsseldorf AG;Auf der Lausward;75;40221;Düsseldorf;Germany;51.21910443;6.729150979;Umweltbundesamt;1.(c);Energy sector;Thermal power stations and other combustion installations;;WAHR;2017;Carbon dioxide (CO2);Greenhouse gases;1040000000;Air
3140;06-10-0078668;ZKS - Zentralkokerei Saar GmbH;Werkstraße;1;66763;Dillingen/Saar;Germany;49.34780834;6.743575271;Umweltbundesamt;1.(d);Energy sector;Coke ovens;;WAHR;2017;Carbon dioxide (CO2);Greenhouse gases;1030000000;Air
43600;03-10-10257401440;BP Europa SE BP Lingen;Raffineriestraße;-;49808;Lingen;Germany;52.56185428;7.311814641;Umweltbundesamt;1.(a);Energy sector;Mineral oil and gas refineries;;WAHR;2017;Carbon dioxide (CO2);Greenhouse gases;1020000000;Air
70343;03-31-31000006225;EMPG - EAA Großenkneten Erdgas-Aufbereitungsanlage;Vor dem Esch;12;26197;Großenkneten;Germany;52.9561964;8.227496814;Umweltbundesamt;4.(b);Chemical industry;Chemical installations for the production on an industrial scale of basic inorganic chemicals, such as:;- Non-metals, metal oxides or other inorganic compounds;WAHR;2017;Carbon dioxide (CO2);Greenhouse gases;1010000000;Air
45682;06-09-100-0088-0005;SWM Heizkraftwerk Süd;Schäftlarnstrasse;15;81371;München;Germany;48.11411532;11.55565789;Umweltbundesamt;1.(c);Energy sector;Thermal power stations and other combustion installations;;WAHR;2017;Carbon dioxide (CO2);Greenhouse gases;1000000000;Air
44735;06-05-900-0884101;Steag GmbH KW Lünen;Moltkestrasse;215;44536;Lünen;Germany;51.61599068;7.478144055;Umweltbundesamt;1.(c);Energy sector;Thermal power stations and other combustion installations;;WAHR;2017;Carbon dioxide (CO2);Greenhouse gases;995000000;Air
43110;01-10-51048040567;Raffinerie Heide GmbH;Meldorfer Str.;43;25770;Hemmingstedt;Germany;54.16083121;9.079774432;Umweltbundesamt;1.(a);Energy sector;Mineral oil and gas refineries;;WAHR;2017;Carbon dioxide (CO2);Greenhouse gases;985000000;Air
46242;06-11-01-1105503;Vattenfall  Wärme Berlin AG  HKW Mitte;Köpenicker Str.;60;10179;Berlin;Germany;52.51158576;13.42062692;Umweltbundesamt;1.(c);Energy sector;Thermal power stations and other combustion installations;;WAHR;2017;Carbon dioxide (CO2);Greenhouse gases;974000000;Air
46241;06-11-01-1105501;Vattenfall Wärme Berlin AG HKW Klingenberg;Köpenicker Chaussee;42-45;10317;Berlin;Germany;52.49002708;13.4959737;Umweltbundesamt;1.(c);Energy sector;Thermal power stations and other combustion installations;;WAHR;2017;Carbon dioxide (CO2);Greenhouse gases;944000000;Air
46897;14340;OPTERRA Zement GmbH, Werk Karsdorf;Strasse der Einheit;25;6638;Karsdorf;Germany;51.2702196;11.66033778;Umweltbundesamt;3.(c);Mineral industry;Installations for the production of:;#NAME?;WAHR;2017;Carbon dioxide (CO2);Greenhouse gases;936000000;Air
44925;06-00464010412;Mainova, HKW West;Gutleutstr.;231;60327;Frankfurt am Main, St.;Germany;50.09855349;8.653231748;Umweltbundesamt;1.(c);Energy sector;Thermal power stations and other combustion installations;;WAHR;2017;Carbon dioxide (CO2);Greenhouse gases;930000000;Air
45898;06-09-376-0042-0003;HeidelbergCement AG, Zementwerk Burglengenfeld;Schmidmühlener Str.;30;93133;Burglengenfeld;Germany;49.21283244;12.02825695;Umweltbundesamt;3.(c);Mineral industry;Installations for the production of:;#NAME?;WAHR;2017;Carbon dioxide (CO2);Greenhouse gases;920000000;Air
43820;06-05-100-0209707;thyssenkrupp Steel Europe AG Werk Beeckerwerth;Kaiser - Wilhelm - Straße;100;47166;Duisburg;Germany;51.48551604;6.709122551;Umweltbundesamt;2.(b);Productiona and processing of metals;Installations for the production of pig iron or steel (primary or secondary melting) including continuous casting;;WAHR;2017;Carbon dioxide (CO2);Greenhouse gases;889000000;Air
43123;01-10-61020199408;YARA Brunsbüttel GmbH;Holstendamm;2;25572;Büttel;Germany;53.91064434;9.207870944;Umweltbundesamt;4.(b);Chemical industry;Chemical installations for the production on an industrial scale of basic inorganic chemicals, such as:;#NAME?;WAHR;2017;Carbon dioxide (CO2);Greenhouse gases;889000000;Air
43968;06-05-100-9021016;CURRENTA GmbH & Co. OHG;Rheinuferstraße;07. Sep;47829;Krefeld;Germany;51.36819042;6.662384532;Umweltbundesamt;1.(c);Energy sector;Thermal power stations and other combustion installations;;WAHR;2017;Carbon dioxide (CO2);Greenhouse gases;888000000;Air
46932;15985;RKB Raffinerie-Kraftwerks Betriebs GmbH;Bau 3691, Werkteil II;-;6237;Leuna;Germany;51.29713407;12.00006279;Umweltbundesamt;1.(c);Energy sector;Thermal power stations and other combustion installations;;WAHR;2017;Carbon dioxide (CO2);Greenhouse gases;886000000;Air
2517;06-08-4664299;HeidelbergCement AG;Zementwerk;01. Jan;89601;Schelklingen;Germany;48.36860312;9.7346784;Umweltbundesamt;3.(c);Mineral industry;Installations for the production of:;;WAHR;2017;Carbon dioxide (CO2);Greenhouse gases;876000000;Air
45788;06-09-187-0018-0001;Zementwerk Rohrdorf;Sinning;1;83101;Rohrdorf;Germany;47.79081962;12.18159007;Umweltbundesamt;3.(c);Mineral industry;Installations for the production of:;#NAME?;WAHR;2017;Carbon dioxide (CO2);Greenhouse gases;806000000;Air
43934;06-05-100-0989137;Solvay Chemicals GmbH;Xantener Straße;237;47495;Rheinberg;Germany;51.56466468;6.577889099;Umweltbundesamt;4.(b);Chemical industry;Chemical installations for the production on an industrial scale of basic inorganic chemicals, such as:;;WAHR;2017;Carbon dioxide (CO2);Greenhouse gases;805000000;Air
46837;12118;Schwenk Zement KG Bernburg;Altenburger Chaussee 3;-;6406;Bernburg (Saale);Germany;51.81637521;11.7496466;Umweltbundesamt;3.(c);Mineral industry;Installations for the production of:;;WAHR;2017;Carbon dioxide (CO2);Greenhouse gases;794000000;Air
44198;06-05-300-9046797;CURRENTA GmbH & Co. OHG;Chempark;Geb. E1;51368;Leverkusen;Germany;51.02220868;6.9859009;Umweltbundesamt;1.(c);Energy sector;Thermal power stations and other combustion installations;;WAHR;2017;Carbon dioxide (CO2);Greenhouse gases;793000000;Air
46984;18039;MIBRAG Deuben;Industriestraße;1;6682;Teuchern;Germany;51.11206715;12.07677915;Umweltbundesamt;1.(c);Energy sector;Thermal power stations and other combustion installations;;WAHR;2017;Carbon dioxide (CO2);Greenhouse gases;789000000;Air
2467;06-08-2719398;MIRO-Mineralölraffinerie Oberrhein GmbH & Co.KG;ESSO-Str.;1;76187;Karlsruhe;Germany;49.05683833;8.346391622;Umweltbundesamt;1.(a);Energy sector;Mineral oil and gas refineries;;WAHR;2017;Carbon dioxide (CO2);Greenhouse gases;788000000;Air
45724;06-09-171-0009-0B01;Wacker Chemie AG, Werk Burghausen;Johannes-Hess-Str.;24;84489;Burghausen;Germany;48.1809249;12.84746595;Umweltbundesamt;4.(a);Chemical industry;Chemical installations for the production on an industrial scale of basic organic chemicals, such as:;;WAHR;2017;Carbon dioxide (CO2);Greenhouse gases;786000000;Air
44668;06-05-900-0174739;Rheinkalk GmbH Werk Hönnetal;Kalköfenstr.;18 - 20;58710;Menden;Germany;51.39770237;7.841677494;Umweltbundesamt;3.(c);Mineral industry;Installations for the production of:;#NAME?;WAHR;2017;Carbon dioxide (CO2);Greenhouse gases;783000000;Air
43203;06-02-B20507H002;Holborn Europa Raffinerie GmbH;Moorburger Straße;16;21079;Hamburg;Germany;53.47708586;9.951581894;Umweltbundesamt;1.(a);Energy sector;Mineral oil and gas refineries;;WAHR;2017;Carbon dioxide (CO2);Greenhouse gases;765000000;Air
44522;06-05-900-0009824;HeidelbergCement AG Zementwerk Geseke (Milke);Bürener Straße;46;59590;Geseke;Germany;51.6188373;8.51065893;Umweltbundesamt;3.(c);Mineral industry;Installations for the production of:;#NAME?;WAHR;2017;Carbon dioxide (CO2);Greenhouse gases;744000000;Air
44689;06-05-900-0255642;Spenner GmbH & Co. KG;Bahnhofstraße;20;59597;Erwitte;Germany;51.60112073;8.33612643;Umweltbundesamt;3.(c);Mineral industry;Installations for the production of:;#NAME?;WAHR;2017;Carbon dioxide (CO2);Greenhouse gases;744000000;Air
74673;14-70-52316709002;DREWAG Gasturbinen-Heizkraftwerk Nossener Brücke;Oederaner Straße;21 - 25;1159;Dresden;Germany;51.04178951;13.70818629;Umweltbundesamt;1.(c);Energy sector;Thermal power stations and other combustion installations;;WAHR;2017;Carbon dioxide (CO2);Greenhouse gases;742000000;Air
3131;06-10-0050559;AG der Dillinger Hüttenwerke;Werkstraße;01. Jun;66763;Dillingen/Saar;Germany;49.35717217;6.754136982;Umweltbundesamt;2.(c);Productiona and processing of metals;Installations for the processing of ferrous metals;#NAME?;WAHR;2017;Carbon dioxide (CO2);Greenhouse gases;719000000;Air
43717;06-04-11/2001178/8/0;swb Erzeugung AG & Co. KG / Heizkraftwerk Hastedt;Hastedter Osterdeich;255;28207;Bremen;Germany;53.05927543;8.873019964;Umweltbundesamt;1.(c);Energy sector;Thermal power stations and other combustion installations;;WAHR;2017;Carbon dioxide (CO2);Greenhouse gases;717000000;Air
2516;06-08-4650956;Schwenk Zement KG;Fabrikstraße;62;89604;Allmendingen;Germany;48.33198628;9.730468748;Umweltbundesamt;3.(c);Mineral industry;Installations for the production of:;;WAHR;2017;Carbon dioxide (CO2);Greenhouse gases;712000000;Air
43884;06-05-100-0431192;GMVA Gemeinschafts-Müllverbrennungsanlage Niederrhein GmbH;Buschhausener Str.;156;46049;Oberhausen;Germany;51.48445156;6.833353809;Umweltbundesamt;5.(b);Waste and waste water management;Installations for the incineration of non-hazardous waste in the scope of Directive 2000/76/EC of the European Parliament and of the Council of 4 December 2000 on the incineration of waste;;WAHR;2017;Carbon dioxide (CO2);Greenhouse gases;710000000;Air
46050;06-09-677-0012-0001;SCHWENK Zement KG, Werk Karlstadt;Laudenbacher Weg;5;97753;Karlstadt;Germany;49.95500488;9.768510452;Umweltbundesamt;3.(c);Mineral industry;Installations for the production of:;#NAME?;WAHR;2017;Carbon dioxide (CO2);Greenhouse gases;704000000;Air
46049;06-09-677-0011-0001;HeidelbergCement AG Zementwerk Lengfurt;Homburger Straße;41;97855;Triefenstein;Germany;49.808461;9.617891279;Umweltbundesamt;3.(c);Mineral industry;Installations for the production of:;#NAME?;WAHR;2017;Carbon dioxide (CO2);Greenhouse gases;684000000;Air
45170;07-05-8161247;Dyckerhoff GmbH;Dyckerhoff Straße;1;67307;Göllheim;Germany;49.60202602;8.037012494;Umweltbundesamt;3.(c);Mineral industry;Installations for the production of:;#NAME?;WAHR;2017;Carbon dioxide (CO2);Greenhouse gases;683000000;Air
43815;06-05-100-0204710;RWE Generation SE MHKW Karnap;Arenbergstr.;45;45329;Essen;Germany;51.51543051;7.000263248;Umweltbundesamt;5.(b);Waste and waste water management;Installations for the incineration of non-hazardous waste in the scope of Directive 2000/76/EC of the European Parliament and of the Council of 4 December 2000 on the incineration of waste;;WAHR;2017;Carbon dioxide (CO2);Greenhouse gases;678000000;Air
71068;06-05-500-0414594;AGR mbH;Im Emscherbruch;11;45699;Herten;Germany;51.55651615;7.163425563;Umweltbundesamt;5.(b);Waste and waste water management;Installations for the incineration of non-hazardous waste in the scope of Directive 2000/76/EC of the European Parliament and of the Council of 4 December 2000 on the incineration of waste;;WAHR;2017;Carbon dioxide (CO2);Greenhouse gases;675000000;Air
56969;06-09-186-0202-0001;BAYERNOIL Betriebsteil Vohburg;Irschinger Weg;1;85088;Vohburg a.d.Donau;Germany;48.76579569;11.59885571;Umweltbundesamt;1.(a);Energy sector;Mineral oil and gas refineries;;WAHR;2017;Carbon dioxide (CO2);Greenhouse gases;659000000;Air
46157;06-09-779-0005-0030;Märker Zement GmbH;Oskar-Märker-Straße;24;86655;Harburg (Schwaben);Germany;48.77673247;10.70031679;Umweltbundesamt;3.(c);Mineral industry;Installations for the production of:;#NAME?;WAHR;2017;Carbon dioxide (CO2);Greenhouse gases;639000000;Air
45132;07-04-6021280;Kraftwerke Mainz-Wiesbaden AG;Kraftwerkallee;1;55120;Mainz;Germany;50.02689919;8.237491196;Umweltbundesamt;1.(c);Energy sector;Thermal power stations and other combustion installations;;WAHR;2017;Carbon dioxide (CO2);Greenhouse gases;634000000;Air
2579;06-08-9169156;MVV Umwelt Asset GmbH - MHKW Mannheim;Otto-Hahn-Str.;1;68169;Mannheim;Germany;49.52138192;8.452455526;Umweltbundesamt;5.(b);Waste and waste water management;Installations for the incineration of non-hazardous waste in the scope of Directive 2000/76/EC of the European Parliament and of the Council of 4 December 2000 on the incineration of waste;;WAHR;2017;Carbon dioxide (CO2);Greenhouse gases;633000000;Air
45738;06-09-176-0003-0139;Gunvor Raffinerie Ingolstadt GmbH;Essostraße;1;85092;Kösching;Germany;48.79199234;11.47731516;Umweltbundesamt;1.(a);Energy sector;Mineral oil and gas refineries;;WAHR;2017;Carbon dioxide (CO2);Greenhouse gases;632000000;Air
43428;03-06-06221720040;Holcim (Deutschland) GmbH Werk Höver;Hannoversche Straße;28;31319;Sehnde;Germany;52.3498313;9.885933871;Umweltbundesamt;3.(c);Mineral industry;Installations for the production of:;#NAME?;WAHR;2017;Carbon dioxide (CO2);Greenhouse gases;632000000;Air
44243;06-05-500-0053376;Holcim WestZement GmbH Werk: Kollenbach;Am Kollenbach;27;59269;Beckum;Germany;51.76517373;8.054028788;Umweltbundesamt;3.(c);Mineral industry;Installations for the production of:;#NAME?;WAHR;2017;Carbon dioxide (CO2);Greenhouse gases;631000000;Air
2456;06-08-1926772;Schwenk Zement KG;Hainenbachstr.;30;89522;Heidenheim a.d. Brenz;Germany;48.65368683;10.16246767;Umweltbundesamt;3.(c);Mineral industry;Installations for the production of:;;WAHR;2017;Carbon dioxide (CO2);Greenhouse gases;623000000;Air
73896;03-03-03030273580;Dow Deutschland Anlagenges. mbH Werk Stade;Bützflether Sand;9;21683;Stade;Germany;53.64035795;9.50412189;Umweltbundesamt;4.(b);Chemical industry;Chemical installations for the production on an industrial scale of basic inorganic chemicals, such as:;#NAME?;WAHR;2017;Carbon dioxide (CO2);Greenhouse gases;620000000;Air
157965;06-70007410412;Thermal Conversion Compound Industriepark Höchst GmbH;Industriepark Höchst;Geb. C770;65926;Frankfurt am Main, St.;Germany;50.08841603;8.536830837;Umweltbundesamt;5.(b);Waste and waste water management;Installations for the incineration of non-hazardous waste in the scope of Directive 2000/76/EC of the European Parliament and of the Council of 4 December 2000 on the incineration of waste;;WAHR;2017;Carbon dioxide (CO2);Greenhouse gases;593000000;Air
73960;06-04-11/2005384/0/0;ArcelorMittal Bremen GmbH / BREMA Walzwerk GmbH;Carl-Benz-Straße;30;28237;Bremen;Germany;53.12493943;8.686728464;Umweltbundesamt;2.(c);Productiona and processing of metals;Installations for the processing of ferrous metals;#NAME?;WAHR;2017;Carbon dioxide (CO2);Greenhouse gases;574000000;Air
45852;06-09-300-0109-0001;Müllkraftwerk Schwandorf;Alustr.;7;92421;Schwandorf;Germany;49.31003496;12.0878943;Umweltbundesamt;5.(b);Waste and waste water management;Installations for the incineration of non-hazardous waste in the scope of Directive 2000/76/EC of the European Parliament and of the Council of 4 December 2000 on the incineration of waste;;WAHR;2017;Carbon dioxide (CO2);Greenhouse gases;566000000;Air
44531;06-05-900-0014855;Portlandzementwerk -Wittekind- Hugo Miebach Söhne KG;Hüchtchenweg;1;59597;Erwitte;Germany;51.59468474;8.33490652;Umweltbundesamt;3.(c);Mineral industry;Installations for the production of:;#NAME?;WAHR;2017;Carbon dioxide (CO2);Greenhouse gases;566000000;Air
44244;06-05-500-0055819;HeidelbergCement AG Zementwerk Ennigerloh;Zur Anneliese;9;59320;Ennigerloh;Germany;51.85826096;8.030571862;Umweltbundesamt;3.(c);Mineral industry;Installations for the production of:;#NAME?;WAHR;2017;Carbon dioxide (CO2);Greenhouse gases;555000000;Air
45782;06-09-186-0211-0001;Basell Polyolefine GmbH;Berghauser Weg;50;85126;Münchsmünster;Germany;48.75855173;11.70862643;Umweltbundesamt;4.(a);Chemical industry;Chemical installations for the production on an industrial scale of basic organic chemicals, such as:;;WAHR;2017;Carbon dioxide (CO2);Greenhouse gases;544000000;Air
2484;06-08-3265552;Opterra Wössingen GmbH;Wössinger Str.;2;75045;Walzbachtal;Germany;49.01705219;8.614442378;Umweltbundesamt;3.(c);Mineral industry;Installations for the production of:;;WAHR;2017;Carbon dioxide (CO2);Greenhouse gases;539000000;Air
44130;06-05-300-0923949;RheinEnergie AG (Heizkraftwerk Merkenich);Merkenicher Hauptstr.;2;50769;Köln;Germany;51.01677251;6.963366194;Umweltbundesamt;1.(c);Energy sector;Thermal power stations and other combustion installations;;WAHR;2017;Carbon dioxide (CO2);Greenhouse gases;537000000;Air
43872;06-05-100-0388700;DK Recycling und Roheisen GmbH;Werthauser Str.;182;47053;Duisburg;Germany;51.42228298;6.741991278;Umweltbundesamt;2.(b);Productiona and processing of metals;Installations for the production of pig iron or steel (primary or secondary melting) including continuous casting;;WAHR;2017;Carbon dioxide (CO2);Greenhouse gases;535000000;Air
2483;06-08-3192067;HeidelbergCement AG Zementwerk Leimen;Rohrbacher Str.;95;69181;Leimen;Germany;49.35767939;8.685832398;Umweltbundesamt;3.(c);Mineral industry;Installations for the production of:;;WAHR;2017;Carbon dioxide (CO2);Greenhouse gases;532000000;Air
3123;06-10-00100999;Kraftwerk Bexbach;Grubenstraße;-;66450;Bexbach;Germany;49.36490434;7.235492878;Umweltbundesamt;1.(c);Energy sector;Thermal power stations and other combustion installations;;WAHR;2017;Carbon dioxide (CO2);Greenhouse gases;517000000;Air
46023;06-09-671-0140-0001;Sappi Stockstadt GmbH;Obernburger Str.;01. Sep;63811;Stockstadt a.Main;Germany;49.9777578;9.069009637;Umweltbundesamt;6.(b);Paper and wood production processing;Industrial plants for the production of paper and board and other primary wood products;;WAHR;2017;Carbon dioxide (CO2);Greenhouse gases;516000000;Air
43819;06-05-100-0209697;thyssenkrupp Steel Europe AG Werk Bruckhausen;Kaiser - Wilhelm - Straße;100;47166;Duisburg;Germany;51.49251243;6.740610657;Umweltbundesamt;2.(b);Productiona and processing of metals;Installations for the production of pig iron or steel (primary or secondary melting) including continuous casting;;WAHR;2017;Carbon dioxide (CO2);Greenhouse gases;516000000;Air
46248;06-11-01-1105604;Vattenfall  Wärme Berlin AG  HKW Moabit;Friedrich-Krause-Ufer;Okt 15;13353;Berlin;Germany;52.53740777;13.34494183;Umweltbundesamt;1.(c);Energy sector;Thermal power stations and other combustion installations;;WAHR;2017;Carbon dioxide (CO2);Greenhouse gases;509000000;Air
2554;06-08-7897669;Holcim (Süddeutschland) GmbH;Dormettinger Straße;25;72359;Dotternhausen;Germany;48.22704121;8.779096108;Umweltbundesamt;3.(c);Mineral industry;Installations for the production of:;;WAHR;2017;Carbon dioxide (CO2);Greenhouse gases;505000000;Air
43759;06-05-100-0031758;Stadtwerke Duisburg AG Heizkraftwerk I;Charlottenstraße;48;47053;Duisburg;Germany;51.42907981;6.750762906;Umweltbundesamt;1.(c);Energy sector;Thermal power stations and other combustion installations;;WAHR;2017;Carbon dioxide (CO2);Greenhouse gases;496000000;Air
44683;06-05-900-0235121;Egger Holzwerkstoffe Brilon GmbH & Co. KG;Im Kissen;19;59929;Brilon;Germany;51.40669383;8.598069193;Umweltbundesamt;6.(b);Paper and wood production processing;Industrial plants for the production of paper and board and other primary wood products;;WAHR;2017;Carbon dioxide (CO2);Greenhouse gases;489000000;Air
69944;06-02-B74518A001;Müllverwertung Borsigstraße GmbH, (MVB);Borsigstraße;6;22113;Hamburg;Germany;53.53143037;10.07399703;Umweltbundesamt;5.(b);Waste and waste water management;Installations for the incineration of non-hazardous waste in the scope of Directive 2000/76/EC of the European Parliament and of the Council of 4 December 2000 on the incineration of waste;;WAHR;2017;Carbon dioxide (CO2);Greenhouse gases;488000000;Air
43257;03-01-01000259750;EEW Energy from Waste Helmstedt GmbH;Am Kraftwerk;2;38372;Büddenstedt;Germany;52.17005009;10.97775118;Umweltbundesamt;5.(b);Waste and waste water management;Installations for the incineration of non-hazardous waste in the scope of Directive 2000/76/EC of the European Parliament and of the Council of 4 December 2000 on the incineration of waste;;WAHR;2017;Carbon dioxide (CO2);Greenhouse gases;486000000;Air
2436;06-08-1195689;Heizkraftwerk Stuttgart-Münster (mit MVA);Voltastr.;45;70376;Stuttgart;Germany;48.81536144;9.21974465;Umweltbundesamt;5.(b);Waste and waste water management;Installations for the incineration of non-hazardous waste in the scope of Directive 2000/76/EC of the European Parliament and of the Council of 4 December 2000 on the incineration of waste;;WAHR;2017;Carbon dioxide (CO2);Greenhouse gases;481000000;Air
43262;03-01-01010157480;Braunschweiger Versorgungs AG, Heizkraftwerk Mitte;Reiherstr.;3;38114;Braunschweig;Germany;52.27796899;10.51470482;Umweltbundesamt;1.(c);Energy sector;Thermal power stations and other combustion installations;;WAHR;2017;Carbon dioxide (CO2);Greenhouse gases;468000000;Air
43878;06-05-100-0407176;Stadtwerke Düsseldorf AG;Flinger Broich;25;40235;Düsseldorf;Germany;51.22567324;6.823001879;Umweltbundesamt;5.(b);Waste and waste water management;Installations for the incineration of non-hazardous waste in the scope of Directive 2000/76/EC of the European Parliament and of the Council of 4 December 2000 on the incineration of waste;;WAHR;2017;Carbon dioxide (CO2);Greenhouse gases;465000000;Air
46982;18037;ROMONTA  Amsdorf;Chausseestraße;1;6137;Amsdorf;Germany;51.4616143;11.71790667;Umweltbundesamt;1.(a);Energy sector;Mineral oil and gas refineries;;WAHR;2017;Carbon dioxide (CO2);Greenhouse gases;463000000;Air
46246;06-11-01-1105602;Vattenfall  Wärme Berlin AG HKW Reuter;Otternbuchtstr.;11;13599;Berlin;Germany;52.53095015;13.24556447;Umweltbundesamt;1.(c);Energy sector;Thermal power stations and other combustion installations;;WAHR;2017;Carbon dioxide (CO2);Greenhouse gases;451000000;Air
46236;06-11-01-1102201;BSR / MHKW;Freiheit;24 - 25;13597;Berlin;Germany;52.52903825;13.23791549;Umweltbundesamt;5.(b);Waste and waste water management;Installations for the incineration of non-hazardous waste in the scope of Directive 2000/76/EC of the European Parliament and of the Council of 4 December 2000 on the incineration of waste;;WAHR;2017;Carbon dioxide (CO2);Greenhouse gases;448000000;Air
46988;18044;FELS-WERKE Kalkwerk Kaltes Tal;Kaltes Tal;1:00 AM;38875;Oberharz am Brocken;Germany;51.7706054;10.83402041;Umweltbundesamt;3.(c);Mineral industry;Installations for the production of:;#NAME?;WAHR;2017;Carbon dioxide (CO2);Greenhouse gases;448000000;Air
43722;06-04-11/2013754/1/0;swb Entsorgung GmbH & Co. KG / MHKW Bremen;Oken;2;28219;Bremen;Germany;53.11461263;8.817039523;Umweltbundesamt;1.(c);Energy sector;Thermal power stations and other combustion installations;;WAHR;2017;Carbon dioxide (CO2);Greenhouse gases;446000000;Air
45951;06-09-500-0354-0002;Heizkraftwerk Sandreuth;Sandreuthstraße;21;90441;Nürnberg;Germany;49.43875065;11.06077578;Umweltbundesamt;1.(c);Energy sector;Thermal power stations and other combustion installations;;WAHR;2017;Carbon dioxide (CO2);Greenhouse gases;445000000;Air
2465;06-08-2719142;Stora Enso Maxau GmbH;Mitscherlichstr.;24;76187;Karlsruhe;Germany;49.04257677;8.313258649;Umweltbundesamt;6.(b);Paper and wood production processing;Industrial plants for the production of paper and board and other primary wood products;;WAHR;2017;Carbon dioxide (CO2);Greenhouse gases;443000000;Air
43833;06-05-100-0229264;Stadtwerke Duisburg AG Heizkraftwerk III;Wanheimer Str.;445;47249;Duisburg;Germany;51.39050934;6.748070024;Umweltbundesamt;1.(c);Energy sector;Thermal power stations and other combustion installations;;WAHR;2017;Carbon dioxide (CO2);Greenhouse gases;440000000;Air
43455;03-07-07070168330;Enertec Hameln GmbH;Heinrich-Schoormann-Weg;1;31789;Hameln;Germany;52.09886943;9.388399411;Umweltbundesamt;5.(b);Waste and waste water management;Installations for the incineration of non-hazardous waste in the scope of Directive 2000/76/EC of the European Parliament and of the Council of 4 December 2000 on the incineration of waste;;WAHR;2017;Carbon dioxide (CO2);Greenhouse gases;434000000;Air
74111;06-05-900-9140178;Trianel Gaskraftwerk Hamm GmbH & Co. KG;Trianelstr.;1;59071;Hamm;Germany;51.67329026;7.928664191;Umweltbundesamt;1.(c);Energy sector;Thermal power stations and other combustion installations;;WAHR;2017;Carbon dioxide (CO2);Greenhouse gases;434000000;Air
43917;06-05-100-0888309;Venator Germany GmbH;Dr.-Rudolf-Sachtleben-Str.;4;47198;Duisburg;Germany;51.43952849;6.705222974;Umweltbundesamt;4.(a);Chemical industry;Chemical installations for the production on an industrial scale of basic organic chemicals, such as:;#NAME?;WAHR;2017;Carbon dioxide (CO2);Greenhouse gases;431000000;Air
3125;06-10-00101003;Kraftwerk Weiher;Holzer Straße;-;66287;Quierschied;Germany;49.33559241;7.030908526;Umweltbundesamt;1.(c);Energy sector;Thermal power stations and other combustion installations;;WAHR;2017;Carbon dioxide (CO2);Greenhouse gases;428000000;Air
46378;12-50724000156;Pfleiderer Baruth GmbH;An der Birkenpfuhlheide;3;15837;Baruth/Mark;Germany;52.07929846;13.50822933;Umweltbundesamt;5.(a);Waste and waste water management;Installations for the recovery or disposal of hazardous waste;;WAHR;2017;Carbon dioxide (CO2);Greenhouse gases;428000000;Air
46949;16591;SOLVAY Chemicals GmbH;Köthensche Str.;01. Mrz;6406;Bernburg (Saale);Germany;51.80109989;11.75058789;Umweltbundesamt;4.(b);Chemical industry;Chemical installations for the production on an industrial scale of basic inorganic chemicals, such as:;#NAME?;WAHR;2017;Carbon dioxide (CO2);Greenhouse gases;426000000;Air
44853;06-00004010412;MHKW/HKW Nordweststadt;Heddernheimer Landstrasse;157;60439;Frankfurt am Main, St.;Germany;50.16154591;8.635373723;Umweltbundesamt;5.(b);Waste and waste water management;Installations for the incineration of non-hazardous waste in the scope of Directive 2000/76/EC of the European Parliament and of the Council of 4 December 2000 on the incineration of waste;;WAHR;2017;Carbon dioxide (CO2);Greenhouse gases;425000000;Air
104967;01-50-04000082392;SWN Stadtwerke Neumünster GmbH;Bismarckstr.;51;24534;Neumünster;Germany;54.08296008;9.991024976;Umweltbundesamt;5.(b);Waste and waste water management;Installations for the incineration of non-hazardous waste in the scope of Directive 2000/76/EC of the European Parliament and of the Council of 4 December 2000 on the incineration of waste;;WAHR;2017;Carbon dioxide (CO2);Greenhouse gases;425000000;Air
74281;06-09-373-0007-0001;Pfleiderer Neumarkt GmbH Spanplattenwerk 2 und 3;Dreichlinger Straße;76;92318;Neumarkt i.d.OPf.;Germany;49.26170903;11.45134133;Umweltbundesamt;6.(b);Paper and wood production processing;Industrial plants for the production of paper and board and other primary wood products;;WAHR;2017;Carbon dioxide (CO2);Greenhouse gases;423000000;Air
74374;12-40669070000;BASF Schwarzheide GmbH;Schipkauer Straße;1;1987;Schwarzheide;Germany;51.48033907;13.88697885;Umweltbundesamt;4.(a);Chemical industry;Chemical installations for the production on an industrial scale of basic organic chemicals, such as:;#NAME?;WAHR;2017;Carbon dioxide (CO2);Greenhouse gases;417000000;Air
46956;16874;CropEnergies Bioethanol GmbH;Albrechtstraße;54;6712;Zeitz;Germany;51.05385291;12.11638899;Umweltbundesamt;4.(a);Chemical industry;Chemical installations for the production on an industrial scale of basic organic chemicals, such as:;#NAME?;WAHR;2017;Carbon dioxide (CO2);Greenhouse gases;416000000;Air
74855;14636;Linde Gas Produktionsgesellschaft mbH & Co. KG;Spergauer Straße;1a;6237;Leuna;Germany;51.32259985;12.0020986;Umweltbundesamt;4.(b);Chemical industry;Chemical installations for the production on an industrial scale of basic inorganic chemicals, such as:;#NAME?;WAHR;2017;Carbon dioxide (CO2);Greenhouse gases;414000000;Air
57513;12-20730660000;LEIPA Georg Leinfelder Werk Schwedt Süd;Kuhheide;34;16303;Schwedt/Oder;Germany;53.07909943;14.31976578;Umweltbundesamt;6.(b);Paper and wood production processing;Industrial plants for the production of paper and board and other primary wood products;;WAHR;2017;Carbon dioxide (CO2);Greenhouse gases;413000000;Air
44529;06-05-900-0014514;Portland-Zementwerke Gebr. Seibel GmbH & Co. KG;Bahnhofstraße;40;59597;Erwitte;Germany;51.59721014;8.334681945;Umweltbundesamt;3.(c);Mineral industry;Installations for the production of:;#NAME?;WAHR;2017;Carbon dioxide (CO2);Greenhouse gases;411000000;Air
43794;06-05-100-0113340;AWG Abfallwirtschaftsgesellschaft mbH Wuppertal;Korzert;15;42349;Wuppertal;Germany;51.22530548;7.142813468;Umweltbundesamt;5.(b);Waste and waste water management;Installations for the incineration of non-hazardous waste in the scope of Directive 2000/76/EC of the European Parliament and of the Council of 4 December 2000 on the incineration of waste;;WAHR;2017;Carbon dioxide (CO2);Greenhouse gases;407000000;Air
46914;15282;MVV Umwelt Asset GmbH;An der B 91;Tor 12;6237;Leuna;Germany;51.32993899;11.9958015;Umweltbundesamt;5.(b);Waste and waste water management;Installations for the incineration of non-hazardous waste in the scope of Directive 2000/76/EC of the European Parliament and of the Council of 4 December 2000 on the incineration of waste;;WAHR;2017;Carbon dioxide (CO2);Greenhouse gases;406000000;Air
43348;03-03-03267770260;Aluminium Oxid Stade GmbH;Johann-Rathje-Köser-Str.;-;21683;Stade;Germany;53.64429386;9.497936443;Umweltbundesamt;4.(b);Chemical industry;Chemical installations for the production on an industrial scale of basic inorganic chemicals, such as:;- Non-metals, metal oxides or other inorganic compounds;WAHR;2017;Carbon dioxide (CO2);Greenhouse gases;404000000;Air
200994;06-05-300-9975553;Statkraft Markets GmbH;Industriestrasse;300;50354;Hürth;Germany;50.86160348;6.847169424;Umweltbundesamt;1.(c);Energy sector;Thermal power stations and other combustion installations;;WAHR;2017;Carbon dioxide (CO2);Greenhouse gases;402000000;Air
44485;06-05-800-0197043;RWE Power AG-Fabrik Fortuna Nord;Auenheimer Str.;-;50129;Bergheim;Germany;50.98694545;6.65805487;Umweltbundesamt;1.(e);Energy sector;Coal rolling mills;;WAHR;2017;Carbon dioxide (CO2);Greenhouse gases;401000000;Air
46896;14326;CIECH Energy Deutschland GmbH;Athensleber Weg;57;39418;Staßfurt;Germany;51.86362527;11.57336299;Umweltbundesamt;1.(c);Energy sector;Thermal power stations and other combustion installations;;WAHR;2017;Carbon dioxide (CO2);Greenhouse gases;400000000;Air
44435;06-05-700-0297171;MVA Bielefeld-Herford GmbH;Schelpmilser Weg;30;33609;Bielefeld;Germany;52.04256866;8.606256608;Umweltbundesamt;5.(b);Waste and waste water management;Installations for the incineration of non-hazardous waste in the scope of Directive 2000/76/EC of the European Parliament and of the Council of 4 December 2000 on the incineration of waste;;WAHR;2017;Carbon dioxide (CO2);Greenhouse gases;392000000;Air
46905;15060;MHKW Müllheizkraftwerk Rothensee GmbH;Kraftwerk-Privatweg;7;39126;Magdeburg;Germany;52.18520142;11.68032622;Umweltbundesamt;5.(c);Waste and waste water management;Installations for the disposal of non-hazardous waste;;WAHR;2017;Carbon dioxide (CO2);Greenhouse gases;386000000;Air
110145;03-10-10000167470;EVI Abfallverwertung B.V. & Co. KG;Vosmatenweg;6;49824;Laar;Germany;52.64359116;6.743193082;Umweltbundesamt;5.(b);Waste and waste water management;Installations for the incineration of non-hazardous waste in the scope of Directive 2000/76/EC of the European Parliament and of the Council of 4 December 2000 on the incineration of waste;;WAHR;2017;Carbon dioxide (CO2);Greenhouse gases;383000000;Air
43847;06-05-100-0250693;EGK Entsorgungsgesellschaft Krefeld GmbH & Co. KG;Parkstr.;234;47829;Krefeld;Germany;51.37890653;6.634403817;Umweltbundesamt;5.(a);Waste and waste water management;Installations for the recovery or disposal of hazardous waste;;WAHR;2017;Carbon dioxide (CO2);Greenhouse gases;380000000;Air
43763;06-05-100-0036701;Henkel AG & Co. KGaA;Henkelstraße;67;40589;Düsseldorf;Germany;51.17555009;6.839385488;Umweltbundesamt;1.(c);Energy sector;Thermal power stations and other combustion installations;;WAHR;2017;Carbon dioxide (CO2);Greenhouse gases;377000000;Air
44162;06-05-300-9001747;MVA Weisweiler GmbH & Co. KG;Zum Hagelkreuz;22;52249;Eschweiler;Germany;50.83799406;6.309584565;Umweltbundesamt;5.(b);Waste and waste water management;Installations for the incineration of non-hazardous waste in the scope of Directive 2000/76/EC of the European Parliament and of the Council of 4 December 2000 on the incineration of waste;;WAHR;2017;Carbon dioxide (CO2);Greenhouse gases;376000000;Air
45809;06-09-190-0036-0002;UPM GmbH, Werk Schongau;Friedrich-Haindl-Str.;10;86956;Schongau;Germany;47.80727577;10.90003999;Umweltbundesamt;6.(b);Paper and wood production processing;Industrial plants for the production of paper and board and other primary wood products;;WAHR;2017;Carbon dioxide (CO2);Greenhouse gases;365000000;Air
46249;06-11-01-1105607;Vattenfall Wärme Berlin AG HKW Lichterfelde;Ostpreussendamm;61;12207;Berlin;Germany;52.42339409;13.30960917;Umweltbundesamt;1.(c);Energy sector;Thermal power stations and other combustion installations;;WAHR;2017;Carbon dioxide (CO2);Greenhouse gases;365000000;Air
297094;03-06-06060117340;Stadtwerke Hannover AG Heizkraftwerk Linden;Spinnereistr.;9;30451;Hannover;Germany;52.37337999;9.714303828;Umweltbundesamt;1.(c);Energy sector;Thermal power stations and other combustion installations;;WAHR;2017;Carbon dioxide (CO2);Greenhouse gases;356000000;Air
43758;06-05-100-0030723;WSW Energie & Wasser AG;Kabelstraße;4;42117;Wuppertal;Germany;51.24817253;7.120125897;Umweltbundesamt;1.(c);Energy sector;Thermal power stations and other combustion installations;;WAHR;2017;Carbon dioxide (CO2);Greenhouse gases;356000000;Air
43298;03-01-01227571140;Fels-Werke GmbH Kalkwerk Münchehof;Wildemannstr.;24;38723;Seesen;Germany;51.84358515;10.19089745;Umweltbundesamt;3.(c);Mineral industry;Installations for the production of:;#NAME?;WAHR;2017;Carbon dioxide (CO2);Greenhouse gases;350000000;Air
45997;06-09-577-0058-0001;Solnhofer Portland-Zementwerke GmbH & Co. KG;Frauenberger Weg;20;91807;Solnhofen;Germany;48.88491246;10.99769729;Umweltbundesamt;3.(c);Mineral industry;Installations for the production of:;#NAME?;WAHR;2017;Carbon dioxide (CO2);Greenhouse gases;348000000;Air
174946;12-30671866000;Propower GmbH;Oderlandstraße;109;15890;Eisenhüttenstadt;Germany;52.17257779;14.64052652;Umweltbundesamt;5.(b);Waste and waste water management;Installations for the incineration of non-hazardous waste in the scope of Directive 2000/76/EC of the European Parliament and of the Council of 4 December 2000 on the incineration of waste;;WAHR;2017;Carbon dioxide (CO2);Greenhouse gases;344000000;Air
46882;13770;InfraLeuna GmbH GuD WT 1;Am Haupttor, Bau 4711;-;6237;Leuna;Germany;51.31973775;12.00567243;Umweltbundesamt;1.(c);Energy sector;Thermal power stations and other combustion installations;;WAHR;2017;Carbon dioxide (CO2);Greenhouse gases;340000000;Air
110279;06-84800460636;Energieversorgung DSS Paper B+T Energie GmbH;Kasseler Landstraße;21/23;37218;Witzenhausen;Germany;51.31809877;9.849197432;Umweltbundesamt;5.(b);Waste and waste water management;Installations for the incineration of non-hazardous waste in the scope of Directive 2000/76/EC of the European Parliament and of the Council of 4 December 2000 on the incineration of waste;;WAHR;2017;Carbon dioxide (CO2);Greenhouse gases;337000000;Air
157889;06-05-500-1185268;ArcelorMittal Bremen GmbH Kokerei Prosper;Prosperstr.;350;46236;Bottrop;Germany;51.51823157;6.973272226;Umweltbundesamt;1.(d);Energy sector;Coke ovens;;WAHR;2017;Carbon dioxide (CO2);Greenhouse gases;333000000;Air
46985;18040;MIBRAG Wählitz;Fabrikstraße;26;6679;Hohenmölsen;Germany;51.16632622;12.07639965;Umweltbundesamt;1.(c);Energy sector;Thermal power stations and other combustion installations;;WAHR;2017;Carbon dioxide (CO2);Greenhouse gases;333000000;Air
44528;06-05-900-0014503;Portland-Zementwerke Seibel & Söhne GmbH & Co. KG;Berger Straße;100;59597;Erwitte;Germany;51.5985497;8.350702936;Umweltbundesamt;3.(c);Mineral industry;Installations for the production of:;#NAME?;WAHR;2017;Carbon dioxide (CO2);Greenhouse gases;332000000;Air
44193;06-05-300-9046030;Knapsack Power GmbH & Co. KG;Industriestr.;300;50351;Hürth;Germany;50.85915374;6.840660299;Umweltbundesamt;1.(c);Energy sector;Thermal power stations and other combustion installations;;WAHR;2017;Carbon dioxide (CO2);Greenhouse gases;327000000;Air
110204;06-05-300-9968049;EEW Energy from Waste Saarbrücken GmbH;Industriestr.;300;50354;Hürth;Germany;50.85657379;6.843649809;Umweltbundesamt;5.(b);Waste and waste water management;Installations for the incineration of non-hazardous waste in the scope of Directive 2000/76/EC of the European Parliament and of the Council of 4 December 2000 on the incineration of waste;;WAHR;2017;Carbon dioxide (CO2);Greenhouse gases;324000000;Air
71925;07-04-6377464;Entsorgungsgesellschaft Mainz mbH;Kraftwerkallee;1;55120;Mainz;Germany;50.02531317;8.238395845;Umweltbundesamt;5.(b);Waste and waste water management;Installations for the incineration of non-hazardous waste in the scope of Directive 2000/76/EC of the European Parliament and of the Council of 4 December 2000 on the incineration of waste;;WAHR;2017;Carbon dioxide (CO2);Greenhouse gases;324000000;Air
43243;06-02-B74515H000;MVR Müllverwertung Rugenberger Damm GmbH & Co. KG;Rugenberger Damm;1;21129;Hamburg;Germany;53.52116623;9.934725497;Umweltbundesamt;5.(b);Waste and waste water management;Installations for the incineration of non-hazardous waste in the scope of Directive 2000/76/EC of the European Parliament and of the Council of 4 December 2000 on the incineration of waste;;WAHR;2017;Carbon dioxide (CO2);Greenhouse gases;321000000;Air
71002;06-05-500-0050929;Phoenix Zementwerke Krogbeumker Holding GmbH & Co.KG;Stromberger Str.;201;59269;Beckum;Germany;51.76024596;8.073171242;Umweltbundesamt;3.(c);Mineral industry;Installations for the production of:;#NAME?;WAHR;2017;Carbon dioxide (CO2);Greenhouse gases;317000000;Air
46944;16556;SUEZ Energie und Verwertung GmbH;Bayerische Str.;20;6686;Lützen;Germany;51.18155547;12.01945292;Umweltbundesamt;5.(b);Waste and waste water management;Installations for the incineration of non-hazardous waste in the scope of Directive 2000/76/EC of the European Parliament and of the Council of 4 December 2000 on the incineration of waste;;WAHR;2017;Carbon dioxide (CO2);Greenhouse gases;317000000;Air
105004;01-50-62071414471;EEW Energy from Waste Stapelfeld GmbH EEW Energy from Waste Stapelfeld GmbH;Ahrensburger Weg;4;22145;Stapelfeld;Germany;53.61928167;10.22454263;Umweltbundesamt;5.(b);Waste and waste water management;Installations for the incineration of non-hazardous waste in the scope of Directive 2000/76/EC of the European Parliament and of the Council of 4 December 2000 on the incineration of waste;;WAHR;2017;Carbon dioxide (CO2);Greenhouse gases;316000000;Air
43784;06-05-100-0082185;Hydro Aluminium Rolled Products GmbH Rheinwerk;Koblenzer Str.;122;41468;Neuss;Germany;51.14887655;6.781833437;Umweltbundesamt;2.(e);Productiona and processing of metals;Installations:;- For the production of non-ferrous crude metals from ore, concentrates or secondary raw materials by metallurgical, chemical or electrolytic processes;WAHR;2017;Carbon dioxide (CO2);Greenhouse gases;315000000;Air
45826;06-09-273-0333-0001;Kalkwerk Saal;Werkstr.;25;93342;Saal a.d.Donau;Germany;48.89059141;11.93402499;Umweltbundesamt;3.(c);Mineral industry;Installations for the production of:;#NAME?;WAHR;2017;Carbon dioxide (CO2);Greenhouse gases;315000000;Air
43479;03-07-07244141350;Sappi Alfeld GmbH;Mühlenmasch;1;31061;Alfeld;Germany;51.98596257;9.820763204;Umweltbundesamt;6.(b);Paper and wood production processing;Industrial plants for the production of paper and board and other primary wood products;;WAHR;2017;Carbon dioxide (CO2);Greenhouse gases;312000000;Air
46039;06-09-676-2101-0002;Kraftwerk Obernburg GmbH;Glanzstoffstraße;1;63906;Erlenbach a.Main;Germany;49.82740785;9.148630559;Umweltbundesamt;1.(c);Energy sector;Thermal power stations and other combustion installations;;WAHR;2017;Carbon dioxide (CO2);Greenhouse gases;308000000;Air
200990;06-05-300-0214067;Orion Engineered Carbons GmbH Werk Kalscheuren;Harry-Kloepfer-Str.;1;50997;Köln;Germany;50.87350106;6.918461426;Umweltbundesamt;4.(b);Chemical industry;Chemical installations for the production on an industrial scale of basic inorganic chemicals, such as:;- Non-metals, metal oxides or other inorganic compounds;WAHR;2017;Carbon dioxide (CO2);Greenhouse gases;308000000;Air
44879;06-00060310533;Schaefer Kalk GmbH & Co. KG, Werk Steeden;Steedener Hauptstraße;-;65594;Runkel, St.;Germany;50.4188569;8.111539274;Umweltbundesamt;3.(c);Mineral industry;Installations for the production of:;#NAME?;WAHR;2017;Carbon dioxide (CO2);Greenhouse gases;308000000;Air
45139;07-04-6055400;Evonik Röhm GmbH;Im Pfaffenwinkel;6;67547;Worms;Germany;49.65468288;8.365811445;Umweltbundesamt;4.(a);Chemical industry;Chemical installations for the production on an industrial scale of basic organic chemicals, such as:;#NAME?;WAHR;2017;Carbon dioxide (CO2);Greenhouse gases;301000000;Air
45048;07-01-232540;Schaefer Kalk  GmbH & Co. KG;Aarstr.;1;65623;Hahnstätten;Germany;50.31748025;8.052328226;Umweltbundesamt;3.(c);Mineral industry;Installations for the production of:;#NAME?;WAHR;2017;Carbon dioxide (CO2);Greenhouse gases;301000000;Air
43124;01-10-61029205950;Steinbeis Energie GmbH;Stadtstr.;20;22348;Glückstadt;Germany;53.78149209;9.425999127;Umweltbundesamt;1.(c);Energy sector;Thermal power stations and other combustion installations;;WAHR;2017;Carbon dioxide (CO2);Greenhouse gases;300000000;Air
2478;06-08-3042693;Heizkraftwerk Pforzheim GmbH;Hohwiesenweg;15;75175;Pforzheim;Germany;48.89700729;8.725458762;Umweltbundesamt;1.(c);Energy sector;Thermal power stations and other combustion installations;;WAHR;2017;Carbon dioxide (CO2);Greenhouse gases;293000000;Air
189271;06-05300230632;ETN Wintershall;In der Aue;3;36266;Heringen (Werra);Germany;50.89329975;9.998113272;Umweltbundesamt;5.(b);Waste and waste water management;Installations for the incineration of non-hazardous waste in the scope of Directive 2000/76/EC of the European Parliament and of the Council of 4 December 2000 on the incineration of waste;;WAHR;2017;Carbon dioxide (CO2);Greenhouse gases;290000000;Air
109019;16-30-30400102003;Stadtwerke Erfurt / HKW Ost;Stotternheimer Strasse;40;99087;Erfurt;Germany;51.01724232;11.04011917;Umweltbundesamt;1.(c);Energy sector;Thermal power stations and other combustion installations;;WAHR;2017;Carbon dioxide (CO2);Greenhouse gases;290000000;Air
43581;03-09-09281337040;Papier- u. Kartonfabrik Varel GmbH & Co. KG;Dangaster Str.;38;26316;Varel;Germany;53.40305598;8.13281587;Umweltbundesamt;6.(b);Paper and wood production processing;Industrial plants for the production of paper and board and other primary wood products;;WAHR;2017;Carbon dioxide (CO2);Greenhouse gases;289000000;Air
43735;06-04-12/2177562/6/0;Müllheizkraftwerk Bremerhaven;Zur Hexenbrücke;16;27570;Bremerhaven;Germany;53.54791285;8.618005844;Umweltbundesamt;5.(b);Waste and waste water management;Installations for the incineration of non-hazardous waste in the scope of Directive 2000/76/EC of the European Parliament and of the Council of 4 December 2000 on the incineration of waste;;WAHR;2017;Carbon dioxide (CO2);Greenhouse gases;285000000;Air
110413;12-30642653000;IKW Rüdersdorf GmbH;Siedlerweg;11;15562;Rüdersdorf bei Berlin;Germany;52.49065405;13.8307896;Umweltbundesamt;5.(b);Waste and waste water management;Installations for the incineration of non-hazardous waste in the scope of Directive 2000/76/EC of the European Parliament and of the Council of 4 December 2000 on the incineration of waste;;WAHR;2017;Carbon dioxide (CO2);Greenhouse gases;284000000;Air
71805;06-90031210632;Werk Werra Standort Hattorf;Hattorfer Straße;-;36269;Philippsthal (Werra);Germany;50.83919145;9.980852746;Umweltbundesamt;3.(a);Mineral industry;Underground mining and related operations;;WAHR;2017;Carbon dioxide (CO2);Greenhouse gases;282000000;Air
43860;06-05-100-0327911;TRIMET Aluminium SE;Aluminiumallee;1;45356;Essen;Germany;51.49004917;6.968169748;Umweltbundesamt;2.(e);Productiona and processing of metals;Installations:;- For the production of non-ferrous crude metals from ore, concentrates or secondary raw materials by metallurgical, chemical or electrolytic processes;WAHR;2017;Carbon dioxide (CO2);Greenhouse gases;279000000;Air
43355;03-04-04041505980;B+S Papenburg Energie GmbH;Am Nordhafen;5;26871;Papenburg;Germany;53.09951103;7.397769603;Umweltbundesamt;5.(a);Waste and waste water management;Installations for the recovery or disposal of hazardous waste;;WAHR;2017;Carbon dioxide (CO2);Greenhouse gases;278000000;Air
43407;03-06-06060181710;EEW Energy from Waste Hannover GmbH;Moorwaldweg;310;30659;Hannover;Germany;52.41181994;9.853183896;Umweltbundesamt;5.(b);Waste and waste water management;Installations for the incineration of non-hazardous waste in the scope of Directive 2000/76/EC of the European Parliament and of the Council of 4 December 2000 on the incineration of waste;;WAHR;2017;Carbon dioxide (CO2);Greenhouse gases;276000000;Air
74182;07-05-8815430;Palm Power GmbH & Co. KG;Am Oberwald;2;76744;Wörth am Rhein;Germany;49.04990443;8.260248568;Umweltbundesamt;1.(c);Energy sector;Thermal power stations and other combustion installations;;WAHR;2017;Carbon dioxide (CO2);Greenhouse gases;276000000;Air
44523;06-05-900-0009912;Dyckerhoff GmbH Werksgruppe Nord-Werk Geseke-;Schneidweg;28-30;59590;Geseke;Germany;51.62256052;8.504392881;Umweltbundesamt;3.(c);Mineral industry;Installations for the production of:;#NAME?;WAHR;2017;Carbon dioxide (CO2);Greenhouse gases;272000000;Air
45999;06-09-600-0009-0001;GKS Müllheizkraftwerk;Hafenstr.;30;97424;Schweinfurt;Germany;50.03011251;10.22362943;Umweltbundesamt;1.(c);Energy sector;Thermal power stations and other combustion installations;;WAHR;2017;Carbon dioxide (CO2);Greenhouse gases;269000000;Air
45040;07-01-126351;Moritz J. Weig GmbH & Co. KG;Polcher Str.;113;56727;Mayen;Germany;50.31356522;7.220829085;Umweltbundesamt;6.(b);Paper and wood production processing;Industrial plants for the production of paper and board and other primary wood products;;WAHR;2017;Carbon dioxide (CO2);Greenhouse gases;269000000;Air
44824;06-00000130433;Opel Automobile GmbH PKZ 33-02;Bahnhofsplatz;1;65423;Rüsselsheim;Germany;49.99482294;8.397526681;Umweltbundesamt;9.(c);Other activities;Installations for the surface treatment of substances, objects or products using organic solvents, in particular for dressing, printing, coating, degreasing, waterproofing, sizing, painting, cleaning or impregnating;;WAHR;2017;Carbon dioxide (CO2);Greenhouse gases;267000000;Air
44053;06-05-300-0181417;Martinswerk GmbH;Kölner Str.;110;50127;Bergheim;Germany;50.94593363;6.666652057;Umweltbundesamt;4.(b);Chemical industry;Chemical installations for the production on an industrial scale of basic inorganic chemicals, such as:;;WAHR;2017;Carbon dioxide (CO2);Greenhouse gases;266000000;Air
44037;06-05-300-0079450;Smurfit Kappa Zülpich Papier GmbH;Zum Mühlengraben;1;53909;Zülpich;Germany;50.70659185;6.653005912;Umweltbundesamt;6.(b);Paper and wood production processing;Industrial plants for the production of paper and board and other primary wood products;;WAHR;2017;Carbon dioxide (CO2);Greenhouse gases;265000000;Air
44142;06-05-300-1350016;AVG Abfallentsorgungs- und Verwertungsgesellschaft Köln mbH;Geestemünder Str.;23;50735;Köln;Germany;51.00697387;6.95076623;Umweltbundesamt;5.(b);Waste and waste water management;Installations for the incineration of non-hazardous waste in the scope of Directive 2000/76/EC of the European Parliament and of the Council of 4 December 2000 on the incineration of waste;;WAHR;2017;Carbon dioxide (CO2);Greenhouse gases;264000000;Air
43357;03-04-04041762920;Statkraft Markets GmbH (Biomasseheizkraftwerk Emden);Zum Kraftwerk;-;26725;Emden;Germany;53.34068072;7.201697691;Umweltbundesamt;5.(a);Waste and waste water management;Installations for the recovery or disposal of hazardous waste;;WAHR;2017;Carbon dioxide (CO2);Greenhouse gases;264000000;Air
43366;03-04-04247180070;Nordland Papier GmbH Papierfabrik;Nordlandallee;1;26892;Dörpen;Germany;52.97774872;7.362360281;Umweltbundesamt;6.(b);Paper and wood production processing;Industrial plants for the production of paper and board and other primary wood products;;WAHR;2017;Carbon dioxide (CO2);Greenhouse gases;263000000;Air
43914;06-05-100-0853075;Gemeinschaftskraftwerk West GbR der STEAG GmbH STEAG Kraftwerk West;Frankfurter Str.;430;46562;Voerde;Germany;51.57616339;6.684128391;Umweltbundesamt;1.(c);Energy sector;Thermal power stations and other combustion installations;;WAHR;2017;Carbon dioxide (CO2);Greenhouse gases;262000000;Air
110171;06-04-11/2001178/8/6;swb Entsorgung GmbH & Co. KG / MKK Bremen Mittelkalorik-Kraftwerk;Otavistraße;07. Sep;28237;Bremen;Germany;53.12476039;8.727213045;Umweltbundesamt;5.(a);Waste and waste water management;Installations for the recovery or disposal of hazardous waste;;WAHR;2017;Carbon dioxide (CO2);Greenhouse gases;261000000;Air
237284;06-05-100-9973329;ArcelorMittal Hochfeld GmbH Werk Ruhrort;Vohwinkelstraße;107;47137;Duisburg;Germany;51.4608318;6.749172902;Umweltbundesamt;2.(b);Productiona and processing of metals;Installations for the production of pig iron or steel (primary or secondary melting) including continuous casting;;WAHR;2017;Carbon dioxide (CO2);Greenhouse gases;257000000;Air
46987;18043;FELS-WERKE Kalkwerk Rübeland;Kastanienallee;4;38889;Oberharz am Brocken;Germany;51.75300729;10.8276712;Umweltbundesamt;3.(c);Mineral industry;Installations for the production of:;#NAME?;WAHR;2017;Carbon dioxide (CO2);Greenhouse gases;256000000;Air
74373;12-40665570000;EEW Energy from Waste Großräschen GmbH;Bergmannstraße;29;1983;Großräschen;Germany;51.58196317;13.97744648;Umweltbundesamt;5.(b);Waste and waste water management;Installations for the incineration of non-hazardous waste in the scope of Directive 2000/76/EC of the European Parliament and of the Council of 4 December 2000 on the incineration of waste;;WAHR;2017;Carbon dioxide (CO2);Greenhouse gases;254000000;Air
2448;06-08-1574906;Daimler AG Mercedes-Benz Werk  Sindelfingen;Calwer Str.;-;71063;Sindelfingen;Germany;48.69993627;8.996099531;Umweltbundesamt;9.(c);Other activities;Installations for the surface treatment of substances, objects or products using organic solvents, in particular for dressing, printing, coating, degreasing, waterproofing, sizing, painting, cleaning or impregnating;;WAHR;2017;Carbon dioxide (CO2);Greenhouse gases;252000000;Air
46213;06-10-0075674;AVA Velsen;Alte Grube Velsen;16;66127;Saarbrücken;Germany;49.21427798;6.834734802;Umweltbundesamt;5.(b);Waste and waste water management;Installations for the incineration of non-hazardous waste in the scope of Directive 2000/76/EC of the European Parliament and of the Council of 4 December 2000 on the incineration of waste;;WAHR;2017;Carbon dioxide (CO2);Greenhouse gases;250000000;Air
44705;06-05-900-0302988;MHB Hamm Betriebsführungsgesell schaft mbH;Am Lausbach;2;59075;Hamm;Germany;51.68005645;7.744793049;Umweltbundesamt;5.(b);Waste and waste water management;Installations for the incineration of non-hazardous waste in the scope of Directive 2000/76/EC of the European Parliament and of the Council of 4 December 2000 on the incineration of waste;;WAHR;2017;Carbon dioxide (CO2);Greenhouse gases;250000000;Air
46986;18042;Werk  Zielitz;Farsleber Str.;Nr. 1;39326;Zielitz;Germany;52.29852065;11.67923164;Umweltbundesamt;3.(a);Mineral industry;Underground mining and related operations;;WAHR;2017;Carbon dioxide (CO2);Greenhouse gases;250000000;Air
45880;06-09-374-0012-0001;Pilkington Deutschland AG;Flachglasstraße;3;92729;Weiherhammer;Germany;49.62008699;12.07645089;Umweltbundesamt;3.(e);Mineral industry;Installations for the manufacture of glass, including glass fibre;;WAHR;2017;Carbon dioxide (CO2);Greenhouse gases;245000000;Air
46955;16873;Südzucker AG Mannheim / Ochsenfurt, Werk Zeitz;Albrechtstraße;54;6712;Zeitz;Germany;51.04899462;12.11001188;Umweltbundesamt;8.(b);Animal and vegetable products from the food and beverage sector;Treatment and processing intended for the production of food and beverage products from:;#NAME?;WAHR;2017;Carbon dioxide (CO2);Greenhouse gases;245000000;Air
47025;16-72-73595430000;Heizkraftwerk Jena Süd;Rudolstädter Str.;41;7745;Jena;Germany;50.89755951;11.58528474;Umweltbundesamt;1.(c);Energy sector;Thermal power stations and other combustion installations;;WAHR;2017;Carbon dioxide (CO2);Greenhouse gases;243000000;Air
46387;12-60510410000;Uniper Kraftwerke GmbH;Bahntechnikerring;17;14774;Brandenburg a.d. Havel;Germany;52.39476008;12.41714973;Umweltbundesamt;1.(c);Energy sector;Thermal power stations and other combustion installations;;WAHR;2017;Carbon dioxide (CO2);Greenhouse gases;243000000;Air
44302;06-05-500-0359243;Pilkington Deutschland AG -Werk Gladbeck-;Hegestr.;360;45966;Gladbeck;Germany;51.56623302;6.933418968;Umweltbundesamt;3.(e);Mineral industry;Installations for the manufacture of glass, including glass fibre;;WAHR;2017;Carbon dioxide (CO2);Greenhouse gases;242000000;Air
43205;06-02-B23204H000;TRIMET Aluminium SE, Niederlassung Hamburg;Aluminiumstraße;-;21129;Hamburg;Germany;53.51239548;9.887209802;Umweltbundesamt;2.(e);Productiona and processing of metals;Installations:;- For the production of non-ferrous crude metals from ore, concentrates or secondary raw materials by metallurgical, chemical or electrolytic processes;WAHR;2017;Carbon dioxide (CO2);Greenhouse gases;242000000;Air
44746;06-05-900-9000294;thyssenkrupp Steel Europe AG Werk Höntrop;Essener Straße;244;44793;Bochum;Germany;51.47552005;7.171001277;Umweltbundesamt;2.(c);Productiona and processing of metals;Installations for the processing of ferrous metals;#NAME?;WAHR;2017;Carbon dioxide (CO2);Greenhouse gases;241000000;Air
44389;06-05-700-0038968;Heidelberg Cement AG Zementwerk Paderborn;Am Atlaswerk;16;33106;Paderborn;Germany;51.69898847;8.747040907;Umweltbundesamt;3.(c);Mineral industry;Installations for the production of:;#NAME?;WAHR;2017;Carbon dioxide (CO2);Greenhouse gases;240000000;Air
43913;06-05-100-0848198;Kalkwerke H. Oetelshofen GmbH & Co. KG;Hahnenfurth;5;42327;Wuppertal;Germany;51.2481488;7.041902231;Umweltbundesamt;3.(c);Mineral industry;Installations for the production of:;#NAME?;WAHR;2017;Carbon dioxide (CO2);Greenhouse gases;240000000;Air
44877;06-00059010413;EVO - Heizkraftwerk Offenbach;Andréstraße;71;63067;Offenbach a. M., St.;Germany;50.11132061;8.745361683;Umweltbundesamt;1.(c);Energy sector;Thermal power stations and other combustion installations;;WAHR;2017;Carbon dioxide (CO2);Greenhouse gases;234000000;Air
45955;06-09-500-2025-0002;Müllverbrennungsanlage;Hintere Marktstr.;4;90441;Nürnberg;Germany;49.4355257;11.05546787;Umweltbundesamt;5.(b);Waste and waste water management;Installations for the incineration of non-hazardous waste in the scope of Directive 2000/76/EC of the European Parliament and of the Council of 4 December 2000 on the incineration of waste;;WAHR;2017;Carbon dioxide (CO2);Greenhouse gases;234000000;Air
44112;06-05-300-0838652;Energie- und Wasserversorgungs GmbH Stadtwerke Bonn;Karlstr.;02. Jun;53115;Bonn;Germany;50.7339539;7.081156635;Umweltbundesamt;1.(c);Energy sector;Thermal power stations and other combustion installations;;WAHR;2017;Carbon dioxide (CO2);Greenhouse gases;233000000;Air
46071;06-09-700-0700-0001;AVA Abfallverwertung Augsburg GmbH;Am Mittleren Moos;60;86167;Augsburg;Germany;48.4021359;10.93321948;Umweltbundesamt;5.(b);Waste and waste water management;Installations for the incineration of non-hazardous waste in the scope of Directive 2000/76/EC of the European Parliament and of the Council of 4 December 2000 on the incineration of waste;;WAHR;2017;Carbon dioxide (CO2);Greenhouse gases;232000000;Air
46322;12-30642900000;Fels-Werke GmbH;Frankfurter Chaussee;105;15562;Rüdersdorf bei Berlin;Germany;52.48644805;13.83004695;Umweltbundesamt;3.(c);Mineral industry;Installations for the production of:;#NAME?;WAHR;2017;Carbon dioxide (CO2);Greenhouse gases;231000000;Air
74747;14-80-55047380000;Stadtwerke Leipzig GmbH, HKW Leipzig;Eutritzscher Straße;17-19;4006;Leipzig;Germany;51.35144173;12.37816268;Umweltbundesamt;1.(c);Energy sector;Thermal power stations and other combustion installations;;WAHR;2017;Carbon dioxide (CO2);Greenhouse gases;230000000;Air
110205;06-05-300-9970711;Currenta GmbH & Co. OHG Entsorgungszentrum Bürrig;Alter Bürriger Deich;1;51371;Leverkusen;Germany;51.04140992;6.968234555;Umweltbundesamt;5.(a);Waste and waste water management;Installations for the recovery or disposal of hazardous waste;;WAHR;2017;Carbon dioxide (CO2);Greenhouse gases;227000000;Air
44820;06-00000010534;F ritz Winter Eisengießerei GmbH & Co. KG;Albert-Schweitzer Str.;15;35260;Stadtallendorf;Germany;50.81890668;9.011143857;Umweltbundesamt;2.(d);Productiona and processing of metals;Ferrous metal foundries;;WAHR;2017;Carbon dioxide (CO2);Greenhouse gases;227000000;Air
45693;06-09-100-1000-0001;Müllheizkraftwerk Burgkirchen;Bruck;110;84508;Burgkirchen a.d.Alz;Germany;48.1851535;12.73465747;Umweltbundesamt;5.(b);Waste and waste water management;Installations for the incineration of non-hazardous waste in the scope of Directive 2000/76/EC of the European Parliament and of the Council of 4 December 2000 on the incineration of waste;;WAHR;2017;Carbon dioxide (CO2);Greenhouse gases;227000000;Air
45684;06-09-100-0135-0001;Zweckverband Müllverwertungsanlage Ingolstadt;AM MAILINGER BACH;141;85055;INGOLSTADT;Germany;48.76434856;11.4929663;Umweltbundesamt;5.(b);Waste and waste water management;Installations for the incineration of non-hazardous waste in the scope of Directive 2000/76/EC of the European Parliament and of the Council of 4 December 2000 on the incineration of waste;;WAHR;2017;Carbon dioxide (CO2);Greenhouse gases;227000000;Air
157785;03-04-04000025140;Klingele Papierwerke GmbH & Co. KG Papierfabrik Weener;Industriestr.;46;26826;Weener;Germany;53.18065016;7.356391449;Umweltbundesamt;1.(c);Energy sector;Thermal power stations and other combustion installations;;WAHR;2017;Carbon dioxide (CO2);Greenhouse gases;221000000;Air
44576;06-05-900-0045033;Mark-E Aktiengesellschaft;Auf der Mark;1;58791;Werdohl;Germany;51.27541706;7.704583308;Umweltbundesamt;1.(c);Energy sector;Thermal power stations and other combustion installations;;WAHR;2017;Carbon dioxide (CO2);Greenhouse gases;220000000;Air
45034;06-83300010631;ZKW Otterbein Zementwerk;Georg-Otterbein-Straße;123;36137;Großenlüder;Germany;50.58452444;9.509518927;Umweltbundesamt;3.(c);Mineral industry;Installations for the production of:;#NAME?;WAHR;2017;Carbon dioxide (CO2);Greenhouse gases;219000000;Air
44270;06-05-500-0221194;Stadtwerke Münster GmbH;Am Mittelhafen;11;48155;Münster;Germany;51.95026038;7.640510491;Umweltbundesamt;1.(c);Energy sector;Thermal power stations and other combustion installations;;WAHR;2017;Carbon dioxide (CO2);Greenhouse gases;217000000;Air
43895;06-05-100-0501870;Kreis Weseler Abfallgesellschaft mbH & Co. KG Abfallentsorgungszentrum Asdonkshof;Graftstr.;25;47475;Kamp-Lintfort;Germany;51.51888436;6.576413074;Umweltbundesamt;5.(b);Waste and waste water management;Installations for the incineration of non-hazardous waste in the scope of Directive 2000/76/EC of the European Parliament and of the Council of 4 December 2000 on the incineration of waste;;WAHR;2017;Carbon dioxide (CO2);Greenhouse gases;216000000;Air
43233;06-02-B28903H003;ADM Hamburg Aktiengesellschaft Werk Hamburg;Nippoldstraße;117;21107;Hamburg;Germany;53.51869443;9.952921273;Umweltbundesamt;4.(a);Chemical industry;Chemical installations for the production on an industrial scale of basic organic chemicals, such as:;#NAME?;WAHR;2017;Carbon dioxide (CO2);Greenhouse gases;215000000;Air
46424;13-30-2102110;Stadtwerke Rostock AG;Schmarler Damm;5;18069;Rostock;Germany;54.12777665;12.08383012;Umweltbundesamt;1.(c);Energy sector;Thermal power stations and other combustion installations;;WAHR;2017;Carbon dioxide (CO2);Greenhouse gases;213000000;Air
71806;06-90032200632;Werk Werra Standort Wintershall;In der Aue;1;36262;Heringen (Werra);Germany;50.8935888;9.995858609;Umweltbundesamt;3.(a);Mineral industry;Underground mining and related operations;;WAHR;2017;Carbon dioxide (CO2);Greenhouse gases;210000000;Air
45836;06-09-275-0029-0001;Rottwerk Pocking;Wöhlerstraße;30;94060;Pocking;Germany;48.4187226;13.33021656;Umweltbundesamt;2.(e);Productiona and processing of metals;Installations:;- For the production of non-ferrous crude metals from ore, concentrates or secondary raw materials by metallurgical, chemical or electrolytic processes;WAHR;2017;Carbon dioxide (CO2);Greenhouse gases;209000000;Air
74252;06-09-100-8015-0001;Biomasseheizkraftwerk Zolling GmbH;Leininger Straße;1;85406;Zolling;Germany;48.45619096;11.79992545;Umweltbundesamt;1.(c);Energy sector;Thermal power stations and other combustion installations;;WAHR;2017;Carbon dioxide (CO2);Greenhouse gases;206000000;Air
46000;06-09-600-0025-0001;Heizkraftwerk an der Friedensbrücke;Veitshöchheimer Str.;1;97080;Würzburg;Germany;49.79992763;9.923245388;Umweltbundesamt;1.(c);Energy sector;Thermal power stations and other combustion installations;;WAHR;2017;Carbon dioxide (CO2);Greenhouse gases;204000000;Air
44138;06-05-300-1114955;Kronos Titan GmbH;Titanstr.;-;51371;Leverkusen;Germany;51.0131869;6.986876403;Umweltbundesamt;4.(a);Chemical industry;Chemical installations for the production on an industrial scale of basic organic chemicals, such as:;#NAME?;WAHR;2017;Carbon dioxide (CO2);Greenhouse gases;202000000;Air
74758;14-80-56918040000;Stora Enso Sachsen GmbH;Am Schanzberg;1;4838;Eilenburg;Germany;51.46461931;12.59134178;Umweltbundesamt;6.(b);Paper and wood production processing;Industrial plants for the production of paper and board and other primary wood products;;WAHR;2017;Carbon dioxide (CO2);Greenhouse gases;201000000;Air
44987;06-26200010633;HKW Baunatal;Dr. Rudolf-Leiding-Platz;1;34225;Baunatal;Germany;51.25261463;9.437225816;Umweltbundesamt;1.(c);Energy sector;Thermal power stations and other combustion installations;;WAHR;2017;Carbon dioxide (CO2);Greenhouse gases;199000000;Air
44799;06-05-900-9139128;Biomassekraftwerk Lünen GmbH;Josef-Rethmann-Straße;4;44536;Lünen;Germany;51.62193392;7.469104053;Umweltbundesamt;5.(a);Waste and waste water management;Installations for the recovery or disposal of hazardous waste;;WAHR;2017;Carbon dioxide (CO2);Greenhouse gases;198000000;Air
45377;06-08-34044741;BEB Bioenergie Baden GmbH;Bremenwörtstr.;5;77694;Kehl;Germany;48.58293049;7.819915173;Umweltbundesamt;5.(a);Waste and waste water management;Installations for the recovery or disposal of hazardous waste;;WAHR;2017;Carbon dioxide (CO2);Greenhouse gases;197000000;Air
43971;06-05-100-9021122;LANXESS Deutschland GmbH CHEMPARK Krefeld-Uerdingen;Rheinuferstraße;07. Sep;47829;Krefeld;Germany;51.36819042;6.662384532;Umweltbundesamt;4.(b);Chemical industry;Chemical installations for the production on an industrial scale of basic inorganic chemicals, such as:;- Non-metals, metal oxides or other inorganic compounds;WAHR;2017;Carbon dioxide (CO2);Greenhouse gases;196000000;Air
45720;06-09-171-0002--C01;InfraServ GmbH & Co. Gendorf KG;Industrieparkstraße;1;84508;Burgkirchen a.d.Alz;Germany;48.18308394;12.73009346;Umweltbundesamt;1.(c);Energy sector;Thermal power stations and other combustion installations;;WAHR;2017;Carbon dioxide (CO2);Greenhouse gases;195000000;Air
43104;01-10-51011005501;Sasol Germany GmbH;Fritz-Staiger-Str.;15;25541;Brunsbüttel;Germany;53.9128775;9.157962898;Umweltbundesamt;4.(a);Chemical industry;Chemical installations for the production on an industrial scale of basic organic chemicals, such as:;#NAME?;WAHR;2017;Carbon dioxide (CO2);Greenhouse gases;195000000;Air
46989;18045;FELS-WERKE Kalkwerk Hornberg;Hornberg;1;38875;Oberharz am Brocken;Germany;51.75999765;10.76390404;Umweltbundesamt;3.(c);Mineral industry;Installations for the production of:;#NAME?;WAHR;2017;Carbon dioxide (CO2);Greenhouse gases;192000000;Air
44645;06-05-900-0125939;Mark-E Aktiengesellschaft Cuno Heizkraftwerk;Wetterstr.;111;58313;Herdecke;Germany;51.40154972;7.408529953;Umweltbundesamt;1.(c);Energy sector;Thermal power stations and other combustion installations;;WAHR;2017;Carbon dioxide (CO2);Greenhouse gases;192000000;Air
44974;06-14600010611;Städtische Werke, Kraftwerk Kassel;Dennhäuser Straße;122;34134;Kassel, Stadt;Germany;51.27928394;9.483330369;Umweltbundesamt;1.(c);Energy sector;Thermal power stations and other combustion installations;;WAHR;2017;Carbon dioxide (CO2);Greenhouse gases;190000000;Air
44854;06-00004310411;ENTEGA AG (HSE);Otto-Röhm-Straße;19-25;64293;Darmstadt, Stadt;Germany;49.88413133;8.646306785;Umweltbundesamt;5.(b);Waste and waste water management;Installations for the incineration of non-hazardous waste in the scope of Directive 2000/76/EC of the European Parliament and of the Council of 4 December 2000 on the incineration of waste;;WAHR;2017;Carbon dioxide (CO2);Greenhouse gases;189000000;Air
46325;12-30644610000;GASCADE Gastransport GmbH;Schönfließer Str.;15;15326;Lebus;Germany;52.4429385;14.47411146;Umweltbundesamt;1.(c);Energy sector;Thermal power stations and other combustion installations;;WAHR;2017;Carbon dioxide (CO2);Greenhouse gases;189000000;Air
44419;06-05-700-0128330;Pfleiderer Gütersloh GmbH (Werk 2);Stadtring Nordhorn;61;33332;Gütersloh;Germany;51.91545493;8.400024698;Umweltbundesamt;6.(b);Paper and wood production processing;Industrial plants for the production of paper and board and other primary wood products;;WAHR;2017;Carbon dioxide (CO2);Greenhouse gases;189000000;Air
43935;06-05-100-0989193;Sasol-Huntsman GmbH & Co. KG;Römerstr.;733;47443;Moers;Germany;51.46969297;6.646744134;Umweltbundesamt;4.(a);Chemical industry;Chemical installations for the production on an industrial scale of basic organic chemicals, such as:;;WAHR;2017;Carbon dioxide (CO2);Greenhouse gases;188000000;Air
74834;12305;EVH GmbH, Dieselstr.;Dieselstraße  141;-;6130;Halle (Saale);Germany;51.45910421;11.99288297;Umweltbundesamt;1.(c);Energy sector;Thermal power stations and other combustion installations;;WAHR;2017;Carbon dioxide (CO2);Greenhouse gases;187000000;Air
45686;06-09-100-0212-0001;GSB Entsorgungsbetrieb Baar-Ebenhausen;Äusserer Ring;50;85107;Baar-Ebenhausen;Germany;48.6945723;11.47895727;Umweltbundesamt;5.(a);Waste and waste water management;Installations for the recovery or disposal of hazardous waste;;WAHR;2017;Carbon dioxide (CO2);Greenhouse gases;187000000;Air
46001;06-09-600-0026-0001;Müllheizkraftwerk Würzburg;Gattinger Straße;31;97076;Würzburg;Germany;49.79269022;9.994592822;Umweltbundesamt;5.(b);Waste and waste water management;Installations for the incineration of non-hazardous waste in the scope of Directive 2000/76/EC of the European Parliament and of the Council of 4 December 2000 on the incineration of waste;;WAHR;2017;Carbon dioxide (CO2);Greenhouse gases;186000000;Air
44090;06-05-300-0420058;Evonik Degussa GmbH Werk Wesseling;Brühler Str.;2;50389;Wesseling;Germany;50.8340999;6.976286462;Umweltbundesamt;4.(a);Chemical industry;Chemical installations for the production on an industrial scale of basic organic chemicals, such as:;;WAHR;2017;Carbon dioxide (CO2);Greenhouse gases;185000000;Air
74313;06-09-674-2071-0001;Palm Power GmbH & Co. KG;Industriestr.;23;97483;Eltmann;Germany;49.9840535;10.65297173;Umweltbundesamt;1.(c);Energy sector;Thermal power stations and other combustion installations;;WAHR;2017;Carbon dioxide (CO2);Greenhouse gases;185000000;Air
44733;06-05-900-0877505;Aurubis AG;KUPFERSTRASSE;23;44532;Lünen;Germany;51.60659082;7.508034454;Umweltbundesamt;2.(e);Productiona and processing of metals;Installations:;- For the production of non-ferrous crude metals from ore, concentrates or secondary raw materials by metallurgical, chemical or electrolytic processes;WAHR;2017;Carbon dioxide (CO2);Greenhouse gases;184000000;Air
44958;06-01620010414;Dyckerhoff GmbH, Werksgruppe Süd, Werk Amöneburg;Biebricher Str.;74;65203;Wiesbaden, Stadt;Germany;50.03190956;8.257001754;Umweltbundesamt;3.(c);Mineral industry;Installations for the production of:;#NAME?;WAHR;2017;Carbon dioxide (CO2);Greenhouse gases;183000000;Air
110066;18243;Linde Gas Produktionsgesellschaft mbH & Co. KG / TOTAL;Maienweg;1;6237;Leuna;Germany;51.29011003;11.99581754;Umweltbundesamt;4.(b);Chemical industry;Chemical installations for the production on an industrial scale of basic inorganic chemicals, such as:;#NAME?;WAHR;2017;Carbon dioxide (CO2);Greenhouse gases;183000000;Air
44512;06-05-900-0001413;R.D.M. Arnsberg GmbH;Hellefelderstr.;51;59821;Arnsberg;Germany;51.39113486;8.073864881;Umweltbundesamt;6.(b);Paper and wood production processing;Industrial plants for the production of paper and board and other primary wood products;;WAHR;2017;Carbon dioxide (CO2);Greenhouse gases;183000000;Air
43106;01-10-51011008963;Covestro Deutschland AG;Fährstr.;51;25541;Brunsbüttel;Germany;53.90196086;9.186596041;Umweltbundesamt;4.(b);Chemical industry;Chemical installations for the production on an industrial scale of basic inorganic chemicals, such as:;#NAME?;WAHR;2017;Carbon dioxide (CO2);Greenhouse gases;182000000;Air
44123;06-05-300-0890760;Schoellershammer GmbH & Co. KG;Kreuzauer Straße;18;52355;Düren;Germany;50.77651655;6.48949128;Umweltbundesamt;6.(b);Paper and wood production processing;Industrial plants for the production of paper and board and other primary wood products;;WAHR;2017;Carbon dioxide (CO2);Greenhouse gases;182000000;Air
43942;06-05-100-0990908;Oxea Produktion GmbH & Co. KG Werk Ruhrchemie;Otto-Roelen-Str.;3;46147;Oberhausen;Germany;51.52550274;6.798447932;Umweltbundesamt;4.(a);Chemical industry;Chemical installations for the production on an industrial scale of basic organic chemicals, such as:;;WAHR;2017;Carbon dioxide (CO2);Greenhouse gases;181000000;Air
2497;06-08-4004094;Rheinkalk GmbH Kallkwerk Istein;Am Kehrenweg;10;79588;Efringen-Kirchen;Germany;47.66098899;7.543648761;Umweltbundesamt;3.(c);Mineral industry;Installations for the production of:;;WAHR;2017;Carbon dioxide (CO2);Greenhouse gases;181000000;Air
45027;06-76400010631;Papierfabrik A. Jass GmbH & Co.KG;Hermann-Muth-Straße;6;36039;Fulda;Germany;50.56751056;9.681619259;Umweltbundesamt;6.(b);Paper and wood production processing;Industrial plants for the production of paper and board and other primary wood products;;WAHR;2017;Carbon dioxide (CO2);Greenhouse gases;179000000;Air
143035;12-20603020000;1Heiz Energie GmbH Binnenhafen Eberswalde;Angermünder Straße;68;16225;Eberswalde;Germany;52.85126367;13.77847133;Umweltbundesamt;1.(c);Energy sector;Thermal power stations and other combustion installations;;WAHR;2017;Carbon dioxide (CO2);Greenhouse gases;178000000;Air
45110;07-03-4081550;"Portlandzementwerk "" Wotan"",, H. Schneider KG";Unten im Hähnchen;1;54579;Üxheim;Germany;50.33399006;6.766828137;Umweltbundesamt;3.(c);Mineral industry;Installations for the production of:;#NAME?;WAHR;2017;Carbon dioxide (CO2);Greenhouse gases;178000000;Air
110284;07-01-687494;IHKW                                     Industrieheizkraftwerk Andernach GmbH    c/o ThyssenKrupp Rasselstein GmbH;Koblenzer Str.;141;56626;Andernach;Germany;50.4320179;7.408163248;Umweltbundesamt;5.(a);Waste and waste water management;Installations for the recovery or disposal of hazardous waste;;WAHR;2017;Carbon dioxide (CO2);Greenhouse gases;177000000;Air
45950;06-09-500-0112-0001;Heizkraftwerk Erlangen;Äußere Brucker Str.;33;91052;Erlangen;Germany;49.59251916;11.00209928;Umweltbundesamt;1.(c);Energy sector;Thermal power stations and other combustion installations;;WAHR;2017;Carbon dioxide (CO2);Greenhouse gases;176000000;Air
46834;12045;Dow Olefinverbund GmbH, Werk Schkopau;Strasse;B 13;6258;Schkopau;Germany;51.39557455;11.94431816;Umweltbundesamt;4.(a);Chemical industry;Chemical installations for the production on an industrial scale of basic organic chemicals, such as:;- Basic plastic materials (polymers, synthetic fibres and cellulose-based fibres);WAHR;2017;Carbon dioxide (CO2);Greenhouse gases;175000000;Air
3127;06-10-0020157;Energie SaarLorLux AG Heizkraftwerk Römerbrücke;Bismarckstraße;143;66121;Saarbrücken;Germany;49.22370388;7.014812649;Umweltbundesamt;1.(c);Energy sector;Thermal power stations and other combustion installations;;WAHR;2017;Carbon dioxide (CO2);Greenhouse gases;175000000;Air
45177;07-05-8311920;GML Abfallwirtschaftsgesellschaft mbH;Bürgerm.-Grünzweig-Str.;87;67059;Ludwigshafen am Rhein;Germany;49.4846822;8.426356422;Umweltbundesamt;5.(b);Waste and waste water management;Installations for the incineration of non-hazardous waste in the scope of Directive 2000/76/EC of the European Parliament and of the Council of 4 December 2000 on the incineration of waste;;WAHR;2017;Carbon dioxide (CO2);Greenhouse gases;175000000;Air
43597;03-10-10102275040;EBE Holzheizkraftwerk GmbH;Neuerostrasse;8;49824;Emlichheim;Germany;52.61934124;6.873448264;Umweltbundesamt;5.(a);Waste and waste water management;Installations for the recovery or disposal of hazardous waste;;WAHR;2017;Carbon dioxide (CO2);Greenhouse gases;174000000;Air
47045;16-77-11033000000;Biomassekraftwerk Bischofferode/Holungen;Schachtstraße;01. Mrz;37345;Sonnenstein;Germany;51.49007537;10.41296717;Umweltbundesamt;1.(c);Energy sector;Thermal power stations and other combustion installations;;WAHR;2017;Carbon dioxide (CO2);Greenhouse gases;173000000;Air
43611;03-10-10285005160;Georgsmarienhütte GmbH;Neue Hüttenstraße;1;49124;Georgsmarienhütte;Germany;52.2091444;8.049501107;Umweltbundesamt;2.(b);Productiona and processing of metals;Installations for the production of pig iron or steel (primary or secondary melting) including continuous casting;;WAHR;2017;Carbon dioxide (CO2);Greenhouse gases;173000000;Air
44128;06-05-300-0907015;Pfeifer & Langen GmbH & Co. KG Werk Jülich;Dürener Straße;20;52428;Jülich;Germany;50.91661635;6.373121202;Umweltbundesamt;8.(b);Animal and vegetable products from the food and beverage sector;Treatment and processing intended for the production of food and beverage products from:;#NAME?;WAHR;2017;Carbon dioxide (CO2);Greenhouse gases;172000000;Air
43246;06-02-B74539A003;VERA Klärschlammverbrennung GmbH;Köhlbranddeich;3;20457;Hamburg;Germany;53.53450441;9.942925565;Umweltbundesamt;5.(b);Waste and waste water management;Installations for the incineration of non-hazardous waste in the scope of Directive 2000/76/EC of the European Parliament and of the Council of 4 December 2000 on the incineration of waste;;WAHR;2017;Carbon dioxide (CO2);Greenhouse gases;172000000;Air
45374;06-08-34033281;EEW Energy from Waste Saarbrücken GmbH TREA Breisgau;Heitersheimer Straße;2;79427;Eschbach;Germany;47.89019999;7.616442196;Umweltbundesamt;5.(b);Waste and waste water management;Installations for the incineration of non-hazardous waste in the scope of Directive 2000/76/EC of the European Parliament and of the Council of 4 December 2000 on the incineration of waste;;WAHR;2017;Carbon dioxide (CO2);Greenhouse gases;170000000;Air
46097;06-09-772-0119-0001;Lech-Stahlwerke GmbH;Industriestr.;1;86405;Meitingen;Germany;48.51211887;10.85935053;Umweltbundesamt;2.(b);Productiona and processing of metals;Installations for the production of pig iron or steel (primary or secondary melting) including continuous casting;;WAHR;2017;Carbon dioxide (CO2);Greenhouse gases;169000000;Air
46160;06-09-779-0083-0A30;Märker Kalk GmbH;Oskar-Märker-Straße;24;86655;Harburg (Schwaben);Germany;48.77380131;10.69959166;Umweltbundesamt;3.(c);Mineral industry;Installations for the production of:;#NAME?;WAHR;2017;Carbon dioxide (CO2);Greenhouse gases;169000000;Air
74683;14-70-80350580000;Thermische Abfallbehandlung Lauta GmbH & Co. oHG;Straße B Nr. 5;5;2991;Lauta;Germany;51.45043687;14.11209784;Umweltbundesamt;5.(a);Waste and waste water management;Installations for the recovery or disposal of hazardous waste;;WAHR;2017;Carbon dioxide (CO2);Greenhouse gases;169000000;Air
45856;06-09-362-0035-0001;Walhalla Kalk GmbH & Co. KG;Donaustaufer Str.;207;93055;Regensburg;Germany;49.03406941;12.13386691;Umweltbundesamt;3.(c);Mineral industry;Installations for the production of:;#NAME?;WAHR;2017;Carbon dioxide (CO2);Greenhouse gases;169000000;Air
43306;03-01-01244136460;Peiner Träger GmbH;Gerhard-Lucas-Meyer-Str.;10;31226;Peine;Germany;52.31635646;10.23818612;Umweltbundesamt;2.(b);Productiona and processing of metals;Installations for the production of pig iron or steel (primary or secondary melting) including continuous casting;;WAHR;2017;Carbon dioxide (CO2);Greenhouse gases;166000000;Air
43870;06-05-100-0382786;TRIMET Aluminium SE Niederlassung Voerde;Schleusenstr.;11;46562;Voerde;Germany;51.62553605;6.615408557;Umweltbundesamt;2.(e);Productiona and processing of metals;Installations:;- For the production of non-ferrous crude metals from ore, concentrates or secondary raw materials by metallurgical, chemical or electrolytic processes;WAHR;2017;Carbon dioxide (CO2);Greenhouse gases;166000000;Air
46316;12-30532000000;Stadtwerke Frankfurt (Oder) GmbH Stadtwerke Frankfurt (Oder) GmbH;Am Hohem Feld Nr.;4;15232;Frankfurt (Oder);Germany;52.31822154;14.53151664;Umweltbundesamt;1.(c);Energy sector;Thermal power stations and other combustion installations;;WAHR;2017;Carbon dioxide (CO2);Greenhouse gases;165000000;Air
46338;12-40520430000;Heizkraftwerk Cottbus;Werner-von-Siemens-Straße;16;3052;Cottbus;Germany;51.75974598;14.3696347;Umweltbundesamt;1.(c);Energy sector;Thermal power stations and other combustion installations;;WAHR;2017;Carbon dioxide (CO2);Greenhouse gases;163000000;Air
74833;12303;Heizkraftwerk Halle-Trotha;Brachwitzer Straße 21;-;6118;Halle (Saale);Germany;51.52362687;11.94330516;Umweltbundesamt;1.(c);Energy sector;Thermal power stations and other combustion installations;;WAHR;2017;Carbon dioxide (CO2);Greenhouse gases;160000000;Air
45825;06-09-273-0317-0001;Kelheim Fibres GmbH;Regensburger Straße;109;93309;Kelheim;Germany;48.9060988;11.9032822;Umweltbundesamt;4.(a);Chemical industry;Chemical installations for the production on an industrial scale of basic organic chemicals, such as:;- Basic plastic materials (polymers, synthetic fibres and cellulose-based fibres);WAHR;2017;Carbon dioxide (CO2);Greenhouse gases;160000000;Air
54392;06-02-B2A100H003;Nynas GmbH & Co. KG Raffinerie Harburg;Hohe-Schaar-Straße;34;21107;Hamburg;Germany;53.48659008;9.970242034;Umweltbundesamt;1.(a);Energy sector;Mineral oil and gas refineries;;WAHR;2017;Carbon dioxide (CO2);Greenhouse gases;160000000;Air
73883;06-02-B2C100A009;Aurubis AG;HOVESTRASSE;50;20539;HAMBURG;Germany;53.51798533;10.03496985;Umweltbundesamt;2.(e);Productiona and processing of metals;Installations:;- For the production of non-ferrous crude metals from ore, concentrates or secondary raw materials by metallurgical, chemical or electrolytic processes;WAHR;2017;Carbon dioxide (CO2);Greenhouse gases;158000000;Air
44926;06-00464020412;Mainova, HKW Niederrad;Lyoner Str.;8;60528;Frankfurt am Main, St.;Germany;50.08570344;8.627828008;Umweltbundesamt;1.(c);Energy sector;Thermal power stations and other combustion installations;;WAHR;2017;Carbon dioxide (CO2);Greenhouse gases;158000000;Air
110483;16725;Stadtwerke Leipzig GmbH Biomasseheizkraftwerk Piesteritz;Dessauer Straße;124;6886;Lutherstadt Wittenberg;Germany;51.87085333;12.56993658;Umweltbundesamt;1.(c);Energy sector;Thermal power stations and other combustion installations;;WAHR;2017;Carbon dioxide (CO2);Greenhouse gases;158000000;Air
70818;06-05-300-0271861;Saint-Gobain Glass Deutschland GmbH;Poststr.;103;51143;Köln;Germany;50.87446993;7.06407569;Umweltbundesamt;3.(e);Mineral industry;Installations for the manufacture of glass, including glass fibre;;WAHR;2017;Carbon dioxide (CO2);Greenhouse gases;157000000;Air
46845;12342;envia THERM Kraftwerk Bitterfeld;Parsevalstraße;3b;6749;Bitterfeld-Wolfen;Germany;51.62915061;12.30460862;Umweltbundesamt;1.(c);Energy sector;Thermal power stations and other combustion installations;;WAHR;2017;Carbon dioxide (CO2);Greenhouse gases;156000000;Air
46947;16584;CIECH Soda Deutschland GmbH & Co. KG;An der Löderburger Bahn;4a;39418;Staßfurt;Germany;51.8897185;11.56454915;Umweltbundesamt;4.(b);Chemical industry;Chemical installations for the production on an industrial scale of basic inorganic chemicals, such as:;;WAHR;2017;Carbon dioxide (CO2);Greenhouse gases;155000000;Air
70297;03-09-09281734280;VYNOVA Wilhelmshaven GmbH;Inhausersieler Str.;25;26388;Wilhelmshaven;Germany;53.62630468;8.070422512;Umweltbundesamt;4.(a);Chemical industry;Chemical installations for the production on an industrial scale of basic organic chemicals, such as:;- Basic plastic materials (polymers, synthetic fibres and cellulose-based fibres);WAHR;2017;Carbon dioxide (CO2);Greenhouse gases;155000000;Air
43804;06-05-100-0173542;Aluminium Norf GmbH;Koblenzer Str.;120;41468;Neuss;Germany;51.15048973;6.769715655;Umweltbundesamt;2.(e);Productiona and processing of metals;Installations:;- For the smelting, including the alloying, of non-ferrous metals, including recovered products (refining, foundry casting, etc.);WAHR;2017;Carbon dioxide (CO2);Greenhouse gases;154000000;Air
44098;06-05-300-0535035;AVEA Entsorgungsbetriebe GmbH & Co. KG;IM EISHOLZ;3;51373;LEVERKUSEN;Germany;51.04231769;7.004202226;Umweltbundesamt;5.(b);Waste and waste water management;Installations for the incineration of non-hazardous waste in the scope of Directive 2000/76/EC of the European Parliament and of the Council of 4 December 2000 on the incineration of waste;;WAHR;2017;Carbon dioxide (CO2);Greenhouse gases;154000000;Air
46386;12-60510400000;B.E.S. Brandenburger Elektrostahlwerke GmbH;Woltersdorfer Str.;40;14770;Brandenburg a.d. Havel;Germany;52.40195019;12.49888566;Umweltbundesamt;2.(b);Productiona and processing of metals;Installations for the production of pig iron or steel (primary or secondary melting) including continuous casting;;WAHR;2017;Carbon dioxide (CO2);Greenhouse gases;154000000;Air
45526;06-08-7024258;EEW MHKW Göppingen;Iltishofweg;40;73037;Göppingen;Germany;48.68215533;9.67147521;Umweltbundesamt;5.(b);Waste and waste water management;Installations for the incineration of non-hazardous waste in the scope of Directive 2000/76/EC of the European Parliament and of the Council of 4 December 2000 on the incineration of waste;;WAHR;2017;Carbon dioxide (CO2);Greenhouse gases;154000000;Air
43505;03-08-08271405180;Nordzucker AG Werk Uelzen;An der Zuckerfabrik;-;29525;Uelzen;Germany;52.97836737;10.55955387;Umweltbundesamt;8.(b);Animal and vegetable products from the food and beverage sector;Treatment and processing intended for the production of food and beverage products from:;#NAME?;WAHR;2017;Carbon dioxide (CO2);Greenhouse gases;151000000;Air
44252;06-05-500-0109203;Calcis Lienen GmbH & Co.KG;Holperdorper Strasse;47;49536;Lienen;Germany;52.16274063;7.96905593;Umweltbundesamt;3.(c);Mineral industry;Installations for the production of:;#NAME?;WAHR;2017;Carbon dioxide (CO2);Greenhouse gases;150000000;Air
2439;06-08-1371304;Heizkraftwerk Stuttgart-Gaisburg;Langwiesenweg;23;70327;Stuttgart;Germany;48.78274665;9.231241212;Umweltbundesamt;1.(c);Energy sector;Thermal power stations and other combustion installations;;WAHR;2017;Carbon dioxide (CO2);Greenhouse gases;150000000;Air
73702;16-62-09401231000;K+S KALI GmbH, Werk Werra, Standort Unterbreizbach;Schachtstraße;-;36414;Unterbreizbach;Germany;50.81218826;9.977292043;Umweltbundesamt;3.(a);Mineral industry;Underground mining and related operations;;WAHR;2017;Carbon dioxide (CO2);Greenhouse gases;150000000;Air
110415;12-60632000000;EEW Energy from Waste Premnitz GmbH;Dr.-Herbert-Rein-Str.;1;14727;Premnitz;Germany;52.52769132;12.35903072;Umweltbundesamt;5.(b);Waste and waste water management;Installations for the incineration of non-hazardous waste in the scope of Directive 2000/76/EC of the European Parliament and of the Council of 4 December 2000 on the incineration of waste;;WAHR;2017;Carbon dioxide (CO2);Greenhouse gases;149000000;Air
2504;06-08-4124448;Papierfabrik August Koehler SE;Hauptstrasse;02. Apr;77704;Oberkirch;Germany;48.52681204;8.086229012;Umweltbundesamt;6.(b);Paper and wood production processing;Industrial plants for the production of paper and board and other primary wood products;;WAHR;2017;Carbon dioxide (CO2);Greenhouse gases;149000000;Air
2463;06-08-2486806;Märker Kalk GmbH;Weiherstraße;8;89134;Blaustein;Germany;48.41911381;9.902391591;Umweltbundesamt;3.(c);Mineral industry;Installations for the production of:;;WAHR;2017;Carbon dioxide (CO2);Greenhouse gases;148000000;Air
300711;06-05-500-9981505;Rütgers Germany GmbH;Kekuléstr.;30;44579;Castrop-Rauxel;Germany;51.57448544;7.298344527;Umweltbundesamt;4.(a);Chemical industry;Chemical installations for the production on an industrial scale of basic organic chemicals, such as:;- Simple hydrocarbons (linear or cyclic, saturated or unsaturated, aliphatic or aromatic);WAHR;2017;Carbon dioxide (CO2);Greenhouse gases;146000000;Air
74832;12184;EUROGLAS AG;Euroglas Straße;101;39171;Sülzetal;Germany;52.05757216;11.58077961;Umweltbundesamt;3.(e);Mineral industry;Installations for the manufacture of glass, including glass fibre;;WAHR;2017;Carbon dioxide (CO2);Greenhouse gases;143000000;Air
43561;03-09-09261732970;KRONOS TITAN GmbH Werk Nordenham;Titanstr.;1;26954;Nordenham;Germany;53.53068437;8.546741045;Umweltbundesamt;4.(a);Chemical industry;Chemical installations for the production on an industrial scale of basic organic chemicals, such as:;#NAME?;WAHR;2017;Carbon dioxide (CO2);Greenhouse gases;143000000;Air
158120;14-70-51322590000;Sachsenmilch Leppersdorf GmbH;An den Breiten -;1;1454;Wachau;Germany;51.15115992;13.97920473;Umweltbundesamt;1.(c);Energy sector;Thermal power stations and other combustion installations;;WAHR;2017;Carbon dioxide (CO2);Greenhouse gases;142000000;Air
174817;06-05-900-0840277;Calcis Warstein GmbH & Co. KG;Rangetriftweg;108;59581;Warstein;Germany;51.43610041;8.374991541;Umweltbundesamt;3.(c);Mineral industry;Installations for the production of:;#NAME?;WAHR;2017;Carbon dioxide (CO2);Greenhouse gases;140000000;Air
46069;06-09-700-0500-0001;Müllheizkraftwerk Kempten;Dieselstr.;20;87437;Kempten (Allgäu);Germany;47.75886348;10.31910309;Umweltbundesamt;5.(b);Waste and waste water management;Installations for the incineration of non-hazardous waste in the scope of Directive 2000/76/EC of the European Parliament and of the Council of 4 December 2000 on the incineration of waste;;WAHR;2017;Carbon dioxide (CO2);Greenhouse gases;140000000;Air
46218;06-10-0078532;AHKW Neunkirchen;Am Blücherflöz;12;66538;Neunkirchen;Germany;49.33814164;7.168402938;Umweltbundesamt;5.(b);Waste and waste water management;Installations for the incineration of non-hazardous waste in the scope of Directive 2000/76/EC of the European Parliament and of the Council of 4 December 2000 on the incineration of waste;;WAHR;2017;Carbon dioxide (CO2);Greenhouse gases;139000000;Air
56260;07-01-690093;Biomasse Heizkraftwerk Siegerl GmbH;Graf-Zeppelin-Str.;2;56479;Liebenscheid;Germany;50.70241658;8.073182102;Umweltbundesamt;5.(a);Waste and waste water management;Installations for the recovery or disposal of hazardous waste;;WAHR;2017;Carbon dioxide (CO2);Greenhouse gases;139000000;Air
233088;06-09-771-0027-0001;Pfeifer Holz GmbH - Werk Unterbernbach;Mühlenstraße;7;86556;Kühbach;Germany;48.49366401;11.18268;Umweltbundesamt;6.(b);Paper and wood production processing;Industrial plants for the production of paper and board and other primary wood products;;WAHR;2017;Carbon dioxide (CO2);Greenhouse gases;137000000;Air
44067;06-05-300-0261171;Zanders GmbH;An der Gohrsmühle;25;51465;Bergisch Gladbach;Germany;50.98890726;7.127073466;Umweltbundesamt;6.(b);Paper and wood production processing;Industrial plants for the production of paper and board and other primary wood products;;WAHR;2017;Carbon dioxide (CO2);Greenhouse gases;137000000;Air
46497;13-50-138;GuD HKW;Warliner Str.;22;17034;Neubrandenburg;Germany;53.56147966;13.29588114;Umweltbundesamt;1.(c);Energy sector;Thermal power stations and other combustion installations;;WAHR;2017;Carbon dioxide (CO2);Greenhouse gases;136000000;Air
237253;03-10-10100029340;Kämmerer Energie GmbH;Römereschstraße;33;49090;Osnabrück;Germany;52.29629628;8.023455333;Umweltbundesamt;1.(c);Energy sector;Thermal power stations and other combustion installations;;WAHR;2017;Carbon dioxide (CO2);Greenhouse gases;136000000;Air
43439;03-06-06277201660;Smurfit Kappa Hoya Papier und Karton GmbH;Von-dem-Bussche-Straße;1;27318;Hoya;Germany;52.81137987;9.150202248;Umweltbundesamt;6.(b);Paper and wood production processing;Industrial plants for the production of paper and board and other primary wood products;;WAHR;2017;Carbon dioxide (CO2);Greenhouse gases;136000000;Air
44459;06-05-700-9073508;Stadtwerke Bielefeld GmbH;Niedernholz;23;33699;Bielefeld;Germany;51.99965716;8.615154605;Umweltbundesamt;1.(c);Energy sector;Thermal power stations and other combustion installations;;WAHR;2017;Carbon dioxide (CO2);Greenhouse gases;136000000;Air
2443;06-08-1479296;Papierfabrik Palm GmbH & Co.KG;Neukochen;10;73432;Aalen;Germany;48.82387228;10.1175831;Umweltbundesamt;6.(b);Paper and wood production processing;Industrial plants for the production of paper and board and other primary wood products;;WAHR;2017;Carbon dioxide (CO2);Greenhouse gases;135000000;Air
74340;06-11-01-1105502;Vattenfall  Wärme Berlin AG  HKW Marzahn;Rhinstr.;70;12681;Berlin;Germany;52.52339816;13.52210357;Umweltbundesamt;1.(c);Energy sector;Thermal power stations and other combustion installations;;WAHR;2017;Carbon dioxide (CO2);Greenhouse gases;135000000;Air
45168;07-05-8153238;Südzucker AG Werk Offstein;Wormser Str.;11;67283;Obrigheim (Pfalz);Germany;49.60196893;8.219310705;Umweltbundesamt;8.(b);Animal and vegetable products from the food and beverage sector;Treatment and processing intended for the production of food and beverage products from:;#NAME?;WAHR;2017;Carbon dioxide (CO2);Greenhouse gases;134000000;Air
45878;06-09-374-0001-0001;Erdgasverdichterstation MEGAL Waidhaus;Frankenreuth;76;92726;Waidhaus;Germany;49.65519271;12.51367124;Umweltbundesamt;1.(c);Energy sector;Thermal power stations and other combustion installations;;WAHR;2017;Carbon dioxide (CO2);Greenhouse gases;133000000;Air
46063;06-09-679-0057-0002;Südzucker Werk Ochsenfurt;Marktbreiter Straße;74;97199;Ochsenfurt;Germany;49.66663651;10.08015833;Umweltbundesamt;8.(b);Animal and vegetable products from the food and beverage sector;Treatment and processing intended for the production of food and beverage products from:;#NAME?;WAHR;2017;Carbon dioxide (CO2);Greenhouse gases;133000000;Air
45158;07-05-8030815;SWK Stadtwerke Kaiserslautern Versorgungs-AG;Karcherstr.;28;67655;Kaiserslautern;Germany;49.43496805;7.760872394;Umweltbundesamt;1.(c);Energy sector;Thermal power stations and other combustion installations;;WAHR;2017;Carbon dioxide (CO2);Greenhouse gases;133000000;Air
45063;07-01-599149;Solvay & CPC Barium Strontium             GmbH & Co KG;Am Güterbahnhof;-;53557;Bad Hönningen;Germany;50.51121022;7.316148477;Umweltbundesamt;4.(b);Chemical industry;Chemical installations for the production on an industrial scale of basic inorganic chemicals, such as:;#NAME?;WAHR;2017;Carbon dioxide (CO2);Greenhouse gases;131000000;Air
44791;06-05-900-9103527;Remondis Production GmbH;BRUNNENSTRASSE;138;44536;LÜNEN;Germany;51.62193392;7.469104053;Umweltbundesamt;1.(c);Energy sector;Thermal power stations and other combustion installations;;WAHR;2017;Carbon dioxide (CO2);Greenhouse gases;130000000;Air
297370;16-71-31400103005;Heizkraftwerk Gera-Nord;De Smit-Strasse;18;7545;Gera;Germany;50.90448347;12.06317728;Umweltbundesamt;1.(c);Energy sector;Thermal power stations and other combustion installations;;WAHR;2017;Carbon dioxide (CO2);Greenhouse gases;128000000;Air
104958;01-50-02000282800;Müllverbrennung Kiel GmbH & Co. KG - Müllheizkraftwerk Kiel;Theodor-Heuss-Ring;30;24114;Kiel;Germany;54.30732536;10.11106695;Umweltbundesamt;5.(b);Waste and waste water management;Installations for the incineration of non-hazardous waste in the scope of Directive 2000/76/EC of the European Parliament and of the Council of 4 December 2000 on the incineration of waste;;WAHR;2017;Carbon dioxide (CO2);Greenhouse gases;128000000;Air
44798;06-05-900-9139027;Biomasseheizkraftwerk Bergkamen;Ernst-Schering-strasse;10;59192;Bergkamen;Germany;51.62108651;7.629757042;Umweltbundesamt;5.(a);Waste and waste water management;Installations for the recovery or disposal of hazardous waste;;WAHR;2017;Carbon dioxide (CO2);Greenhouse gases;126000000;Air
46849;12438;EUROGLAS GmbH;Dammühlenweg;60;39340;Haldensleben;Germany;52.27442466;11.44018309;Umweltbundesamt;3.(e);Mineral industry;Installations for the manufacture of glass, including glass fibre;;WAHR;2017;Carbon dioxide (CO2);Greenhouse gases;122000000;Air
74670;14-70-52316700250;EVC 2 EnergyCenter Wilschdorf;Ringstr.;3;1468;Moritzburg;Germany;51.12636389;13.71277349;Umweltbundesamt;1.(c);Energy sector;Thermal power stations and other combustion installations;;WAHR;2017;Carbon dioxide (CO2);Greenhouse gases;122000000;Air
43484;03-07-07244473830;Nordzucker AG Werk Nordstemmen;Calenberger Str.;36;31171;Nordstemmen;Germany;52.17090492;9.795063322;Umweltbundesamt;8.(b);Animal and vegetable products from the food and beverage sector;Treatment and processing intended for the production of food and beverage products from:;#NAME?;WAHR;2017;Carbon dioxide (CO2);Greenhouse gases;122000000;Air
44034;06-05-300-0072412;Pfeifer & Langen GmbH & Co. KG Werk Euskirchen;Bonner Straße;2;53879;Euskirchen;Germany;50.65877185;6.81023299;Umweltbundesamt;8.(b);Animal and vegetable products from the food and beverage sector;Treatment and processing intended for the production of food and beverage products from:;#NAME?;WAHR;2017;Carbon dioxide (CO2);Greenhouse gases;122000000;Air
293125;06-59941210414;Biomasseheizkraftwerk;Deponiestr.;14;65207;Wiesbaden, Stadt;Germany;50.04530344;8.262898477;Umweltbundesamt;5.(a);Waste and waste water management;Installations for the recovery or disposal of hazardous waste;;WAHR;2017;Carbon dioxide (CO2);Greenhouse gases;121000000;Air
174751;06-05-100-0042820;FS Karton GmbH;Düsseldorfer Str.;182 - 184;41460;Neuss;Germany;51.21865857;6.692124378;Umweltbundesamt;6.(b);Paper and wood production processing;Industrial plants for the production of paper and board and other primary wood products;;WAHR;2017;Carbon dioxide (CO2);Greenhouse gases;121000000;Air
45137;07-04-6048443;Grace GmbH;In der Hollerhecke;1;67547;Worms;Germany;49.66461149;8.35900313;Umweltbundesamt;4.(b);Chemical industry;Chemical installations for the production on an industrial scale of basic inorganic chemicals, such as:;- Non-metals, metal oxides or other inorganic compounds;WAHR;2017;Carbon dioxide (CO2);Greenhouse gases;121000000;Air
45002;06-50940010414;InfraServ (Kalle-Albert);Rheingaustraße;190-196;65203;Wiesbaden, Stadt;Germany;50.03542969;8.247759201;Umweltbundesamt;1.(c);Energy sector;Thermal power stations and other combustion installations;;WAHR;2017;Carbon dioxide (CO2);Greenhouse gases;121000000;Air
46830;11975;Pfeifer & Langen GmbH & Co. KG, Werk Könnern;An den Sieben Stücken;-;6420;Könnern;Germany;51.69595739;11.75695476;Umweltbundesamt;8.(b);Animal and vegetable products from the food and beverage sector;Treatment and processing intended for the production of food and beverage products from:;;WAHR;2017;Carbon dioxide (CO2);Greenhouse gases;120000000;Air
45913;06-09-400-1434-0001;MHKW Coburg;Glender Str.;30;96450;Coburg;Germany;50.28528837;10.95486873;Umweltbundesamt;5.(b);Waste and waste water management;Installations for the incineration of non-hazardous waste in the scope of Directive 2000/76/EC of the European Parliament and of the Council of 4 December 2000 on the incineration of waste;;WAHR;2017;Carbon dioxide (CO2);Greenhouse gases;118000000;Air
45699;06-09-161-0102-0001;AUDI AG;Ettinger Straße;-;85045;Ingolstadt;Germany;48.79023374;11.41780619;Umweltbundesamt;9.(c);Other activities;Installations for the surface treatment of substances, objects or products using organic solvents, in particular for dressing, printing, coating, degreasing, waterproofing, sizing, painting, cleaning or impregnating;;WAHR;2017;Carbon dioxide (CO2);Greenhouse gases;115000000;Air
74651;14-70-00040252025;EVC Dresden-Wilschdorf /Reichenberg;Ringstr.;3;1468;Moritzburg;Germany;51.12740768;13.71283022;Umweltbundesamt;1.(c);Energy sector;Thermal power stations and other combustion installations;;WAHR;2017;Carbon dioxide (CO2);Greenhouse gases;114000000;Air
74336;06-10-00105354;Gas- und Dampfturbinenanlage;Untertürkheimer Str.;5;66117;Saarbrücken;Germany;49.21366734;6.978179572;Umweltbundesamt;1.(c);Energy sector;Thermal power stations and other combustion installations;;WAHR;2017;Carbon dioxide (CO2);Greenhouse gases;114000000;Air
44659;06-05-900-0163177;INEOS Solvents Germany GmbH - Werk Herne -;Shamrockstraße;88;44623;Herne;Germany;51.53418171;7.214315428;Umweltbundesamt;4.(a);Chemical industry;Chemical installations for the production on an industrial scale of basic organic chemicals, such as:;#NAME?;WAHR;2017;Carbon dioxide (CO2);Greenhouse gases;112000000;Air
45848;06-09-279-0013-0001;BMW Werk Dingolfing 02.40;Karl-Dompert-Straße;7;84130;Dingolfing;Germany;48.64747758;12.46593184;Umweltbundesamt;9.(c);Other activities;Installations for the surface treatment of substances, objects or products using organic solvents, in particular for dressing, printing, coating, degreasing, waterproofing, sizing, painting, cleaning or impregnating;;WAHR;2017;Carbon dioxide (CO2);Greenhouse gases;111000000;Air
45793;06-09-187-4048-0001;HBB Heizkraftwerk Bauernfeind Betreibergesellschaft mbH;Rosenheimer Straße;37;83064;Raubling;Germany;47.79597862;12.11833025;Umweltbundesamt;1.(c);Energy sector;Thermal power stations and other combustion installations;;WAHR;2017;Carbon dioxide (CO2);Greenhouse gases;111000000;Air
174904;06-09-100-2077-0001;Heizkraftwerk Altenstadt GmbH & Co. KG;Triebstr.;90;86972;Altenstadt;Germany;47.79751704;10.85914082;Umweltbundesamt;5.(b);Waste and waste water management;Installations for the incineration of non-hazardous waste in the scope of Directive 2000/76/EC of the European Parliament and of the Council of 4 December 2000 on the incineration of waste;;WAHR;2017;Carbon dioxide (CO2);Greenhouse gases;110000000;Air
43916;06-05-100-0866675;Verallia Deutschland AG;Ruhrglasstraße;50;45329;Essen;Germany;51.5300371;6.995643748;Umweltbundesamt;3.(e);Mineral industry;Installations for the manufacture of glass, including glass fibre;;WAHR;2017;Carbon dioxide (CO2);Greenhouse gases;110000000;Air
74198;06-08-34064722;Kraftwerk Grenzach-Wyhlen  KGW GmbH;Rheinallee;37;79639;Grenzach-Wyhlen;Germany;47.5475068;7.662699478;Umweltbundesamt;1.(c);Energy sector;Thermal power stations and other combustion installations;;WAHR;2017;Carbon dioxide (CO2);Greenhouse gases;109000000;Air
46446;13-40-1300408;Heizkraftwerk Energieversorgung Schwerin;Pampower Straße;50;19061;Schwerin;Germany;53.57777706;11.39653263;Umweltbundesamt;1.(c);Energy sector;Thermal power stations and other combustion installations;;WAHR;2017;Carbon dioxide (CO2);Greenhouse gases;108000000;Air
45172;07-05-8173869;Ardagh Group Werk Germersheim;Schauensteiner Str.;1;76726;Germersheim;Germany;49.23310953;8.374906979;Umweltbundesamt;3.(e);Mineral industry;Installations for the manufacture of glass, including glass fibre;;WAHR;2017;Carbon dioxide (CO2);Greenhouse gases;107000000;Air
44199;06-05-300-9046923;Currenta GmbH & Co. OHG;CHEMPARK;Dormagen;41538;Dormagen;Germany;51.07523002;6.837667031;Umweltbundesamt;5.(a);Waste and waste water management;Installations for the recovery or disposal of hazardous waste;;WAHR;2017;Carbon dioxide (CO2);Greenhouse gases;106000000;Air
44607;06-05-900-0071172;thyssenkrupp Hohenlimburg GmbH Warmwalzwerk;Oeger Str.;120;58119;Hagen;Germany;51.34569858;7.592023683;Umweltbundesamt;2.(c);Productiona and processing of metals;Installations for the processing of ferrous metals;#NAME?;WAHR;2017;Carbon dioxide (CO2);Greenhouse gases;106000000;Air
44684;06-05-900-0235202;AMK Abfallentsorgungsgesellschaft des Märkischen Kreises mbH;GIESESTR.;10;58636;ISERLOHN;Germany;51.39629471;7.694113505;Umweltbundesamt;5.(b);Waste and waste water management;Installations for the incineration of non-hazardous waste in the scope of Directive 2000/76/EC of the European Parliament and of the Council of 4 December 2000 on the incineration of waste;;WAHR;2017;Carbon dioxide (CO2);Greenhouse gases;104000000;Air
74097;06-05-900-0888950;RWE Generation SE, Region Kundenkraftwerke HKW Dortmund;Weißenburger Str.;70;44143;Dortmund;Germany;51.52014577;7.478487422;Umweltbundesamt;1.(c);Energy sector;Thermal power stations and other combustion installations;;WAHR;2017;Carbon dioxide (CO2);Greenhouse gases;104000000;Air
46247;06-11-01-1105603;Vattenfall Wärme Berlin AG  HKW Charlottenburg;Am Spreebord;5;10589;Berlin;Germany;52.5220612;13.30878617;Umweltbundesamt;1.(c);Energy sector;Thermal power stations and other combustion installations;;WAHR;2017;Carbon dioxide (CO2);Greenhouse gases;104000000;Air
43240;06-02-B71815A005;AVG Abfall-Verwertungs-Gesellschaft mbH SAV und CPA;Borsigstrasse;2;22113;Hamburg;Germany;53.53156778;10.0717072;Umweltbundesamt;5.(a);Waste and waste water management;Installations for the recovery or disposal of hazardous waste;;WAHR;2017;Carbon dioxide (CO2);Greenhouse gases;103000000;Air
3142;06-10-0079761;NEUE HALBERG-GUSS GmbH;Kirchstraße;16;66130;Saarbrücken;Germany;49.21041703;7.035872844;Umweltbundesamt;2.(d);Productiona and processing of metals;Ferrous metal foundries;;WAHR;2017;Carbon dioxide (CO2);Greenhouse gases;103000000;Air
46287;12-10651670000;H.E.S. Hennigsdorfer Elektrostahlwerke GmbH;Wolfgang-Küntscher-Straße;18;16761;Hennigsdorf;Germany;52.65326784;13.211427;Umweltbundesamt;2.(b);Productiona and processing of metals;Installations for the production of pig iron or steel (primary or secondary melting) including continuous casting;;WAHR;2017;Carbon dioxide (CO2);Greenhouse gases;102000000;Air
44670;06-05-900-0189517;Hagener Entsorgungsbetrieb HEB GmbH;Am Pfannenofen;39;58097;Hagen;Germany;51.37760265;7.470674478;Umweltbundesamt;5.(b);Waste and waste water management;Installations for the incineration of non-hazardous waste in the scope of Directive 2000/76/EC of the European Parliament and of the Council of 4 December 2000 on the incineration of waste;;WAHR;2017;Carbon dioxide (CO2);Greenhouse gases;102000000;Air
45143;07-04-6100969;Boehringer Ingelheim Pharma GmbH & Co.KG;Binger Str.;173;55218;Ingelheim am Rhein;Germany;49.97560341;8.044137268;Umweltbundesamt;4.(e);Chemical industry;Installations using a chemical or biological process for the production on an industrial scale of basic pharmaceutical products;;WAHR;2017;Carbon dioxide (CO2);Greenhouse gases;101000000;Air
300786;12-50720000935;GASCADE Gastransport GmbH;An der Birkenpfuhlheide;12;15837;Baruth/Mark;Germany;52.07794074;13.53909515;Umweltbundesamt;1.(c);Energy sector;Thermal power stations and other combustion installations;;WAHR;2017;Carbon dioxide (CO2);Greenhouse gases;100000000;Air
202142;vl01853961047789;Electrabel  Centrale Knippegroen;Knippegroen;3;9042;Gent;Belgium;51.156857;3.8119082;Vlaamse Milieumaatschappij (VMM);1.(c);Energy sector;Thermal power stations and other combustion installations;;WAHR;2017;Carbon dioxide (CO2);Greenhouse gases;5210000000;Air
14567;vl00069475000114;ARCELORMITTAL BELGIUM - GENT;John Kennedylaan;51;9042;Gent;Belgium;51.176716;3.8143601;Vlaamse Milieumaatschappij (VMM);2.(b);Productiona and processing of metals;Installations for the production of pig iron or steel (primary or secondary melting) including continuous casting;;WAHR;2017;Carbon dioxide (CO2);Greenhouse gases;4110000000;Air
14847;vl01855069000179;TOTAL RAFFINADERIJ ANTWERPEN;Scheldelaan;16;2030;Antwerpen;Belgium;51.26745;4.3216605;Vlaamse Milieumaatschappij (VMM);1.(a);Energy sector;Mineral oil and gas refineries;;WAHR;2017;Carbon dioxide (CO2);Greenhouse gases;3680000000;Air
14602;vl00112120000187;BASF ANTWERPEN;Scheldelaan,Haven 725;600;2040;Antwerpen;Belgium;51.355602;4.267469;Vlaamse Milieumaatschappij (VMM);4.(a);Chemical industry;Chemical installations for the production on an industrial scale of basic organic chemicals, such as:;;WAHR;2017;Carbon dioxide (CO2);Greenhouse gases;3330000000;Air
14731;vl01749024006827;ESSO RAFFINADERIJ;Polderdijkweg,Haven 447;3;2030;Antwerpen;Belgium;51.25771;4.338689;Vlaamse Milieumaatschappij (VMM);1.(a);Energy sector;Mineral oil and gas refineries;;WAHR;2017;Carbon dioxide (CO2);Greenhouse gases;1880000000;Air
14833;vl01853961001919;ELECTRABEL CENTRALE RODENHUIZE;Rodenhuizekaai;3;9042;Gent;Belgium;51.13446;3.7736719;Vlaamse Milieumaatschappij (VMM);1.(c);Energy sector;Thermal power stations and other combustion installations;;WAHR;2017;Carbon dioxide (CO2);Greenhouse gases;1720000000;Air
15035;W019;CBR sa - Site de Lixhe;RUE DES TROIS FERMES;;4600;LIXHE;Belgium;50.7602;5.6725;Service Public de Wallonie;3.(c);Mineral industry;Installations for the production of:;#NAME?;WAHR;2017;Carbon dioxide (CO2);Greenhouse gases;1140000000;Air
15088;W075;BURGO ARDENNES sa;RUE DE LA PAPETERIE;1;6760;VIRTON;Belgium;49.5499;5.5042;Service Public de Wallonie;6.(a);Paper and wood production processing;Industrial plants for the production of pulp from timber or similar fibrous materials;;WAHR;2017;Carbon dioxide (CO2);Greenhouse gases;1090000000;Air
15042;W026;CARRIERES ET FOURS A CHAUX DUMONT WAUTIER SA;RUE MALLIEUE;95;4470;SAINT-GEORGES-SUR-MEUSE;Belgium;50.5705;5.3703;Service Public de Wallonie;3.(c);Mineral industry;Installations for the production of:;#NAME?;WAHR;2017;Carbon dioxide (CO2);Greenhouse gases;1010000000;Air
182171;vl01863518000374;T POWER;Fabrieksstraat,Industriezone Schoonhees 2;12;3980;Tessenderlo;Belgium;51.058117;5.1050854;Vlaamse Milieumaatschappij (VMM);1.(c);Energy sector;Thermal power stations and other combustion installations;;WAHR;2017;Carbon dioxide (CO2);Greenhouse gases;910000000;Air
15092;W080;ELECTRABEL SA - CENTRALE DAMERCOEUR;RUE CHAUW A ROC;6;6044;ROUX;Belgium;50.431;4.3955;Service Public de Wallonie;1.(c);Energy sector;Thermal power stations and other combustion installations;;WAHR;2017;Carbon dioxide (CO2);Greenhouse gases;837000000;Air
14740;vl01753206000159;FINA ANTWERP OLEFINS;Scheldelaan;10;2030;Antwerpen;Belgium;51.25782;4.3309717;Vlaamse Milieumaatschappij (VMM);4.(a);Chemical industry;Chemical installations for the production on an industrial scale of basic organic chemicals, such as:;;WAHR;2017;Carbon dioxide (CO2);Greenhouse gases;824000000;Air
14750;vl01764822000238;EDF LUMINUS;Buitenring-Wondelgem;10;9000;Gent;Belgium;51.10363;3.7243412;Vlaamse Milieumaatschappij (VMM);1.(c);Energy sector;Thermal power stations and other combustion installations;;WAHR;2017;Carbon dioxide (CO2);Greenhouse gases;774000000;Air
15058;W042;YARA TERTRE sa-nv - CETPROBEL sa;RUE DE LA CARBO;10;7333;TERTRE;Belgium;50.48;3.7986;Service Public de Wallonie;4.(c);Chemical industry;Chemical installations for the production on an industrial scale of phosphorous-, nitrogen- or potassium-based fertilisers (simple or compound fertilisers);;WAHR;2017;Carbon dioxide (CO2);Greenhouse gases;762000000;Air
15093;W081;ELECTRABEL SA - CENTRALE DES AWIRS;QUAI DU HALAGE;49;4400;FLEMALLE-HAUTE;Belgium;50.5864;5.4226;Service Public de Wallonie;1.(c);Energy sector;Thermal power stations and other combustion installations;;WAHR;2017;Carbon dioxide (CO2);Greenhouse gases;730000000;Air
15038;W022;CBR sa - Site dAntoing;Rue du Coucou;8;7640;Antoing;Belgium;50.576;3.4426;Service Public de Wallonie;3.(c);Mineral industry;Installations for the production of:;#NAME?;WAHR;2017;Carbon dioxide (CO2);Greenhouse gases;714000000;Air
15502;vl00686088000164;ZANDVLIET POWER - TERREIN BASF;Scheldelaan;600;2040;Antwerpen;Belgium;51.355602;4.267469;Vlaamse Milieumaatschappij (VMM);1.(c);Energy sector;Thermal power stations and other combustion installations;;WAHR;2017;Carbon dioxide (CO2);Greenhouse gases;696000000;Air
15543;vl01764605000124;AIR LIQUIDE LARGE INDUSTRY;Scheldelaan,Blokvelden G600 en E650;600;2040;Antwerpen;Belgium;51.355602;4.267469;Vlaamse Milieumaatschappij (VMM);4.(b);Chemical industry;Chemical installations for the production on an industrial scale of basic inorganic chemicals, such as:;#NAME?;WAHR;2017;Carbon dioxide (CO2);Greenhouse gases;689000000;Air
15037;W021;HOLCIM Belgique sa - Usine dOBOURG;Rue des Fabriques;2;7034;Obourg;Belgium;50.4723;3.9939;Service Public de Wallonie;3.(c);Mineral industry;Installations for the production of:;#NAME?;WAHR;2017;Carbon dioxide (CO2);Greenhouse gases;678000000;Air
14634;vl00220175000160;STORA ENSO LANGERBRUGGE;Wondelgemkaai;200;9000;Gent;Belgium;51.107063;3.7326386;Vlaamse Milieumaatschappij (VMM);6.(b);Paper and wood production processing;Industrial plants for the production of paper and board and other primary wood products;;WAHR;2017;Carbon dioxide (CO2);Greenhouse gases;662000000;Air
182341;W350;MARCINELLE ENERGIE S.A.;Rue de la Providence;150;6030;Charleroi (Marchienne au Pont);Belgium;50.4098;4.4332;Service Public de Wallonie;1.(c);Energy sector;Thermal power stations and other combustion installations;;WAHR;2017;Carbon dioxide (CO2);Greenhouse gases;577000000;Air
14620;vl00125118000187;EVONIK DEGUSSA ANTWERPEN;Tijsmanstunnel-West;Z/N;2040;Antwerpen;Belgium;51.30386;4.306186;Vlaamse Milieumaatschappij (VMM);4.(a);Chemical industry;Chemical installations for the production on an industrial scale of basic organic chemicals, such as:;;WAHR;2017;Carbon dioxide (CO2);Greenhouse gases;517000000;Air
98623;W226;BIOWANZE;Léon Charlier;11;4520;Wanze;Belgium;50.5308;5.2071;Service Public de Wallonie;4.(a);Chemical industry;Chemical installations for the production on an industrial scale of basic organic chemicals, such as:;#NAME?;WAHR;2017;Carbon dioxide (CO2);Greenhouse gases;500000000;Air
15041;W025;CARMEUSE sa - Site dAisemont;RUE DE BOUDJESSE;1;5070;AISEMONT;Belgium;50.4096;4.6417;Service Public de Wallonie;3.(c);Mineral industry;Installations for the production of:;#NAME?;WAHR;2017;Carbon dioxide (CO2);Greenhouse gases;486000000;Air
14834;vl01853961002222;ELECTRABEL CENTRALE HERDERSBRUG;Pathoekeweg;300;8000;Brugge;Belgium;51.2627;3.2103052;Vlaamse Milieumaatschappij (VMM);1.(c);Energy sector;Thermal power stations and other combustion installations;;WAHR;2017;Carbon dioxide (CO2);Greenhouse gases;467000000;Air
15043;W027;LHOIST INDUSTRIE sa - Site de On;USINE DE ON;;6900;MARCHE-EN-FAMENNE;Belgium;50.1649;5.268;Service Public de Wallonie;3.(c);Mineral industry;Installations for the production of:;#NAME?;WAHR;2017;Carbon dioxide (CO2);Greenhouse gases;461000000;Air
65625;W262;INDUSTRIE DU BOIS VIELSALM & CIE - IBV;Rue de la Forêt;1;6690;Vielsalm;Belgium;50.2931;5.9549;Service Public de Wallonie;1.(c);Energy sector;Thermal power stations and other combustion installations;;WAHR;2017;Carbon dioxide (CO2);Greenhouse gases;458000000;Air
15114;W104;IPALLE - Usine dincinération;HAMEAU DE RIBONFOSSE;9;7971;THUMAIDE;Belgium;50.549;3.6266;Service Public de Wallonie;5.(b);Waste and waste water management;Installations for the incineration of non-hazardous waste in the scope of Directive 2000/76/EC of the European Parliament and of the Council of 4 December 2000 on the incineration of waste;;WAHR;2017;Carbon dioxide (CO2);Greenhouse gases;440000000;Air
15285;Bxl06;Bruxelles-Energie;Quai Léon Monnoyer;8;1000;Bruxelles;Belgium;50.8831;4.38037;Brussels Environment;5.(b);Waste and waste water management;Installations for the incineration of non-hazardous waste in the scope of Directive 2000/76/EC of the European Parliament and of the Council of 4 December 2000 on the incineration of waste;;WAHR;2017;Carbon dioxide (CO2);Greenhouse gases;427000000;Air
65737;vl00706142000133;ESSENT ENERGIE BELGIE;Nieuwe Weg;01. Mrz;2070;Zwijndrecht;Belgium;51.23303;4.3175244;Vlaamse Milieumaatschappij (VMM);1.(c);Energy sector;Thermal power stations and other combustion installations;;WAHR;2017;Carbon dioxide (CO2);Greenhouse gases;426000000;Air
14758;vl01866366000196;INDEPENDENT BELGIAN REFINERY;Scheldelaan;490;2040;Antwerpen;Belgium;51.340908;4.2781467;Vlaamse Milieumaatschappij (VMM);1.(a);Energy sector;Mineral oil and gas refineries;;WAHR;2017;Carbon dioxide (CO2);Greenhouse gases;423000000;Air
15094;W082;ELECTRABEL - CENTRALE BAUDOUR-St GHISLAIN;RUE DE HAUTRAGE;87;7331;BAUDOUR;Belgium;50.4712;3.8257;Service Public de Wallonie;1.(c);Energy sector;Thermal power stations and other combustion installations;;WAHR;2017;Carbon dioxide (CO2);Greenhouse gases;417000000;Air
15019;W002;INTRADEL - UVELIA - Usine dincinération;PORT DE HERSTAL - PRE WIGI;20;4040;HERSTAL;Belgium;50.6797;5.6436;Service Public de Wallonie;5.(b);Waste and waste water management;Installations for the incineration of non-hazardous waste in the scope of Directive 2000/76/EC of the European Parliament and of the Council of 4 December 2000 on the incineration of waste;;WAHR;2017;Carbon dioxide (CO2);Greenhouse gases;403000000;Air
15112;W101;INOVYN - COGENERATION INOVYN;RUE ERNEST SOLVAY;39;5190;JEMEPPE-SUR-SAMBRE;Belgium;50.4492;4.6654;Service Public de Wallonie;1.(c);Energy sector;Thermal power stations and other combustion installations;;WAHR;2017;Carbon dioxide (CO2);Greenhouse gases;396000000;Air
15047;W031;AGC GLASS EUROPE - Site de Moustier (ex-GLAVERBEL sa);RUE DE LA GLACERIE;167;5190;MOUSTIER-SUR-SAMBRE;Belgium;50.4475;4.6926;Service Public de Wallonie;3.(e);Mineral industry;Installations for the manufacture of glass, including glass fibre;;WAHR;2017;Carbon dioxide (CO2);Greenhouse gases;391000000;Air
14597;vl00106451000188;BP CHEMBEL;Amocolaan;2;2440;Geel;Belgium;51.114872;5.001269;Vlaamse Milieumaatschappij (VMM);4.(a);Chemical industry;Chemical installations for the production on an industrial scale of basic organic chemicals, such as:;;WAHR;2017;Carbon dioxide (CO2);Greenhouse gases;382000000;Air
202102;vl01857153000218;A & S ENERGIE;Nieuwenhovestraat;5;8780;Oostrozebeke;Belgium;50.910717;3.3052666;Vlaamse Milieumaatschappij (VMM);1.(c);Energy sector;Thermal power stations and other combustion installations;;WAHR;2017;Carbon dioxide (CO2);Greenhouse gases;275000000;Air
177670;vl01861595000131;ALCO BIO FUEL;Pleitstraat;1;9042;Gent;Belgium;51.14138;3.7932115;Vlaamse Milieumaatschappij (VMM);4.(a);Chemical industry;Chemical installations for the production on an industrial scale of basic organic chemicals, such as:;;WAHR;2017;Carbon dioxide (CO2);Greenhouse gases;249000000;Air
202100;vl01856771000272;ELECTRAWINDS BIOSTOOM;Solvaylaan,INDUSTRIETERREIN PLASSENDALE II;7;8400;Oostende;Belgium;51.209675;2.9940522;Vlaamse Milieumaatschappij (VMM);1.(c);Energy sector;Thermal power stations and other combustion installations;;WAHR;2017;Carbon dioxide (CO2);Greenhouse gases;231000000;Air
15039;W023;CARMEUSE sa - Site de Moha;RUE DU VAL NOTRE DAME;300;4520;MOHA;Belgium;50.5571;5.1791;Service Public de Wallonie;3.(c);Mineral industry;Installations for the production of:;#NAME?;WAHR;2017;Carbon dioxide (CO2);Greenhouse gases;230000000;Air
15044;W028;DOLOMIES DE MARCHE-LES-DAMES sa;RUE HAIGNEAUX;1;5300;NAMECHE;Belgium;50.4786;4.979;Service Public de Wallonie;3.(c);Mineral industry;Installations for the production of:;#NAME?;WAHR;2017;Carbon dioxide (CO2);Greenhouse gases;230000000;Air
14848;vl01856931000156;INEOS PHENOL BELGIUM;Geslecht;1;9130;Beveren;Belgium;51.290928;4.2726126;Vlaamse Milieumaatschappij (VMM);4.(a);Chemical industry;Chemical installations for the production on an industrial scale of basic organic chemicals, such as:;;WAHR;2017;Carbon dioxide (CO2);Greenhouse gases;228000000;Air
14746;vl01759496000121;INEOS;Nieuwe Weg;01. Mrz;2070;Zwijndrecht;Belgium;51.23303;4.3175244;Vlaamse Milieumaatschappij (VMM);4.(a);Chemical industry;Chemical installations for the production on an industrial scale of basic organic chemicals, such as:;;WAHR;2017;Carbon dioxide (CO2);Greenhouse gases;227000000;Air
14815;vl01852224000788;UMICORE - HOBOKEN;Adolf Greinerstraat;14;2660;Antwerpen;Belgium;51.167282;4.3347054;Vlaamse Milieumaatschappij (VMM);2.(e);Productiona and processing of metals;Installations:;;WAHR;2017;Carbon dioxide (CO2);Greenhouse gases;222000000;Air
14692;vl00580748000182;MONSANTO EUROPE;Scheldelaan;460;2040;Antwerpen;Belgium;51.316147;4.2946625;Vlaamse Milieumaatschappij (VMM);4.(d);Chemical industry;Chemical installations for the production on an industrial scale of basic plant health products and of biocides;;WAHR;2017;Carbon dioxide (CO2);Greenhouse gases;218000000;Air
14689;vl00532700000176;OUDEGEM PAPIER;Oude baan;120;9200;Dendermonde;Belgium;51.012486;4.064485;Vlaamse Milieumaatschappij (VMM);6.(b);Paper and wood production processing;Industrial plants for the production of paper and board and other primary wood products;;WAHR;2017;Carbon dioxide (CO2);Greenhouse gases;210000000;Air
14829;vl01853961001111;ELECTRABEL - CENTRALE DROGENBOS;De Bruyckerweg;1;1620;Drogenbos;Belgium;50.8038;4.2999973;Vlaamse Milieumaatschappij (VMM);1.(c);Energy sector;Thermal power stations and other combustion installations;;WAHR;2017;Carbon dioxide (CO2);Greenhouse gases;197000000;Air
98856;vl01853961043951;ELECTRABEL SITE LANXESS RUBBER;Canadastraat;21;2070;Zwijndrecht;Belgium;51.23942;4.335364;Vlaamse Milieumaatschappij (VMM);1.(c);Energy sector;Thermal power stations and other combustion installations;;WAHR;2017;Carbon dioxide (CO2);Greenhouse gases;195000000;Air
14850;vl01855217000153;BOREALIS KALLO;Sint-Jansweg;2;9130;Beveren;Belgium;51.26833;4.2699494;Vlaamse Milieumaatschappij (VMM);4.(a);Chemical industry;Chemical installations for the production on an industrial scale of basic organic chemicals, such as:;- Basic plastic materials (polymers, synthetic fibres and cellulose-based fibres);WAHR;2017;Carbon dioxide (CO2);Greenhouse gases;192000000;Air
14831;vl01853961001616;ELECTRABEL WKK LANXESS (BAYER);Scheldelaan;420;2030;Antwerpen;Belgium;51.34265;4.2788363;Vlaamse Milieumaatschappij (VMM);1.(c);Energy sector;Thermal power stations and other combustion installations;;WAHR;2017;Carbon dioxide (CO2);Greenhouse gases;186000000;Air
15647;W197;APERAM STAINLESS BELGIUM SA;RUE DES ATELIERS;14;6200;CHATELET;Belgium;50.416;4.5355;Service Public de Wallonie;2.(b);Productiona and processing of metals;Installations for the production of pig iron or steel (primary or secondary melting) including continuous casting;;WAHR;2017;Carbon dioxide (CO2);Greenhouse gases;183000000;Air
14573;vl00080209000108;APERAM STAINLESS BELGIUM;Swinnenwijerweg,INDUSTRIEZONE GENK-ZUID: ZONE 6A, 3600 GENK;5;3600;Genk;Belgium;50.938103;5.499037;Vlaamse Milieumaatschappij (VMM);2.(b);Productiona and processing of metals;Installations for the production of pig iron or steel (primary or secondary melting) including continuous casting;;WAHR;2017;Carbon dioxide (CO2);Greenhouse gases;172000000;Air
14641;vl00250382000132;SAPPI LANAKEN;Montaigneweg;2;3620;Lanaken;Belgium;50.88148;5.640663;Vlaamse Milieumaatschappij (VMM);6.(b);Paper and wood production processing;Industrial plants for the production of paper and board and other primary wood products;;WAHR;2017;Carbon dioxide (CO2);Greenhouse gases;171000000;Air
14710;vl01747084000157;ISVAG INTERCOMMUNALE;Boomsesteenweg;1000;2610;Antwerpen;Belgium;51.14669;4.375623;Vlaamse Milieumaatschappij (VMM);5.(b);Waste and waste water management;Installations for the incineration of non-hazardous waste in the scope of Directive 2000/76/EC of the European Parliament and of the Council of 4 December 2000 on the incineration of waste;;WAHR;2017;Carbon dioxide (CO2);Greenhouse gases;168000000;Air
15054;W038;TOTAL PETROCHEMICALS FELUY sa;PARC INDUSTRIEL DE FELUY-ZONE C;;7181;FELUY;Belgium;50.5428;4.2234;Service Public de Wallonie;4.(a);Chemical industry;Chemical installations for the production on an industrial scale of basic organic chemicals, such as:;- Basic plastic materials (polymers, synthetic fibres and cellulose-based fibres);WAHR;2017;Carbon dioxide (CO2);Greenhouse gases;164000000;Air
14631;vl00203969000194;INEOS CHLORVINYLS BELGIUM;H. Hartlaan;21;3980;Tessenderlo;Belgium;51.0586;5.0924473;Vlaamse Milieumaatschappij (VMM);4.(a);Chemical industry;Chemical installations for the production on an industrial scale of basic organic chemicals, such as:;- Basic plastic materials (polymers, synthetic fibres and cellulose-based fibres);WAHR;2017;Carbon dioxide (CO2);Greenhouse gases;158000000;Air
14685;vl00488458000284;KRONOS EUROPE;Langerbruggekaai;10;9000;Gent;Belgium;51.12084;3.7539606;Vlaamse Milieumaatschappij (VMM);4.(b);Chemical industry;Chemical installations for the production on an industrial scale of basic inorganic chemicals, such as:;- Non-metals, metal oxides or other inorganic compounds;WAHR;2017;Carbon dioxide (CO2);Greenhouse gases;147000000;Air
14793;vl01849633000143;SYRAL BELGIUM;Burchtstraat;10;9300;Aalst;Belgium;50.937325;4.0441093;Vlaamse Milieumaatschappij (VMM);8.(b);Animal and vegetable products from the food and beverage sector;Treatment and processing intended for the production of food and beverage products from:;#NAME?;WAHR;2017;Carbon dioxide (CO2);Greenhouse gases;142000000;Air
15018;W001;ICDI sc - Usine dincinération;PORT DE LA PRAYE;1;6250;AISEAU-PRESLES;Belgium;50.4202;4.5452;Service Public de Wallonie;5.(b);Waste and waste water management;Installations for the incineration of non-hazardous waste in the scope of Directive 2000/76/EC of the European Parliament and of the Council of 4 December 2000 on the incineration of waste;;WAHR;2017;Carbon dioxide (CO2);Greenhouse gases;141000000;Air
15027;W011;NLMK LA LOUVIERE sa;RUE DES RIVAUX;2;7100;LA LOUVIERE;Belgium;50.4829;4.1789;Service Public de Wallonie;2.(c);Productiona and processing of metals;Installations for the processing of ferrous metals;#NAME?;WAHR;2017;Carbon dioxide (CO2);Greenhouse gases;139000000;Air
15652;W209;SPANOLUX;de la Forêt;2;6690;VIELSALM;Belgium;50.291;5.956;Service Public de Wallonie;1.(c);Energy sector;Thermal power stations and other combustion installations;;WAHR;2017;Carbon dioxide (CO2);Greenhouse gases;119000000;Air
14794;vl01849731000253;INTERGEMEENTELIJKE OPDRACHTHOUDENDE VERENIGING VOOR HUISVUILVERWERKING MEETJESLAND;Sint-Laureinsesteenweg;29;9900;Eeklo;Belgium;51.21178;3.5160522;Vlaamse Milieumaatschappij (VMM);5.(b);Waste and waste water management;Installations for the incineration of non-hazardous waste in the scope of Directive 2000/76/EC of the European Parliament and of the Council of 4 December 2000 on the incineration of waste;;WAHR;2017;Carbon dioxide (CO2);Greenhouse gases;116000000;Air
14760;vl01879684000166;COVESTRO;Scheldelaan,Haven 550;420;2040;Antwerpen;Belgium;51.295746;4.3199267;Vlaamse Milieumaatschappij (VMM);4.(a);Chemical industry;Chemical installations for the production on an industrial scale of basic organic chemicals, such as:;;WAHR;2017;Carbon dioxide (CO2);Greenhouse gases;114000000;Air
14751;vl01764822000339;EDF LUMINUS;Ham;68;9000;Gent;Belgium;51.059574;3.7342072;Vlaamse Milieumaatschappij (VMM);1.(c);Energy sector;Thermal power stations and other combustion installations;;WAHR;2017;Carbon dioxide (CO2);Greenhouse gases;114000000;Air
14666;vl00383680000118;TIENSE SUIKERRAFFINADERIJ;Aandorenstraat;1;3300;Tienen;Belgium;50.80089;4.946923;Vlaamse Milieumaatschappij (VMM);8.(b);Animal and vegetable products from the food and beverage sector;Treatment and processing intended for the production of food and beverage products from:;#NAME?;WAHR;2017;Carbon dioxide (CO2);Greenhouse gases;113000000;Air
202070;vl01863967000139;STYROLUTION BELGIUM;Scheldelaan,Haven 725;600;2040;Antwerpen;Belgium;51.35627;4.2673345;Vlaamse Milieumaatschappij (VMM);4.(a);Chemical industry;Chemical installations for the production on an industrial scale of basic organic chemicals, such as:;- Basic plastic materials (polymers, synthetic fibres and cellulose-based fibres);WAHR;2017;Carbon dioxide (CO2);Greenhouse gases;112000000;Air
15024;W008;INDUSTEEL BELGIUM S.A.;RUE DE CHATELET;266;6030;MARCHIENNE-AU-PONT;Belgium;50.4099;4.4111;Service Public de Wallonie;2.(b);Productiona and processing of metals;Installations for the production of pig iron or steel (primary or secondary melting) including continuous casting;;WAHR;2017;Carbon dioxide (CO2);Greenhouse gases;107000000;Air
14712;vl01747097000480;IVAGO - SITE PROEFTUINSTRAAT;Proeftuinstraat;43;9000;Gent;Belgium;51.020607;3.739686;Vlaamse Milieumaatschappij (VMM);5.(c);Waste and waste water management;Installations for the disposal of non-hazardous waste;;WAHR;2017;Carbon dioxide (CO2);Greenhouse gases;105000000;Air
14726;vl01748409000252;TESSENDERLO CHEMIE HAM;Bergstraat;32;3945;Ham;Belgium;51.084957;5.1451745;Vlaamse Milieumaatschappij (VMM);4.(b);Chemical industry;Chemical installations for the production on an industrial scale of basic inorganic chemicals, such as:;;WAHR;2017;Carbon dioxide (CO2);Greenhouse gases;103000000;Air
14767;vl01787986000160;AGC GLASS EUROPE VESTIGING MOL;Voortstraat;27;2400;Mol;Belgium;51.19585;5.1634626;Vlaamse Milieumaatschappij (VMM);3.(e);Mineral industry;Installations for the manufacture of glass, including glass fibre;;WAHR;2017;Carbon dioxide (CO2);Greenhouse gases;100000000;Air
6306;12149;Uniper Benelux NV (Maasvlakte);Coloradoweg;10;3199LA;Maasvlakte Rotterdam;Netherlands;51.95906;4.02657;The National Institute for Public Health and the Environment (RIVM);1.(c);Energy sector;Thermal power stations and other combustion installations;;WAHR;2017;Carbon dioxide (CO2);Greenhouse gases;7560000000;Air
299065;203273;RWE Eemshaven Holding II B.V.;Synergieweg;1;9979XD;Eemshaven;Netherlands;53.44777;6.85915;The National Institute for Public Health and the Environment (RIVM);1.(c);Energy sector;Thermal power stations and other combustion installations;;WAHR;2017;Carbon dioxide (CO2);Greenhouse gases;7550000000;Air
7974;23301;Tata Steel IJmuiden BV;Wenckebachstraat;1;1951JZ;Velsen-Noord;Netherlands;52.47656;4.59217;The National Institute for Public Health and the Environment (RIVM);1.(c);Energy sector;Thermal power stations and other combustion installations;;WAHR;2017;Carbon dioxide (CO2);Greenhouse gases;6930000000;Air
10390;62;Chemelot Site Permit BV;Koestraat;1;6167RA;Geleen;Netherlands;50.98058;5.79633;The National Institute for Public Health and the Environment (RIVM);1.(c);Energy sector;Thermal power stations and other combustion installations;;WAHR;2017;Carbon dioxide (CO2);Greenhouse gases;4750000000;Air
8041;24003;Nuon Power Generation BV (Velsen);Hoflaan;1;1951HJ;Velsen-Noord;Netherlands;52.47275;4.63213;The National Institute for Public Health and the Environment (RIVM);1.(c);Energy sector;Thermal power stations and other combustion installations;;WAHR;2017;Carbon dioxide (CO2);Greenhouse gases;3970000000;Air
5728;10057;Shell Nederland Raffinaderij BV;Vondelingenweg;601;3196KK;Vondelingenplaat Rotterdam;Netherlands;51.88013;4.33533;The National Institute for Public Health and the Environment (RIVM);1.(a);Energy sector;Mineral oil and gas refineries;;WAHR;2017;Carbon dioxide (CO2);Greenhouse gases;3830000000;Air
9537;44004;Amer Centrale;Amerweg;1;4931NC;Geertruidenberg;Netherlands;51.70784;4.84388;The National Institute for Public Health and the Environment (RIVM);1.(c);Energy sector;Thermal power stations and other combustion installations;;WAHR;2017;Carbon dioxide (CO2);Greenhouse gases;3640000000;Air
9982;51105;YARA Sluiskil BV;Industrieweg;10;4541HJ;Sluiskil;Netherlands;51.27764;3.85006;The National Institute for Public Health and the Environment (RIVM);4.(c);Chemical industry;Chemical installations for the production on an industrial scale of phosphorous-, nitrogen- or potassium-based fertilisers (simple or compound fertilisers);;WAHR;2017;Carbon dioxide (CO2);Greenhouse gases;3580000000;Air
212846;204617;Centrale Rotterdam;Missouriweg;69;3199LB;Maasvlakte Rotterdam;Netherlands;51.94482;4.07205;The National Institute for Public Health and the Environment (RIVM);1.(c);Energy sector;Thermal power stations and other combustion installations;;WAHR;2017;Carbon dioxide (CO2);Greenhouse gases;3480000000;Air
8039;24000;Nuon Power Generation BV (Hemweg);Petroleumhavenweg;1;1041AB;Amsterdam;Netherlands;52.40531;4.8471;The National Institute for Public Health and the Environment (RIVM);1.(c);Energy sector;Thermal power stations and other combustion installations;;WAHR;2017;Carbon dioxide (CO2);Greenhouse gases;3360000000;Air
9340;41003;Shell Nederland Chemie BV (Moerdijk);Chemieweg;25;4782SJ;Moerdijk;Netherlands;51.68785;4.56211;The National Institute for Public Health and the Environment (RIVM);4.(a);Chemical industry;Chemical installations for the production on an industrial scale of basic organic chemicals, such as:;;WAHR;2017;Carbon dioxide (CO2);Greenhouse gases;2680000000;Air
9981;51104;Dow Benelux BV (Hoek);Herbert H. Dowweg;5;4542NM;Hoek;Netherlands;51.34225;3.78247;The National Institute for Public Health and the Environment (RIVM);4.(a);Chemical industry;Chemical installations for the production on an industrial scale of basic organic chemicals, such as:;;WAHR;2017;Carbon dioxide (CO2);Greenhouse gases;2580000000;Air
5732;10061;Esso Nederland BV (Raffinaderij Rotterdam);Botlekweg;121;3197KA;Botlek Rotterdam;Netherlands;51.87221;4.29626;The National Institute for Public Health and the Environment (RIVM);1.(a);Energy sector;Mineral oil and gas refineries;;WAHR;2017;Carbon dioxide (CO2);Greenhouse gases;2540000000;Air
5729;10058;BP Raffinaderij Rotterdam B.V.;dArcyweg;76;3198NA;Europoort Rotterdam;Netherlands;51.94499;4.1078;The National Institute for Public Health and the Environment (RIVM);1.(a);Energy sector;Mineral oil and gas refineries;;WAHR;2017;Carbon dioxide (CO2);Greenhouse gases;2070000000;Air
5889;104001;ENGIE Energie Nederland NV - Eemscentrale;ROBBENPLAATWEG;17;9979XL;Eemshaven;Netherlands;53.43662;6.88089;The National Institute for Public Health and the Environment (RIVM);1.(c);Energy sector;Thermal power stations and other combustion installations;;WAHR;2017;Carbon dioxide (CO2);Greenhouse gases;1970000000;Air
177158;204654;ENECOGEN V.O.F.;Markweg;194;3198NB;Europoort Rotterdam;Netherlands;51.95838;4.09409;The National Institute for Public Health and the Environment (RIVM);1.(c);Energy sector;Thermal power stations and other combustion installations;;WAHR;2017;Carbon dioxide (CO2);Greenhouse gases;1730000000;Air
8407;28176;Nuon Power Generation BV (IJmond 1);Hoge Drukweg;1;1951JZ;Velsen-Noord;Netherlands;52.47488;4.60558;The National Institute for Public Health and the Environment (RIVM);1.(c);Energy sector;Thermal power stations and other combustion installations;;WAHR;2017;Carbon dioxide (CO2);Greenhouse gases;1720000000;Air
5734;10063;AVR;Professor Gerbrandyweg;10;3197KK;Botlek Rotterdam;Netherlands;51.89704;4.27639;The National Institute for Public Health and the Environment (RIVM);5.(b);Waste and waste water management;Installations for the incineration of non-hazardous waste in the scope of Directive 2000/76/EC of the European Parliament and of the Council of 4 December 2000 on the incineration of waste;;WAHR;2017;Carbon dioxide (CO2);Greenhouse gases;1670000000;Air
10003;51501;Zeeland Refinery N.V.;LUXEMBURGWEG;1;4455TM;Nieuwdorp;Netherlands;51.44562;3.72704;The National Institute for Public Health and the Environment (RIVM);1.(a);Energy sector;Mineral oil and gas refineries;;WAHR;2017;Carbon dioxide (CO2);Greenhouse gases;1600000000;Air
300252;203228;Nuon Power Generation BV (Eemshaven);Synergieweg;11;9979XD;Eemshaven;Netherlands;47.97476;3.31354;The National Institute for Public Health and the Environment (RIVM);1.(c);Energy sector;Thermal power stations and other combustion installations;;WAHR;2017;Carbon dioxide (CO2);Greenhouse gases;1600000000;Air
8395;28085;AEB Amsterdam;Australiëhavenweg;21;1045BA;Amsterdam;Netherlands;52.39975;4.79289;The National Institute for Public Health and the Environment (RIVM);5.(b);Waste and waste water management;Installations for the incineration of non-hazardous waste in the scope of Directive 2000/76/EC of the European Parliament and of the Council of 4 December 2000 on the incineration of waste;;WAHR;2017;Carbon dioxide (CO2);Greenhouse gases;1540000000;Air
6141;114744;ELSTA B.V.;Herbert H. Dowweg;5 d;4542NM;Hoek;Netherlands;51.33316;3.77856;The National Institute for Public Health and the Environment (RIVM);1.(c);Energy sector;Thermal power stations and other combustion installations;;WAHR;2017;Carbon dioxide (CO2);Greenhouse gases;1360000000;Air
121256;201386;Sloe Centrale BV (Vlissingen);Albanieweg;10;4389PR;Ritthem;Netherlands;51.44882;3.69338;The National Institute for Public Health and the Environment (RIVM);1.(c);Energy sector;Thermal power stations and other combustion installations;;WAHR;2017;Carbon dioxide (CO2);Greenhouse gases;1260000000;Air
9842;49006;WKC Moerdijk;Middenweg;36;4782PM;Moerdijk;Netherlands;51.6849;4.58079;The National Institute for Public Health and the Environment (RIVM);1.(c);Energy sector;Thermal power stations and other combustion installations;;WAHR;2017;Carbon dioxide (CO2);Greenhouse gases;1220000000;Air
78446;203411;Air Liquide Pergen VOF;Vondelingenweg;601;3196KK;Pernis Rotterdam;Netherlands;51.8858;4.36753;The National Institute for Public Health and the Environment (RIVM);1.(c);Energy sector;Thermal power stations and other combustion installations;;WAHR;2017;Carbon dioxide (CO2);Greenhouse gases;1170000000;Air
19642;114001;Maxima-centrale;IJsselmeerdijk;101;8221RC;Lelystad;Netherlands;52.57722;5.53022;The National Institute for Public Health and the Environment (RIVM);1.(c);Energy sector;Thermal power stations and other combustion installations;;WAHR;2017;Carbon dioxide (CO2);Greenhouse gases;1160000000;Air
8040;24002;Nuon Power Generation BV (Diemen);Overdiemerweg;35;1111PP;Diemen;Netherlands;52.33885;5.02119;The National Institute for Public Health and the Environment (RIVM);1.(c);Energy sector;Thermal power stations and other combustion installations;;WAHR;2017;Carbon dioxide (CO2);Greenhouse gases;1060000000;Air
8398;28091;HVC N.V.;Jadestraat;1;1812RD;Alkmaar;Netherlands;52.60978;4.76269;The National Institute for Public Health and the Environment (RIVM);5.(b);Waste and waste water management;Installations for the incineration of non-hazardous waste in the scope of Directive 2000/76/EC of the European Parliament and of the Council of 4 December 2000 on the incineration of waste;;WAHR;2017;Carbon dioxide (CO2);Greenhouse gases;1060000000;Air
9538;44009;BV Afvalverbranding Zuid Nederland (AZN);MIDDENWEG;34;4782PM;Moerdijk;Netherlands;51.68326;4.58162;The National Institute for Public Health and the Environment (RIVM);5.(b);Waste and waste water management;Installations for the incineration of non-hazardous waste in the scope of Directive 2000/76/EC of the European Parliament and of the Council of 4 December 2000 on the incineration of waste;;WAHR;2017;Carbon dioxide (CO2);Greenhouse gases;1020000000;Air
10738;75305;locatie Boeldershoek;Boldershoekweg;51;7554RT;Hengelo;Netherlands;52.23426;6.78419;The National Institute for Public Health and the Environment (RIVM);1.(c);Energy sector;Thermal power stations and other combustion installations;;WAHR;2017;Carbon dioxide (CO2);Greenhouse gases;910000000;Air
177145;202990;Alco Energy Rotterdam;Merwedeweg;10;3198LH;Europoort Rotterdam;Netherlands;51.92637;4.18356;The National Institute for Public Health and the Environment (RIVM);1.(c);Energy sector;Thermal power stations and other combustion installations;;WAHR;2017;Carbon dioxide (CO2);Greenhouse gases;646000000;Air
191942;204851;Air Products HyCo 4 (Botlekweg);Botlekweg;127;3197KA;Botlek Rotterdam;Netherlands;51.87;4.28742;The National Institute for Public Health and the Environment (RIVM);4.(b);Chemical industry;Chemical installations for the production on an industrial scale of basic inorganic chemicals, such as:;;WAHR;2017;Carbon dioxide (CO2);Greenhouse gases;642000000;Air
121220;12175;Air Liquide Industrie BV;Merseyweg;10;3197KG;Botlek Rotterdam;Netherlands;51.88524;4.25626;The National Institute for Public Health and the Environment (RIVM);4.(b);Chemical industry;Chemical installations for the production on an industrial scale of basic inorganic chemicals, such as:;;WAHR;2017;Carbon dioxide (CO2);Greenhouse gases;641000000;Air
11053;85002;Attero Noord BV;VAMWEG;7;9418TM;Wijster;Netherlands;52.79126;6.51497;The National Institute for Public Health and the Environment (RIVM);5.(b);Waste and waste water management;Installations for the incineration of non-hazardous waste in the scope of Directive 2000/76/EC of the European Parliament and of the Council of 4 December 2000 on the incineration of waste;;WAHR;2017;Carbon dioxide (CO2);Greenhouse gases;576000000;Air
19760;202825;Eneco Lage Weide;Atoomweg;07. Sep;3542AA;Utrecht;Netherlands;52.10302;5.07229;The National Institute for Public Health and the Environment (RIVM);1.(c);Energy sector;Thermal power stations and other combustion installations;;WAHR;2017;Carbon dioxide (CO2);Greenhouse gases;549000000;Air
10436;64004;AVR Afvalverwerking BV (Duiven);Rivierweg;20;6921PZ;Duiven;Netherlands;51.97054;6.00036;The National Institute for Public Health and the Environment (RIVM);5.(c);Waste and waste water management;Installations for the disposal of non-hazardous waste;;WAHR;2017;Carbon dioxide (CO2);Greenhouse gases;543000000;Air
6792;148;ENCI BV (Maastricht);Lage Kanaaldijk;115;6212NA;Maastricht;Netherlands;50.81815;5.6891;The National Institute for Public Health and the Environment (RIVM);3.(c);Mineral industry;Installations for the production of:;;WAHR;2017;Carbon dioxide (CO2);Greenhouse gases;533000000;Air
19670;115181;Rijnmond Power Plant;Petroleumweg;46;3196KD;Vondelingenplaat Rotterdam;Netherlands;51.89084;4.3518;The National Institute for Public Health and the Environment (RIVM);1.(c);Energy sector;Thermal power stations and other combustion installations;;WAHR;2017;Carbon dioxide (CO2);Greenhouse gases;521000000;Air
5890;104003;Delesto B.V.;Oosterhorn;4;9936HD;Farmsum;Netherlands;53.31883;6.95435;The National Institute for Public Health and the Environment (RIVM);1.(c);Energy sector;Thermal power stations and other combustion installations;;WAHR;2017;Carbon dioxide (CO2);Greenhouse gases;468000000;Air
159215;203220;EEW Energy from Waste Delfzijl B.V.;Oosterhorn;38;9936HD;Farmsum;Netherlands;53.30972;6.98764;The National Institute for Public Health and the Environment (RIVM);5.(b);Waste and waste water management;Installations for the incineration of non-hazardous waste in the scope of Directive 2000/76/EC of the European Parliament and of the Council of 4 December 2000 on the incineration of waste;;WAHR;2017;Carbon dioxide (CO2);Greenhouse gases;458000000;Air
212853;204944;Eneco Bio Golden Raand C.V.;Metaalpark;20;9936BV;Farmsum;Netherlands;53.31022;6.98392;The National Institute for Public Health and the Environment (RIVM);5.(c);Waste and waste water management;Installations for the disposal of non-hazardous waste;;WAHR;2017;Carbon dioxide (CO2);Greenhouse gases;440000000;Air
5730;10059;Gunvor Petroleum Rotterdam B.V. (GPR);Moezelweg;255;3198LS;Europoort Rotterdam;Netherlands;51.93494;4.16573;The National Institute for Public Health and the Environment (RIVM);1.(a);Energy sector;Mineral oil and gas refineries;;WAHR;2017;Carbon dioxide (CO2);Greenhouse gases;435000000;Air
177150;203505;Maasstroom Energie CV;Petroleumweg;46;3196KD;Vondelingenplaat Rotterdam;Netherlands;51.88984;4.35214;The National Institute for Public Health and the Environment (RIVM);1.(c);Energy sector;Thermal power stations and other combustion installations;;WAHR;2017;Carbon dioxide (CO2);Greenhouse gases;425000000;Air
5751;101103;BioMethanol Chemie Nederland BV (BioMCN);Oosterhorn;10;9936HD;Farmsum;Netherlands;53.31375;6.96243;The National Institute for Public Health and the Environment (RIVM);4.(a);Chemical industry;Chemical installations for the production on an industrial scale of basic organic chemicals, such as:;;WAHR;2017;Carbon dioxide (CO2);Greenhouse gases;354000000;Air
37436;44007;SUEZ ReEnergy;Potendreef;2;4703RK;Roosendaal;Netherlands;51.54762;4.44361;The National Institute for Public Health and the Environment (RIVM);5.(b);Waste and waste water management;Installations for the incineration of non-hazardous waste in the scope of Directive 2000/76/EC of the European Parliament and of the Council of 4 December 2000 on the incineration of waste;;WAHR;2017;Carbon dioxide (CO2);Greenhouse gases;346000000;Air
10437;64005;ARN B.V.;NIEUWE PIECKELAAN;1;6551DX;Weurt;Netherlands;51.8463;5.79452;The National Institute for Public Health and the Environment (RIVM);1.(c);Energy sector;Thermal power stations and other combustion installations;;WAHR;2017;Carbon dioxide (CO2);Greenhouse gases;343000000;Air
5739;10076;HVC AfvalEnergieCentrale Dordrecht;Baanhoekweg;40;3313LA;Dordrecht;Netherlands;51.81542;4.73767;The National Institute for Public Health and the Environment (RIVM);5.(b);Waste and waste water management;Installations for the incineration of non-hazardous waste in the scope of Directive 2000/76/EC of the European Parliament and of the Council of 4 December 2000 on the incineration of waste;;WAHR;2017;Carbon dioxide (CO2);Greenhouse gases;325000000;Air
9371;41521;Afvalstoffen Terminal Moerdijk BV (ATM);Vlasweg;12;4782PW;Moerdijk;Netherlands;51.69383;4.59954;The National Institute for Public Health and the Environment (RIVM);5.(a);Waste and waste water management;Installations for the recovery or disposal of hazardous waste;;WAHR;2017;Carbon dioxide (CO2);Greenhouse gases;324000000;Air
19759;202824;Eneco Merwedekanaal;Keulsekade;181;3534AC;Utrecht;Netherlands;52.10093;5.07917;The National Institute for Public Health and the Environment (RIVM);1.(c);Energy sector;Thermal power stations and other combustion installations;;WAHR;2017;Carbon dioxide (CO2);Greenhouse gases;319000000;Air
78381;201304;Biomassacentrale Moerdijk;Middenweg;36 a;4782PM;Moerdijk;Netherlands;51.68614;4.58161;The National Institute for Public Health and the Environment (RIVM);5.(c);Waste and waste water management;Installations for the disposal of non-hazardous waste;;WAHR;2017;Carbon dioxide (CO2);Greenhouse gases;317000000;Air
10586;71105;Akzo Nobel Chemicals BV (Hengelo);Boortorenweg;27;7554RS;Hengelo;Netherlands;52.24674;6.79425;The National Institute for Public Health and the Environment (RIVM);1.(c);Energy sector;Thermal power stations and other combustion installations;;WAHR;2017;Carbon dioxide (CO2);Greenhouse gases;298000000;Air
6311;12150;Uniper Centrale RoCa;Capelseweg;400;3068AX;Rotterdam;Netherlands;51.95359;4.5611;The National Institute for Public Health and the Environment (RIVM);1.(c);Energy sector;Thermal power stations and other combustion installations;;WAHR;2017;Carbon dioxide (CO2);Greenhouse gases;296000000;Air
9346;41101;SABIC Innovative Plastics BV;Plasticslaan;1;4612PX;Bergen op Zoom;Netherlands;51.51059;4.25585;The National Institute for Public Health and the Environment (RIVM);4.(a);Chemical industry;Chemical installations for the production on an industrial scale of basic organic chemicals, such as:;;WAHR;2017;Carbon dioxide (CO2);Greenhouse gases;274000000;Air
5677;10004;Lyondell Chemical Nederland Ltd.;Theemsweg;14;3197KM;Botlek Rotterdam;Netherlands;51.88203;4.25287;The National Institute for Public Health and the Environment (RIVM);4.(a);Chemical industry;Chemical installations for the production on an industrial scale of basic organic chemicals, such as:;;WAHR;2017;Carbon dioxide (CO2);Greenhouse gases;269000000;Air
177149;203496;Reststoffen Energie Centrale (REC);Lange Lijnbaan;14;8861NW;Harlingen;Netherlands;53.19045;5.4291;The National Institute for Public Health and the Environment (RIVM);5.(b);Waste and waste water management;Installations for the incineration of non-hazardous waste in the scope of Directive 2000/76/EC of the European Parliament and of the Council of 4 December 2000 on the incineration of waste;;WAHR;2017;Carbon dioxide (CO2);Greenhouse gases;266000000;Air
5979;10689;Air Products Nederland BV (Botlek);Boyneweg;10;3197LK;Botlek Rotterdam;Netherlands;51.87894;4.25933;The National Institute for Public Health and the Environment (RIVM);4.(b);Chemical industry;Chemical installations for the production on an industrial scale of basic inorganic chemicals, such as:;;WAHR;2017;Carbon dioxide (CO2);Greenhouse gases;244000000;Air
6142;114757;Eurogen CV;Merseyweg;10;3197KG;Botlek Rotterdam;Netherlands;51.88462;4.25733;The National Institute for Public Health and the Environment (RIVM);1.(c);Energy sector;Thermal power stations and other combustion installations;;WAHR;2017;Carbon dioxide (CO2);Greenhouse gases;241000000;Air
37170;11024;Cabot BV;Botlekstraat;2;3197KC;Botlek Rotterdam;Netherlands;51.89141;4.26431;The National Institute for Public Health and the Environment (RIVM);4.(b);Chemical industry;Chemical installations for the production on an industrial scale of basic inorganic chemicals, such as:;;WAHR;2017;Carbon dioxide (CO2);Greenhouse gases;240000000;Air
10070;52612;Cargill Benelux BV;NIJVERHEIDSSTRAAT;1;4551LA;Sas Van Gent;Netherlands;51.23582;3.8026;The National Institute for Public Health and the Environment (RIVM);8.(b);Animal and vegetable products from the food and beverage sector;Treatment and processing intended for the production of food and beverage products from:;;WAHR;2017;Carbon dioxide (CO2);Greenhouse gases;238000000;Air
10447;64360;Smurfit Kappa Parenco B.V.;VEERWEG;1;6871AV;Renkum;Netherlands;51.96997;5.72846;The National Institute for Public Health and the Environment (RIVM);6.(b);Paper and wood production processing;Industrial plants for the production of paper and board and other primary wood products;;WAHR;2017;Carbon dioxide (CO2);Greenhouse gases;226000000;Air
37199;10953;Uniper Centrale Den Haag;De Constant Rebecqueplein;20;2518RA;s-Gravenhage;Netherlands;52.07592;4.29056;The National Institute for Public Health and the Environment (RIVM);1.(c);Energy sector;Thermal power stations and other combustion installations;;WAHR;2017;Carbon dioxide (CO2);Greenhouse gases;175000000;Air
10443;64335;DS Smith Paper De Hoop Mill;Harderwijkerweg;41;6961GH;Eerbeek;Netherlands;52.09756;6.05477;The National Institute for Public Health and the Environment (RIVM);6.(b);Paper and wood production processing;Industrial plants for the production of paper and board and other primary wood products;;WAHR;2017;Carbon dioxide (CO2);Greenhouse gases;171000000;Air
9483;4301;Smurfit Kappa Roermond Papier BV;MIJNHEERKENSWEG;18;6041TA;Roermond;Netherlands;51.20616;6.00251;The National Institute for Public Health and the Environment (RIVM);6.(b);Paper and wood production processing;Industrial plants for the production of paper and board and other primary wood products;;WAHR;2017;Carbon dioxide (CO2);Greenhouse gases;170000000;Air
78377;201241;Emmtec Services BV;Eerste Bokslootweg;17;7821AT;Emmen;Netherlands;52.77499;6.90699;The National Institute for Public Health and the Environment (RIVM);1.(c);Energy sector;Thermal power stations and other combustion installations;;WAHR;2017;Carbon dioxide (CO2);Greenhouse gases;166000000;Air
10354;60;Sappi Maastricht BV;BIESENWEG;16;6211AA;Maastricht;Netherlands;50.85772;5.69424;The National Institute for Public Health and the Environment (RIVM);6.(b);Paper and wood production processing;Industrial plants for the production of paper and board and other primary wood products;;WAHR;2017;Carbon dioxide (CO2);Greenhouse gases;157000000;Air
9680;47001;Slibverwerking Noord-Brabant NV;MIDDENWEG;38;4782PM;Moerdijk;Netherlands;51.68962;4.58016;The National Institute for Public Health and the Environment (RIVM);5.(c);Waste and waste water management;Installations for the disposal of non-hazardous waste;;WAHR;2017;Carbon dioxide (CO2);Greenhouse gases;152000000;Air
6300;12134;Archer Daniels Midland Europoort BV (ADM);ELBEWEG;125;3198LC;Europoort Rotterdam;Netherlands;51.95596;4.12249;The National Institute for Public Health and the Environment (RIVM);8.(b);Animal and vegetable products from the food and beverage sector;Treatment and processing intended for the production of food and beverage products from:;;WAHR;2017;Carbon dioxide (CO2);Greenhouse gases;147000000;Air
5919;104710;ESD-SIC BV;Kloosterlaan;Nov 13;9936TE;Farmsum;Netherlands;53.29719;6.96541;The National Institute for Public Health and the Environment (RIVM);4.(b);Chemical industry;Chemical installations for the production on an industrial scale of basic inorganic chemicals, such as:;;WAHR;2017;Carbon dioxide (CO2);Greenhouse gases;143000000;Air
9717;4753;Rockwool B.V.;INDUSTRIEWEG;15;6045JG;Roermond;Netherlands;51.17061;6.04371;The National Institute for Public Health and the Environment (RIVM);3.(f);Mineral industry;Installations for melting mineral substances, including the production of mineral fibres;;WAHR;2017;Carbon dioxide (CO2);Greenhouse gases;142000000;Air
8062;24302;Crown van Gelder B.V.;EENDRACHTSSTRAAT;30;1951AZ;VELSEN-NOORD;Netherlands;52.467;4.63641;The National Institute for Public Health and the Environment (RIVM);6.(b);Paper and wood production processing;Industrial plants for the production of paper and board and other primary wood products;;WAHR;2017;Carbon dioxide (CO2);Greenhouse gases;138000000;Air
6313;12158;DRSH Zuiveringsslib N.V.;Baanhoekweg;40;3313LA;Dordrecht;Netherlands;51.81651;4.74067;The National Institute for Public Health and the Environment (RIVM);5.(b);Waste and waste water management;Installations for the incineration of non-hazardous waste in the scope of Directive 2000/76/EC of the European Parliament and of the Council of 4 December 2000 on the incineration of waste;;WAHR;2017;Carbon dioxide (CO2);Greenhouse gases;134000000;Air
5816;102302;Suiker Unie-Vierverlaten;FABRIEKSLAAN;12;9745AG;Groningen;Netherlands;53.21379;6.49511;The National Institute for Public Health and the Environment (RIVM);8.(b);Animal and vegetable products from the food and beverage sector;Treatment and processing intended for the production of food and beverage products from:;;WAHR;2017;Carbon dioxide (CO2);Greenhouse gases;129000000;Air
9420;42310;Suiker Unie (Dinteloord);Noordzeedijk;113 Prodlocdo;4671TL;Dinteloord;Netherlands;51.61818;4.43437;The National Institute for Public Health and the Environment (RIVM);8.(b);Animal and vegetable products from the food and beverage sector;Treatment and processing intended for the production of food and beverage products from:;;WAHR;2017;Carbon dioxide (CO2);Greenhouse gases;121000000;Air
78487;49016;BECC B.V.;Lange Oijen;31;5433NG;Katwijk NB;Netherlands;51.75385;5.8522;The National Institute for Public Health and the Environment (RIVM);1.(c);Energy sector;Thermal power stations and other combustion installations;;WAHR;2017;Carbon dioxide (CO2);Greenhouse gases;121000000;Air
37198;10951;Uniper Centrale Leiden;Maresingel;21 e;2316HB;Leiden;Netherlands;52.16398;4.49404;The National Institute for Public Health and the Environment (RIVM);1.(c);Energy sector;Thermal power stations and other combustion installations;;WAHR;2017;Carbon dioxide (CO2);Greenhouse gases;118000000;Air
5831;102620;Avebe u.a. (Ter Apelkanaal);M en O Weg;13;9563TM;Ter Apelkanaal;Netherlands;52.92103;7.04574;The National Institute for Public Health and the Environment (RIVM);8.(b);Animal and vegetable products from the food and beverage sector;Treatment and processing intended for the production of food and beverage products from:;;WAHR;2017;Carbon dioxide (CO2);Greenhouse gases;117000000;Air
121221;12177;VPR Energy B.V.;Neckarweg;5;3198LJ;Europoort Rotterdam;Netherlands;51.91026;4.21727;The National Institute for Public Health and the Environment (RIVM);1.(a);Energy sector;Mineral oil and gas refineries;;WAHR;2017;Carbon dioxide (CO2);Greenhouse gases;117000000;Air
9399;42034;FrieslandCampina DMV B.V.;N.C.B.-Laan;80;5462GE;Veghel;Netherlands;51.61507;5.52509;The National Institute for Public Health and the Environment (RIVM);8.(c);Animal and vegetable products from the food and beverage sector;Treatment and processing of milk;;WAHR;2017;Carbon dioxide (CO2);Greenhouse gases;110000000;Air
7336;19071;Shin-Etsu PVC BV (VCM Botlek);Welplaatweg;12;3197KS;Botlek Rotterdam;Netherlands;51.87111;4.27797;The National Institute for Public Health and the Environment (RIVM);4.(a);Chemical industry;Chemical installations for the production on an industrial scale of basic organic chemicals, such as:;;WAHR;2017;Carbon dioxide (CO2);Greenhouse gases;101000000;Air
